{"type": "FeatureCollection", "features": [{"type": "Feature", "geometry": {"type": "Polygon", "coordinates": [[[84.9756354, 27.8153359], [84.9754746, 27.8152949], [84.9754387, 27.8153002], [84.9739481, 27.8153877], [84.972455, 27.8153449], [84.9709738, 27.8151721], [84.9695188, 27.8148711], [84.968104, 27.8144447], [84.9667431, 27.813897], [84.9654491, 27.8132334], [84.9642345, 27.8124601], [84.963111, 27.8115848], [84.9620894, 27.8106157], [84.9611796, 27.8095622], [84.9603903, 27.8084346], [84.9597292, 27.8072435], [84.9592025, 27.8060006], [84.9588154, 27.8047178], [84.9585716, 27.8034074], [84.9584734, 27.802082], [84.9585217, 27.8007545], [84.9587161, 27.7994376], [84.9590548, 27.7981439], [84.9595344, 27.7968861], [84.9601503, 27.795676], [84.9608966, 27.7945255], [84.9617661, 27.7934456], [84.9627505, 27.7924466], [84.9638402, 27.7915383], [84.9650247, 27.7907293], [84.9662927, 27.7900274], [84.9676319, 27.7894394], [84.9690294, 27.788971], [84.9704719, 27.7886267], [84.9717688, 27.788377], [84.9729655, 27.7881907], [84.9741752, 27.78809], [84.9753046, 27.7880362], [84.9762814, 27.7879899], [84.9778282, 27.7879866], [84.9793674, 27.7881229], [84.9808831, 27.7883974], [84.9823596, 27.7888073], [84.9825648, 27.7888746], [84.982992, 27.7889024], [84.984303, 27.7890908], [84.9855906, 27.7893801], [84.9864274, 27.789603], [84.9876283, 27.7899863], [84.9884095, 27.7898463], [84.9898019, 27.7897134], [84.9901506, 27.7896945], [84.9914851, 27.7896743], [84.9928165, 27.7897581], [84.9940032, 27.7899267], [84.9950562, 27.7895927], [84.9962583, 27.7893074], [84.9980114, 27.7889588], [84.9982217, 27.7889169], [84.9997815, 27.7886812], [85.0013603, 27.7885908], [85.0029411, 27.7886466], [85.0045069, 27.788848], [85.0060408, 27.7891929], [85.0075261, 27.7896775], [85.007982, 27.7898507], [85.0099662, 27.7907627], [85.0108056, 27.7912209], [85.0115254, 27.7915404], [85.0132835, 27.7922326], [85.0143788, 27.7927114], [85.0145203, 27.7927863], [85.0146825, 27.79283], [85.0154709, 27.7930648], [85.0174281, 27.7937859], [85.0176176, 27.7938699], [85.0177652, 27.7939362], [85.0187124, 27.7943675], [85.0188346, 27.7944153], [85.0195414, 27.7947111], [85.0206142, 27.7951903], [85.022085, 27.7959414], [85.0234527, 27.7968333], [85.0238094, 27.7970942], [85.0250074, 27.7980706], [85.0260815, 27.799155], [85.0270195, 27.800335], [85.0272529, 27.8006647], [85.0280574, 27.8019512], [85.0287001, 27.8033077], [85.0291733, 27.8047183], [85.0292726, 27.8050861], [85.029538, 27.8063193], [85.0296738, 27.807569], [85.0296787, 27.8088245], [85.0295528, 27.8100751], [85.0292971, 27.8113099], [85.0292958, 27.8113138], [85.0298416, 27.8120577], [85.0304683, 27.813101], [85.0309903, 27.8141889], [85.0311136, 27.8144807], [85.0316537, 27.816037], [85.0317799, 27.8164972], [85.0319113, 27.8170216], [85.0320267, 27.8175292], [85.032242, 27.8187713], [85.0324013, 27.8200957], [85.0325093, 27.8208761], [85.0325824, 27.8215387], [85.0326276, 27.8220873], [85.0336704, 27.8231908], [85.0340994, 27.8236662], [85.0347536, 27.8244253], [85.0354134, 27.8252536], [85.0356411, 27.8255635], [85.0362827, 27.8265203], [85.0368336, 27.8275208], [85.0372901, 27.8285582], [85.0373661, 27.8287544], [85.037766, 27.8299674], [85.0379353, 27.8305872], [85.0382614, 27.8322005], [85.0383231, 27.8326668], [85.0383968, 27.8330286], [85.0385802, 27.834237], [85.0386405, 27.835455], [85.0385772, 27.836673], [85.0383948, 27.8378558], [85.0391407, 27.8384423], [85.0400196, 27.8392594], [85.0402177, 27.8394597], [85.04121, 27.8405761], [85.0414454, 27.8409073], [85.0425359, 27.8404613], [85.0437496, 27.8400718], [85.0449961, 27.839775], [85.0456182, 27.8396517], [85.046951, 27.8394423], [85.0482994, 27.839339], [85.0491979, 27.8393058], [85.0506105, 27.8393119], [85.0520164, 27.8394343], [85.0529175, 27.8395505], [85.0539209, 27.8397105], [85.0547365, 27.8398658], [85.0561469, 27.8401978], [85.0578013, 27.8406638], [85.0597401, 27.8413427], [85.0613842, 27.8420374], [85.0622955, 27.8424693], [85.0623243, 27.8424522], [85.0634097, 27.8418635], [85.0645466, 27.8413574], [85.0661129, 27.8407313], [85.0675237, 27.8402409], [85.0689823, 27.8398774], [85.0704744, 27.8396446], [85.0719851, 27.8395446], [85.0734995, 27.8395786], [85.0750026, 27.8397462], [85.0774083, 27.8401233], [85.0790405, 27.8404623], [85.0806209, 27.8409588], [85.0821303, 27.8416066], [85.0835506, 27.842398], [85.0840648, 27.8427209], [85.0868973, 27.8428081], [85.0884276, 27.8429241], [85.0899369, 27.8431764], [85.0914099, 27.8435627], [85.0928317, 27.8440788], [85.0943193, 27.8446983], [85.0948854, 27.8449469], [85.0952771, 27.845128], [85.0960436, 27.8455236], [85.0969121, 27.8452785], [85.0978651, 27.8450594], [85.0993835, 27.8447828], [85.1009257, 27.8446447], [85.102626, 27.8445699], [85.1037638, 27.8445577], [85.1048994, 27.844621], [85.1067268, 27.844784], [85.1079217, 27.8449333], [85.1090995, 27.8451661], [85.1101363, 27.8454098], [85.1117024, 27.8458596], [85.1132046, 27.846457], [85.1146256, 27.8471949], [85.1150437, 27.8474399], [85.1162734, 27.8482418], [85.1174068, 27.8491489], [85.1184324, 27.8501523], [85.1187985, 27.8505919], [85.1194143, 27.8509628], [85.1204446, 27.8517077], [85.1206278, 27.8518524], [85.1217392, 27.852825], [85.1227327, 27.8538936], [85.1235981, 27.8550469], [85.1243263, 27.8562728], [85.1249096, 27.8575584], [85.1252464, 27.8585961], [85.1254072, 27.8589016], [85.1254746, 27.8590316], [85.1257289, 27.8595282], [85.1258433, 27.8597574], [85.1258444, 27.8597596], [85.1259154, 27.8597931], [85.1272408, 27.8604981], [85.1280416, 27.8609746], [85.1281673, 27.8610078], [85.128892, 27.8612168], [85.1299218, 27.8615393], [85.131487, 27.8621182], [85.13297, 27.8628482], [85.1343526, 27.8637201], [85.1348355, 27.8640621], [85.1359463, 27.8649303], [85.136957, 27.8658902], [85.1378583, 27.8669327], [85.1381748, 27.8673382], [85.1389009, 27.8683634], [85.1395209, 27.8694421], [85.14003, 27.8705658], [85.1402816, 27.8712022], [85.1408229, 27.8729287], [85.1409716, 27.8735626], [85.1411727, 27.8747506], [85.1423636, 27.8755233], [85.1435818, 27.8764026], [85.1438845, 27.8766451], [85.1445135, 27.8769851], [85.1456526, 27.877665], [85.1467183, 27.8784333], [85.1477018, 27.8792837], [85.1481634, 27.8797204], [85.1490828, 27.8806755], [85.1498985, 27.8817023], [85.1506036, 27.8827918], [85.1511919, 27.8839348], [85.1516583, 27.8851213], [85.1519989, 27.8863412], [85.1522107, 27.8875838], [85.1522918, 27.8888386], [85.1523084, 27.8901832], [85.1522391, 27.8916295], [85.1519964, 27.8930609], [85.1519418, 27.8932458], [85.1521682, 27.8934652], [85.1530774, 27.8945444], [85.1538613, 27.8956986], [85.1545121, 27.8969163], [85.1550233, 27.8981855], [85.1554313, 27.8993831], [85.1558549, 27.9009634], [85.1560624, 27.9025773], [85.1561044, 27.9032715], [85.1560965, 27.9048455], [85.1558829, 27.9064081], [85.155768, 27.9069723], [85.1554294, 27.9082677], [85.1550972, 27.9091392], [85.1561499, 27.9094496], [85.1575119, 27.9099876], [85.1588083, 27.9106413], [85.1600267, 27.9114043], [85.1601691, 27.9115031], [85.161486, 27.9125304], [85.1626615, 27.9136852], [85.1628105, 27.9138497], [85.163483, 27.9146508], [85.1640871, 27.9154938], [85.1642646, 27.915763], [85.1643609, 27.9159112], [85.1644836, 27.9161028], [85.1651862, 27.9173438], [85.1657419, 27.9186422], [85.1657967, 27.9187932], [85.1662196, 27.9202199], [85.1662568, 27.9203806], [85.1665343, 27.9221901], [85.1665563, 27.9224767], [85.1665762, 27.9234057], [85.1673521, 27.9242296], [85.1681232, 27.9252135], [85.1687931, 27.9262542], [85.1693569, 27.9273434], [85.1696033, 27.9278812], [85.1700825, 27.9290871], [85.1704315, 27.9303278], [85.1705508, 27.9310275], [85.1716728, 27.9325748], [85.1725811, 27.9340485], [85.1730991, 27.9349708], [85.1735367, 27.9359254], [85.1742738, 27.9377273], [85.1744945, 27.9383682], [85.1745084, 27.9383818], [85.1754154, 27.9394688], [85.1761957, 27.9406308], [85.1768415, 27.9418561], [85.1773463, 27.9431326], [85.1774815, 27.9435381], [85.1778609, 27.9449507], [85.1780676, 27.9463914], [85.1780956, 27.9476719], [85.1781845, 27.9477472], [85.1792101, 27.9488196], [85.180105, 27.9499806], [85.1808593, 27.9512179], [85.1812714, 27.951987], [85.1812992, 27.9520389], [85.1824143, 27.9524622], [85.1839124, 27.9532187], [85.1845334, 27.9535749], [85.1857804, 27.9543722], [85.1869307, 27.955277], [85.1879726, 27.9562799], [85.1885936, 27.9569418], [85.1894147, 27.9579005], [85.1895242, 27.9580552], [85.1899915, 27.9582478], [85.191512, 27.9589696], [85.1917386, 27.9590923], [85.1928621, 27.9597632], [85.1939141, 27.9605199], [85.1948864, 27.9613565], [85.1957713, 27.9622663], [85.1965618, 27.9632424], [85.1970983, 27.9639709], [85.1978379, 27.9650888], [85.1984536, 27.9662644], [85.1989399, 27.9674869], [85.1992922, 27.968745], [85.1995073, 27.9700274], [85.1995905, 27.970764], [85.1996661, 27.9720059], [85.199613, 27.9732488], [85.1994316, 27.9744821], [85.1991235, 27.9756954], [85.1986912, 27.9768784], [85.1981384, 27.9780212], [85.1977607, 27.9787125], [85.1970082, 27.9799272], [85.1967691, 27.980234], [85.1966473, 27.980794], [85.1963633, 27.9818646], [85.1962182, 27.9823263], [85.1959594, 27.9830312], [85.1963323, 27.9836071], [85.1969668, 27.9848706], [85.1970816, 27.9851348], [85.1976146, 27.9866062], [85.1979552, 27.988122], [85.1979663, 27.9881923], [85.1983542, 27.9886123], [85.1984935, 27.9887835], [85.199228, 27.9897748], [85.1998618, 27.9908194], [85.2003902, 27.9919092], [85.200809, 27.9930359], [85.2008473, 27.9931565], [85.2011791, 27.9944348], [85.2013699, 27.9957357], [85.2014179, 27.9970468], [85.2013227, 27.9983559], [85.2013008, 27.9985272], [85.2010021, 28.0000658], [85.2005057, 28.0015638], [85.2004219, 28.0017715], [85.2000023, 28.0027017], [85.199854, 28.0029982], [85.1994604, 28.0037148], [85.1995252, 28.0045465], [85.1995252, 28.0047587], [85.1994315, 28.0062591], [85.1993824, 28.0066498], [85.1991677, 28.0076773], [85.1997896, 28.0083986], [85.2005925, 28.0095535], [85.2012612, 28.0107739], [85.2017888, 28.0120477], [85.2018489, 28.0122189], [85.2021986, 28.0133996], [85.202427, 28.0146036], [85.2024406, 28.0147024], [85.202543, 28.0158461], [85.2025485, 28.0159788], [85.2025468, 28.0164018], [85.2025849, 28.0167549], [85.2025864, 28.0169574], [85.2027601, 28.0170935], [85.2027606, 28.0170939], [85.2031091, 28.017351], [85.2043076, 28.0184621], [85.2047496, 28.018978], [85.2048072, 28.0190381], [85.2056435, 28.0199929], [85.2063805, 28.0210102], [85.2070122, 28.0220818], [85.2075336, 28.0231991], [85.2076395, 28.0234583], [85.2080671, 28.0246824], [85.2083623, 28.0259368], [85.2085224, 28.0272104], [85.2085387, 28.0274358], [85.2085509, 28.0275902], [85.2089712, 28.0284949], [85.2090598, 28.0287127], [85.2095109, 28.0300285], [85.2098092, 28.0313782], [85.2098603, 28.0316931], [85.2099872, 28.0327934], [85.2100194, 28.0332598], [85.2100294, 28.0334205], [85.2100509, 28.0338087], [85.2100676, 28.034265], [85.2100718, 28.0345103], [85.210106, 28.0345338], [85.2111436, 28.0353155], [85.2120985, 28.0361762], [85.2129632, 28.037109], [85.2131389, 28.0373167], [85.2139317, 28.0383505], [85.2146137, 28.0394447], [85.2151275, 28.0403674], [85.2151393, 28.0403887], [85.2156162, 28.041249], [85.215765, 28.0415171], [85.216478, 28.0420201], [85.2174795, 28.042869], [85.2183901, 28.043795], [85.2186076, 28.0440376], [85.219595, 28.0452752], [85.2197402, 28.0454806], [85.2200991, 28.0460156], [85.2201958, 28.0461676], [85.2203409, 28.0464008], [85.2205522, 28.0467488], [85.2209894, 28.0474516], [85.2211816, 28.0477569], [85.2213196, 28.0479585], [85.2216918, 28.0485335], [85.2219818, 28.0490082], [85.2228179, 28.0506206], [85.2229237, 28.0508658], [85.2235224, 28.0525897], [85.2235707, 28.052771], [85.2238201, 28.0539302], [85.2238473, 28.0540956], [85.2239947, 28.0554986], [85.2239769, 28.0569076], [85.2239712, 28.056987], [85.2239689, 28.057026], [85.2239635, 28.0573737], [85.223957, 28.0576249], [85.22395, 28.0578178], [85.2239489, 28.0578882], [85.2238366, 28.0593592], [85.2238004, 28.0596205], [85.2236491, 28.0604596], [85.2236224, 28.0606258], [85.2235694, 28.0609304], [85.2234607, 28.0615117], [85.2230384, 28.0631399], [85.2229538, 28.0633932], [85.2229295, 28.0634556], [85.2228181, 28.0640823], [85.2227306, 28.0644556], [85.2226723, 28.0646935], [85.22263, 28.0648588], [85.2225278, 28.0652201], [85.2226717, 28.0652941], [85.223888, 28.0660268], [85.2239856, 28.0660729], [85.2250918, 28.06671], [85.2251709, 28.06676], [85.226369, 28.0676006], [85.2274665, 28.0685433], [85.2277784, 28.0688709], [85.228258, 28.0692953], [85.2284466, 28.0694795], [85.228781, 28.069847], [85.2295613, 28.0702604], [85.2298867, 28.0704485], [85.2309516, 28.0711234], [85.231514, 28.0715489], [85.2317153, 28.0716543], [85.2325946, 28.0721714], [85.234033, 28.072591], [85.2355963, 28.0732279], [85.2357626, 28.073306], [85.2368819, 28.0738869], [85.2379416, 28.07455], [85.2380489, 28.0746234], [85.2391977, 28.0754929], [85.240244, 28.0764589], [85.2403298, 28.0765464], [85.2413968, 28.0777689], [85.2415028, 28.0779241], [85.2416509, 28.0779319], [85.2423804, 28.0780005], [85.2437915, 28.0781927], [85.2451762, 28.0785011], [85.245557, 28.0786028], [85.2468878, 28.0790384], [85.2469301, 28.079041], [85.2478202, 28.0790975], [85.2484934, 28.0791252], [85.2492126, 28.0791404], [85.2499372, 28.0791711], [85.2507579, 28.0792232], [85.2516026, 28.0792978], [85.2522399, 28.07937], [85.2533979, 28.0795011], [85.2549085, 28.0797411], [85.2563842, 28.0801144], [85.2569797, 28.0802941], [85.2589959, 28.0810499], [85.2595553, 28.081303], [85.2611152, 28.0821351], [85.2621732, 28.0823148], [85.2631253, 28.0825183], [85.2641002, 28.0827572], [85.264886, 28.0829749], [85.2665552, 28.0835341], [85.2670621, 28.0837347], [85.2683913, 28.0843313], [85.2696486, 28.08504], [85.2708221, 28.085854], [85.2710527, 28.0860308], [85.2719053, 28.0867363], [85.272066, 28.0868913], [85.2729107, 28.0874653], [85.2731132, 28.0876155], [85.2742062, 28.0885099], [85.2743269, 28.0886188], [85.2744245, 28.0887076], [85.2744948, 28.0887722], [85.2750721, 28.0893333], [85.2751839, 28.0894483], [85.2760096, 28.0903767], [85.276182, 28.0905889], [85.2763066, 28.0907564], [85.2768178, 28.0910137], [85.2779963, 28.091745], [85.279092, 28.0925713], [85.2796031, 28.093037], [85.2805556, 28.0936582], [85.2818537, 28.0947312], [85.2819422, 28.0948134], [85.2829878, 28.0958928], [85.2837646, 28.09689], [85.2838805, 28.0969641], [85.2848142, 28.0976689], [85.2850314, 28.0978467], [85.2853158, 28.0981157], [85.2855164, 28.0982547], [85.2866455, 28.0992181], [85.2867347, 28.0993116], [85.2869898, 28.0994929], [85.2876793, 28.1000737], [85.2885534, 28.1006578], [85.2886524, 28.1007328], [85.2895015, 28.1014269], [85.2896133, 28.1015255], [85.2905003, 28.1024015], [85.2906345, 28.1025034], [85.2906325, 28.1025054], [85.2914848, 28.103142], [85.2926798, 28.1042642], [85.2936029, 28.1053574], [85.2945293, 28.1063814], [85.2946161, 28.1065003], [85.2954482, 28.1068902], [85.2955926, 28.1069683], [85.2971478, 28.1079318], [85.2974157, 28.1081208], [85.2985348, 28.1089926], [85.2995527, 28.1099569], [85.2997669, 28.1101808], [85.2999759, 28.110419], [85.3004324, 28.1107373], [85.3007049, 28.110953], [85.3016203, 28.1117682], [85.3024321, 28.1122702], [85.3037561, 28.11331], [85.3039191, 28.1134538], [85.3051814, 28.1147344], [85.3054988, 28.1149171], [85.3057322, 28.1150844], [85.3061183, 28.1152999], [85.3062418, 28.1153758], [85.3074732, 28.1162192], [85.3086015, 28.1171693], [85.3096148, 28.1182163], [85.3097545, 28.1183764], [85.3104511, 28.1192435], [85.3105616, 28.1194068], [85.3111043, 28.1198814], [85.3119416, 28.1207484], [85.3122791, 28.1211294], [85.3124629, 28.1213367], [85.313384, 28.1224959], [85.3141632, 28.1237342], [85.3142827, 28.1239498], [85.3148935, 28.1252102], [85.315286, 28.1263178], [85.3160681, 28.1274642], [85.3162405, 28.1277884], [85.316402, 28.1279998], [85.3165074, 28.1281738], [85.3177327, 28.1285413], [85.3179414, 28.1286132], [85.3192815, 28.1291418], [85.3205581, 28.129782], [85.3206618, 28.12984], [85.3222397, 28.1308527], [85.3223406, 28.1309266], [85.3237341, 28.1320845], [85.3238304, 28.1321752], [85.3246361, 28.1329978], [85.3253645, 28.1338753], [85.3254468, 28.1339832], [85.3261312, 28.1349697], [85.3267179, 28.1360043], [85.326769, 28.1361049], [85.3268, 28.1361282], [85.3268383, 28.136159], [85.3275597, 28.1364925], [85.3276519, 28.1365412], [85.3288807, 28.1372636], [85.3300252, 28.1380878], [85.3300976, 28.1381453], [85.3305317, 28.1385317], [85.3319141, 28.1391322], [85.3321405, 28.1392494], [85.3328257, 28.1396581], [85.3328766, 28.1396804], [85.3340148, 28.1402335], [85.3343231, 28.1403988], [85.3353908, 28.1410269], [85.3363953, 28.1417321], [85.3364952, 28.1418085], [85.3374422, 28.1425975], [85.3383102, 28.143455], [85.3390722, 28.1443506], [85.3393718, 28.1446146], [85.3395501, 28.1447887], [85.3396815, 28.1449187], [85.3404129, 28.1456515], [85.3405245, 28.1457108], [85.3421974, 28.1467396], [85.3422974, 28.1468103], [85.3429383, 28.1473044], [85.3431153, 28.1473598], [85.3444105, 28.1478903], [85.3456441, 28.1485257], [85.3468055, 28.1492604], [85.3478845, 28.1500878], [85.3488716, 28.151001], [85.3497584, 28.1519918], [85.3498642, 28.152122], [85.3508401, 28.1534893], [85.350913, 28.1536064], [85.3511011, 28.1539431], [85.3514234, 28.1541491], [85.3515557, 28.1542442], [85.3526122, 28.1550784], [85.3527433, 28.1551919], [85.3538506, 28.15626], [85.3539746, 28.1563933], [85.3546965, 28.1572341], [85.3553423, 28.1581222], [85.3557244, 28.1586958], [85.3559188, 28.1589962], [85.3560399, 28.1591891], [85.3569781, 28.1609791], [85.3571314, 28.161338], [85.3576058, 28.1626454], [85.3579283, 28.1639887], [85.3579733, 28.1642372], [85.3581638, 28.1661632], [85.358166, 28.1662864], [85.3581367, 28.167367], [85.3580102, 28.1684422], [85.3579937, 28.1685437], [85.3579437, 28.1687783], [85.3579785, 28.1691569], [85.3579925, 28.1692397], [85.3580044, 28.1694395], [85.358031, 28.1697288], [85.3580282, 28.1698384], [85.3580703, 28.170545], [85.3580224, 28.1715115], [85.358023, 28.1715142], [85.3580286, 28.1715675], [85.3582258, 28.172862], [85.3582729, 28.1742783], [85.3581526, 28.1756911], [85.3580992, 28.1760599], [85.3581263, 28.1762691], [85.3581217, 28.1762696], [85.3582105, 28.1768804], [85.3582621, 28.17811], [85.3582539, 28.1782451], [85.3583306, 28.1784883], [85.3589565, 28.1793309], [85.3596457, 28.1804884], [85.3602055, 28.1816995], [85.3605587, 28.1827405], [85.3609975, 28.183411], [85.3615968, 28.1844165], [85.3616828, 28.1845391], [85.3620729, 28.1851269], [85.3622712, 28.1854438], [85.3628981, 28.1865645], [85.3634055, 28.1877316], [85.3637135, 28.1886979], [85.3640466, 28.1893787], [85.3644469, 28.1903071], [85.3645347, 28.1904186], [85.3652585, 28.19156], [85.3654871, 28.1919653], [85.3660302, 28.1930431], [85.3663546, 28.1938747], [85.3668678, 28.1950286], [85.3669647, 28.1952843], [85.3673807, 28.1965981], [85.3676453, 28.1979423], [85.3677001, 28.1983377], [85.3677822, 28.1987456], [85.3679942, 28.1990493], [85.3681046, 28.1992288], [85.3683406, 28.1996282], [85.3684559, 28.1998315], [85.3689808, 28.2008618], [85.3694068, 28.2019274], [85.3696473, 28.2027385], [85.3697791, 28.2031424], [85.3700614, 28.2045538], [85.3701737, 28.2059836], [85.3701146, 28.207416], [85.3700797, 28.2077612], [85.3699832, 28.2084907], [85.3699445, 28.208728], [85.3696803, 28.2098295], [85.3699065, 28.2109001], [85.3699755, 28.2113237], [85.3699922, 28.2115058], [85.3700971, 28.2115861], [85.3711173, 28.2125348], [85.3712643, 28.2126854], [85.3714066, 28.2128287], [85.3717156, 28.2131325], [85.3726944, 28.2141994], [85.3731051, 28.2147537], [85.3733863, 28.2150965], [85.3739945, 28.2159705], [85.3740807, 28.2161056], [85.3746729, 28.2171334], [85.375164, 28.2182021], [85.3755507, 28.219304], [85.3755986, 28.2194644], [85.3759323, 28.2209698], [85.3759407, 28.2209686], [85.3759966, 28.2212747], [85.3760131, 28.2214045], [85.3760925, 28.2216891], [85.3762943, 28.2228063], [85.3763448, 28.223187], [85.3764489, 28.224709], [85.3763708, 28.2260331], [85.3763684, 28.226126], [85.3763622, 28.2266057], [85.3763583, 28.2267911], [85.3763522, 28.2270045], [85.3762951, 28.227824], [85.3763024, 28.227985], [85.3762753, 28.2294917], [85.3762432, 28.2298887], [85.3760452, 28.2312956], [85.376038, 28.2313314], [85.3759373, 28.2321574], [85.3756418, 28.233427], [85.3755976, 28.2335538], [85.3755745, 28.2339678], [85.3754176, 28.235038], [85.3753778, 28.2352444], [85.3750544, 28.2365373], [85.3746517, 28.2376289], [85.3750871, 28.2380626], [85.3759466, 28.239103], [85.3761088, 28.2393204], [85.3768206, 28.2403754], [85.3774213, 28.2414833], [85.3776214, 28.2419583], [85.3782053, 28.2427631], [85.3788472, 28.2438546], [85.3793745, 28.2449933], [85.3797828, 28.2461696], [85.3800689, 28.247374], [85.3801032, 28.2475602], [85.3802697, 28.2488493], [85.380295, 28.2500954], [85.3803553, 28.2501523], [85.380558, 28.2503619], [85.3806291, 28.2504354], [85.3811419, 28.2509136], [85.381509, 28.2512847], [85.3821378, 28.2517132], [85.3826027, 28.252068], [85.3837016, 28.2529949], [85.3846913, 28.2540136], [85.3855621, 28.2551143], [85.3863053, 28.2562859], [85.3865338, 28.2566922], [85.3869903, 28.2576216], [85.387854, 28.2585368], [85.3880599, 28.2587823], [85.3888468, 28.2598172], [85.3895227, 28.2609118], [85.390082, 28.2620569], [85.3903028, 28.262655], [85.3905938, 28.2630537], [85.391269, 28.2642087], [85.3914954, 28.2646464], [85.3920937, 28.2659871], [85.3925276, 28.2673766], [85.3927921, 28.268799], [85.3928843, 28.2702383], [85.3928855, 28.2705392], [85.3928935, 28.2711599], [85.3928724, 28.2715423], [85.3928921, 28.2716771], [85.392924, 28.2720695], [85.3932514, 28.2723093], [85.393854, 28.2725933], [85.3952602, 28.2734466], [85.3965504, 28.2744331], [85.3971021, 28.274905], [85.3980643, 28.275807], [85.3986598, 28.2764791], [85.3990249, 28.2766834], [85.3996055, 28.2770494], [85.4001391, 28.277367], [85.4011657, 28.2779436], [85.4023487, 28.2786796], [85.4034479, 28.2795112], [85.4044535, 28.280431], [85.4053565, 28.2814308], [85.4061487, 28.2825016], [85.4068232, 28.2836339], [85.406841, 28.2836676], [85.4069153, 28.2837679], [85.4074362, 28.2843023], [85.4080836, 28.2850078], [85.4089661, 28.2860718], [85.4092845, 28.2864977], [85.4097667, 28.2871377], [85.4101221, 28.2876323], [85.4103748, 28.2880013], [85.4110849, 28.2891629], [85.4114317, 28.2898921], [85.4124765, 28.2904886], [85.4136331, 28.2912987], [85.4138152, 28.2914394], [85.414854, 28.2923215], [85.414937, 28.2924066], [85.4162836, 28.293483], [85.416323, 28.2935161], [85.4164776, 28.2936006], [85.4178069, 28.2944162], [85.4190315, 28.2953516], [85.4201376, 28.2963961], [85.420667, 28.2970161], [85.4209001, 28.2971757], [85.4219691, 28.2979797], [85.4229504, 28.298867], [85.4233483, 28.2992614], [85.4242544, 28.3002496], [85.4250518, 28.3013087], [85.4252746, 28.3016751], [85.4257565, 28.3012812], [85.4262881, 28.300823], [85.4263333, 28.3007917], [85.4263556, 28.3007718], [85.4263687, 28.300762], [85.4267292, 28.300371], [85.4269341, 28.3000931], [85.4270603, 28.2999392], [85.4271759, 28.2998144], [85.4273174, 28.299615], [85.4274261, 28.2994764], [85.4283795, 28.2983833], [85.4294538, 28.2973818], [85.4299063, 28.297001], [85.4300888, 28.2968667], [85.430191, 28.296759], [85.4303956, 28.2965819], [85.4311784, 28.2955439], [85.4318193, 28.2948547], [85.4325239, 28.294003], [85.4335173, 28.2930195], [85.434027, 28.2925618], [85.434698, 28.2919948], [85.4348025, 28.2919117], [85.4360611, 28.2910232], [85.4360738, 28.2910038], [85.4363339, 28.290471], [85.4369349, 28.2894768], [85.4369962, 28.2893848], [85.4377495, 28.2883628], [85.4386036, 28.2874049], [85.4392245, 28.2868248], [85.439391, 28.286614], [85.4403893, 28.2855867], [85.4404161, 28.2855641], [85.4406079, 28.2852826], [85.4411355, 28.2846463], [85.4415397, 28.2840473], [85.4424902, 28.2829223], [85.4435672, 28.2818906], [85.4447593, 28.2809633], [85.4455379, 28.2804742], [85.4461022, 28.2800385], [85.4473838, 28.2792378], [85.448409, 28.2787278], [85.4493923, 28.2781775], [85.4507982, 28.2775592], [85.4512476, 28.2774102], [85.4514744, 28.2772896], [85.4515377, 28.2772625], [85.4524627, 28.2763547], [85.45252, 28.2763042], [85.4526722, 28.2757096], [85.4531456, 28.274449], [85.4537563, 28.2732356], [85.4544984, 28.272081], [85.4553647, 28.2709964], [85.456347, 28.2699921], [85.4574356, 28.269078], [85.4586203, 28.2682626], [85.4598894, 28.267554], [85.4612309, 28.266959], [85.4626318, 28.2664832], [85.4640786, 28.2661312], [85.4655574, 28.2659065], [85.467054, 28.2658112], [85.4685539, 28.2658462], [85.4700427, 28.2660111], [85.4715061, 28.2663045], [85.4729299, 28.2667234], [85.4743006, 28.2672639], [85.4756048, 28.2679207], [85.4768301, 28.2686874], [85.4779646, 28.2695569], [85.4789974, 28.2705205], [85.4799185, 28.2715692], [85.4807191, 28.2726927], [85.4813915, 28.2738803], [85.4819292, 28.2751205], [85.482327, 28.2764014], [85.482581, 28.2777107], [85.4826539, 28.2782411], [85.4827615, 28.2795544], [85.4827244, 28.2808708], [85.4826128, 28.2816753], [85.4827518, 28.2826434], [85.4827975, 28.283927], [85.4827056, 28.2852087], [85.4824769, 28.2864769], [85.4821135, 28.2877203], [85.4816185, 28.2889275], [85.4809965, 28.2900878], [85.4802531, 28.2911907], [85.479395, 28.2922263], [85.4784298, 28.2931852], [85.4773662, 28.2940588], [85.4762139, 28.2948393], [85.4761172, 28.2948986], [85.4754129, 28.2954184], [85.4742898, 28.2960878], [85.4738531, 28.2963978], [85.4729588, 28.2969063], [85.4727769, 28.2970476], [85.4727307, 28.2971068], [85.4718832, 28.2980137], [85.4709499, 28.2988521], [85.4699379, 28.2996155], [85.4698046, 28.2997075], [85.4686043, 28.3004568], [85.4673284, 28.3011007], [85.4659886, 28.3016332], [85.4654208, 28.3018032], [85.4649502, 28.3024278], [85.4640035, 28.3034518], [85.4630039, 28.3043396], [85.4628213, 28.3047171], [85.4621536, 28.3058089], [85.4618912, 28.3061575], [85.4617985, 28.306393], [85.4611716, 28.3075942], [85.4604151, 28.3087355], [85.4595363, 28.3098059], [85.4594786, 28.3098694], [85.4584715, 28.3108718], [85.4573572, 28.3117811], [85.4561467, 28.3125883], [85.4548519, 28.3132854], [85.4544963, 28.3134365], [85.4535207, 28.3145411], [85.4526566, 28.3153315], [85.4525353, 28.3155363], [85.4523589, 28.3157749], [85.4523333, 28.3158177], [85.4522071, 28.3160065], [85.4513801, 28.3171158], [85.4504579, 28.318122], [85.4504154, 28.3194181], [85.4503472, 28.3198865], [85.4507491, 28.3209177], [85.4510724, 28.3220621], [85.4512173, 28.322868], [85.4512748, 28.3231008], [85.4515148, 28.3243531], [85.4516211, 28.3256197], [85.4515927, 28.3268896], [85.45143, 28.3281515], [85.4511343, 28.3293944], [85.4509079, 28.3300391], [85.4507906, 28.3304816], [85.4506536, 28.3309131], [85.4502014, 28.3321178], [85.4496236, 28.3332797], [85.4489253, 28.3343887], [85.4481127, 28.3354349], [85.4471929, 28.3364091], [85.4470019, 28.3365931], [85.4458999, 28.3375526], [85.4455236, 28.3378198], [85.4449673, 28.3382623], [85.4442182, 28.338758], [85.443598, 28.3393124], [85.4433027, 28.3395505], [85.4419703, 28.3405095], [85.4405248, 28.3413302], [85.4400251, 28.3415801], [85.4382148, 28.3423512], [85.4376544, 28.3425509], [85.4362297, 28.3429878], [85.4362201, 28.3429898], [85.4348655, 28.3433949], [85.4333884, 28.3436965], [85.4318847, 28.3438673], [85.4303693, 28.3439056], [85.429002, 28.3438201], [85.4280851, 28.3439555], [85.426598, 28.3440451], [85.425108, 28.3440062], [85.424537, 28.3439666], [85.4231101, 28.3438076], [85.4217064, 28.3435308], [85.4212253, 28.3433929], [85.4208804, 28.3433232], [85.4198026, 28.3431959], [85.4185559, 28.3430018], [85.4173317, 28.3427173], [85.4161382, 28.3423441], [85.4146721, 28.3418245], [85.4134156, 28.3413197], [85.4122156, 28.3407169], [85.4117706, 28.3404437], [85.4110419, 28.3402721], [85.4096453, 28.3398105], [85.408306, 28.3392308], [85.4079531, 28.3390586], [85.4066216, 28.3383282], [85.4053815, 28.3374811], [85.4042458, 28.3365262], [85.4040986, 28.3363891], [85.4035024, 28.3358337], [85.4027354, 28.3350627], [85.4020368, 28.3342424], [85.4011339, 28.3330941], [85.4003056, 28.3319163], [85.3996179, 28.3306695], [85.399078, 28.3293671], [85.3986917, 28.3280226], [85.3986792, 28.3279473], [85.3985793, 28.3276795], [85.3982935, 28.3266477], [85.3981883, 28.3261908], [85.3980964, 28.3257557], [85.3979923, 28.3252136], [85.3978086, 28.3238288], [85.3977869, 28.3224346], [85.3979274, 28.3210458], [85.3982286, 28.3196772], [85.3982329, 28.3196647], [85.3984323, 28.3186783], [85.3985231, 28.3183391], [85.3986829, 28.3175604], [85.3987374, 28.3169228], [85.3977883, 28.3160834], [85.3967834, 28.3149866], [85.3962043, 28.3141991], [85.3958776, 28.3139271], [85.3952761, 28.3133176], [85.3942716, 28.3127846], [85.3935551, 28.3123198], [85.3934553, 28.3122745], [85.3921285, 28.3115092], [85.3908984, 28.3106265], [85.3905797, 28.3103448], [85.390421, 28.3102683], [85.3892158, 28.3095483], [85.3888329, 28.3092953], [85.3876666, 28.3084419], [85.3866013, 28.3074906], [85.3862883, 28.307182], [85.385424, 28.3062493], [85.384657, 28.3052522], [85.3844141, 28.3049041], [85.3836301, 28.3036328], [85.383004, 28.3022946], [85.3825431, 28.3009049], [85.3823872, 28.30014], [85.3821246, 28.2998505], [85.3818739, 28.2995064], [85.3814484, 28.299322], [85.3805916, 28.298897], [85.3793373, 28.2982022], [85.3781647, 28.2974034], [85.3770848, 28.2965079], [85.3761078, 28.2955243], [85.3757905, 28.2951718], [85.3757679, 28.2951503], [85.3747007, 28.2940117], [85.3745731, 28.2938405], [85.3744708, 28.2937851], [85.3744317, 28.2937594], [85.374211, 28.293662], [85.3729897, 28.2929893], [85.3727295, 28.2928305], [85.3715875, 28.2920612], [85.3705322, 28.2912004], [85.3695726, 28.2902559], [85.3692998, 28.2899307], [85.3692077, 28.2898706], [85.368625, 28.2893929], [85.3685024, 28.2893206], [85.3671097, 28.2883939], [85.3658452, 28.2873329], [85.3656878, 28.2871849], [85.3647892, 28.2862596], [85.3639883, 28.2852664], [85.3632918, 28.2842135], [85.3627053, 28.2831092], [85.3626299, 28.2829489], [85.3621574, 28.2818006], [85.3618039, 28.2806192], [85.3616499, 28.2798185], [85.361575, 28.2795447], [85.3613647, 28.2781899], [85.3613099, 28.2768233], [85.3614111, 28.2754588], [85.3616673, 28.2741103], [85.3616837, 28.2740572], [85.3606649, 28.272993], [85.3604452, 28.2727372], [85.3596935, 28.2717787], [85.3590377, 28.2707663], [85.3587183, 28.2701567], [85.3577631, 28.2696817], [85.3566263, 28.26899], [85.3555646, 28.2682104], [85.3545866, 28.2673492], [85.3543253, 28.2670974], [85.3534519, 28.2661768], [85.3526743, 28.2651912], [85.3519986, 28.2641485], [85.35143, 28.2630567], [85.3509731, 28.2619246], [85.3508631, 28.2616085], [85.3505241, 28.260456], [85.3503009, 28.2592817], [85.3501951, 28.2580945], [85.3501988, 28.2577361], [85.3501449, 28.2574962], [85.3499791, 28.2566047], [85.3498844, 28.2559622], [85.3497827, 28.2545514], [85.34881, 28.2537803], [85.3483838, 28.2533983], [85.3476959, 28.2527394], [85.3473112, 28.2523455], [85.3469783, 28.2519926], [85.3467559, 28.2517486], [85.3460013, 28.2508464], [85.3453337, 28.2498919], [85.3447577, 28.2488917], [85.3445635, 28.2485168], [85.3442289, 28.2478201], [85.3439982, 28.2472997], [85.3435464, 28.246125], [85.343218, 28.2449187], [85.3430157, 28.2436908], [85.342935, 28.2429713], [85.3428615, 28.2418112], [85.3429006, 28.2406498], [85.3429332, 28.2402541], [85.3429048, 28.2401211], [85.3426763, 28.2385502], [85.3426565, 28.2369663], [85.34267, 28.2367141], [85.3428161, 28.2353833], [85.3431097, 28.2340718], [85.343548, 28.2327923], [85.3441266, 28.2315573], [85.3442762, 28.2312778], [85.3445434, 28.2308388], [85.3447402, 28.230327], [85.3448394, 28.2300978], [85.3453319, 28.2291009], [85.3453419, 28.2290209], [85.3455808, 28.2280085], [85.344758, 28.2272184], [85.3439776, 28.2263312], [85.3439695, 28.2263212], [85.3433684, 28.2256514], [85.3431805, 28.2254092], [85.342677, 28.224716], [85.3425392, 28.224513], [85.3419283, 28.2235214], [85.3419169, 28.2234985], [85.3418852, 28.2234476], [85.3418797, 28.2234408], [85.3411486, 28.2223301], [85.3405399, 28.2211629], [85.340456, 28.2209797], [85.3399062, 28.2195565], [85.3395381, 28.218088], [85.3393563, 28.2165925], [85.3393418, 28.2163449], [85.3393422, 28.2149396], [85.3393543, 28.2147338], [85.3393944, 28.214339], [85.3391748, 28.2134839], [85.3389993, 28.2124046], [85.3389708, 28.2121602], [85.3388902, 28.2107284], [85.3389311, 28.2100839], [85.3389234, 28.2099767], [85.338915, 28.2097678], [85.3389242, 28.2086175], [85.3389493, 28.2083762], [85.3385502, 28.2073048], [85.3382095, 28.2059124], [85.3381753, 28.2057257], [85.3380345, 28.2051346], [85.3379419, 28.2047127], [85.3378107, 28.2040598], [85.3377994, 28.2040452], [85.3371771, 28.2030762], [85.3370114, 28.2027914], [85.3364773, 28.201772], [85.3360406, 28.200717], [85.3358493, 28.2001008], [85.3352572, 28.1990974], [85.3346941, 28.1978592], [85.3342714, 28.196578], [85.3342608, 28.1965277], [85.3342587, 28.1965242], [85.3341577, 28.196383], [85.3338637, 28.1960342], [85.3329751, 28.1948558], [85.3322303, 28.1936016], [85.3316377, 28.1922852], [85.331535, 28.192017], [85.3312056, 28.1915535], [85.3304953, 28.1902721], [85.3300532, 28.1893551], [85.3298838, 28.188989], [85.3297064, 28.1885892], [85.3296379, 28.1884146], [85.329064, 28.1874474], [85.3285023, 28.1862244], [85.3280777, 28.1849587], [85.3279172, 28.1843777], [85.3277581, 28.1837343], [85.3276747, 28.1833531], [85.3274807, 28.1822034], [85.3273987, 28.1810432], [85.3273898, 28.1806433], [85.3273902, 28.1806097], [85.3273725, 28.1804135], [85.3273851, 28.1792038], [85.3275142, 28.1780482], [85.3275353, 28.1776421], [85.3274524, 28.1769032], [85.3274343, 28.1757511], [85.3274836, 28.1751378], [85.3275238, 28.1743774], [85.3274309, 28.1735887], [85.3274202, 28.1724263], [85.3271275, 28.1721901], [85.3269751, 28.1720559], [85.3257745, 28.1708659], [85.3247404, 28.1695589], [85.3246546, 28.1694356], [85.3245828, 28.1693162], [85.324422, 28.1692158], [85.3243266, 28.1691484], [85.3233772, 28.1684191], [85.3228399, 28.1679322], [85.3221499, 28.1675233], [85.3219885, 28.1674166], [85.3211081, 28.1667883], [85.320903, 28.1666304], [85.3203659, 28.1661969], [85.3198758, 28.165782], [85.3193341, 28.1652997], [85.3181043, 28.1641483], [85.3177945, 28.1638482], [85.3169579, 28.1632464], [85.3168766, 28.1631791], [85.3166512, 28.1629647], [85.3153948, 28.1624254], [85.3151855, 28.1623221], [85.3140906, 28.1617269], [85.3130561, 28.1610522], [85.3120891, 28.1603029], [85.3119163, 28.1601572], [85.3118633, 28.1601082], [85.3117331, 28.1600284], [85.3115595, 28.159958], [85.3099999, 28.1592261], [85.308546, 28.1583396], [85.30846, 28.1582804], [85.3079831, 28.1579211], [85.3069274, 28.1575073], [85.306797, 28.1574496], [85.3054702, 28.1567868], [85.3052468, 28.1566617], [85.3040276, 28.1559034], [85.3038052, 28.1557502], [85.3023256, 28.1545871], [85.3022256, 28.1544976], [85.3011859, 28.1534455], [85.3007923, 28.153228], [85.2996886, 28.1524873], [85.2978625, 28.1511421], [85.297872, 28.151132], [85.2965959, 28.1501189], [85.2951584, 28.1488143], [85.2942654, 28.1479294], [85.2934634, 28.1469786], [85.292073, 28.1451698], [85.291439, 28.1442714], [85.2908863, 28.1433318], [85.2906399, 28.1428696], [85.2902, 28.142383], [85.2901422, 28.1423114], [85.2893361, 28.1411851], [85.2889791, 28.1408012], [85.2887768, 28.1405647], [85.2878678, 28.1393764], [85.2871059, 28.1381094], [85.2867169, 28.137255], [85.286512, 28.136899], [85.2862223, 28.1362515], [85.2860381, 28.1361442], [85.2857912, 28.1359799], [85.2849071, 28.1353445], [85.2845042, 28.1350321], [85.2840232, 28.1346429], [85.2836901, 28.1343616], [85.2827068, 28.1334205], [85.2822267, 28.1331289], [85.2811754, 28.1323599], [85.281024, 28.1322387], [85.2799186, 28.131258], [85.279484, 28.1307841], [85.2780657, 28.1296259], [85.2779386, 28.1295078], [85.2777216, 28.1293003], [85.2773057, 28.1290774], [85.2769494, 28.1288698], [85.2768427, 28.1288071], [85.2765794, 28.128651], [85.2763548, 28.1285151], [85.2763363, 28.1285037], [85.275685, 28.1281581], [85.2754377, 28.1280109], [85.2751035, 28.1277906], [85.2748119, 28.1276449], [85.2746399, 28.1275469], [85.2734633, 28.1268045], [85.272371, 28.1259668], [85.271373, 28.1250413], [85.270478, 28.1240364], [85.2696942, 28.122961], [85.2695667, 28.1227665], [85.269108, 28.1219616], [85.2684103, 28.1215367], [85.2683219, 28.121477], [85.2669828, 28.1204591], [85.2657852, 28.1193109], [85.2656777, 28.1191951], [85.2656023, 28.1191061], [85.2653742, 28.1189276], [85.2653047, 28.1188602], [85.2652423, 28.1188293], [85.2640041, 28.1181468], [85.2639312, 28.1181022], [85.262526, 28.1171304], [85.2623953, 28.1170286], [85.2608594, 28.1156471], [85.2607096, 28.1154915], [85.2599785, 28.1146696], [85.2596724, 28.1142648], [85.2593069, 28.1140939], [85.2580726, 28.1133738], [85.2579677, 28.113306], [85.2568984, 28.1125466], [85.2559101, 28.1117053], [85.2550292, 28.1108075], [85.2542642, 28.1100948], [85.2534168, 28.1091288], [85.2531951, 28.1089274], [85.2526051, 28.1083002], [85.251164, 28.1079783], [85.2497642, 28.1075333], [85.2490399, 28.107267], [85.2473553, 28.1065373], [85.2469717, 28.1063443], [85.2466178, 28.1061488], [85.2462141, 28.1061321], [85.2458322, 28.1061122], [85.2447836, 28.1060456], [85.2444968, 28.1060285], [85.2444637, 28.10603], [85.2430133, 28.1060087], [85.2430133, 28.1060126], [85.2426672, 28.1060079], [85.2425727, 28.1060022], [85.2424173, 28.106], [85.241972, 28.1059669], [85.241972, 28.1059664], [85.2410902, 28.1059139], [85.2395327, 28.1056758], [85.2380112, 28.1052961], [85.2366466, 28.1048157], [85.2365602, 28.10481], [85.2351018, 28.1046505], [85.2344365, 28.1045486], [85.2332154, 28.1043158], [85.2320199, 28.1039951], [85.2312446, 28.1037561], [85.230746, 28.1035937], [85.2280581, 28.1026708], [85.2277722, 28.1025696], [85.2271378, 28.1023386], [85.2268456, 28.102236], [85.2266365, 28.1021624], [85.22661, 28.1021534], [85.2263045, 28.1020459], [85.2260993, 28.1019714], [85.2246729, 28.1013755], [85.2244288, 28.1012594], [85.2232385, 28.1006305], [85.2221174, 28.0999084], [85.2218867, 28.0997451], [85.2214155, 28.0993976], [85.2211874, 28.0992225], [85.2199374, 28.0981457], [85.2188339, 28.0969495], [85.2186515, 28.096727], [85.2186169, 28.0966797], [85.2186021, 28.0966669], [85.2179414, 28.0959725], [85.2168666, 28.0954272], [85.2165355, 28.0952389], [85.216403, 28.0951637], [85.2161438, 28.0950016], [85.2158961, 28.0949064], [85.2157533, 28.0948474], [85.2142281, 28.0941212], [85.2128056, 28.0932465], [85.2126634, 28.0931481], [85.2122997, 28.09287], [85.2112494, 28.092333], [85.2109919, 28.0921887], [85.2096286, 28.0913285], [85.2083797, 28.090341], [85.2082215, 28.0902014], [85.206947, 28.0889252], [85.2068171, 28.0887773], [85.2061714, 28.0882007], [85.2060697, 28.088097], [85.2054273, 28.0877738], [85.2049664, 28.087519], [85.2034281, 28.0869841], [85.2033331, 28.086945], [85.2014527, 28.0860231], [85.2012805, 28.0859241], [85.2002827, 28.0852984], [85.1993446, 28.0846038], [85.1992696, 28.0845436], [85.1979236, 28.0833172], [85.1977646, 28.0831527], [85.1970775, 28.0823874], [85.1968992, 28.0821733], [85.1964249, 28.0815704], [85.196103, 28.0811366], [85.1956505, 28.0804875], [85.1955533, 28.0803389], [85.1951132, 28.0796162], [85.1949986, 28.0794136], [85.1945106, 28.0784604], [85.1944339, 28.0782937], [85.1938349, 28.0777294], [85.1937574, 28.0776502], [85.1928362, 28.07661], [85.1920338, 28.0754951], [85.1919913, 28.075429], [85.1910563, 28.0737057], [85.1910196, 28.0736237], [85.1904308, 28.0720242], [85.1904001, 28.0719191], [85.1900142, 28.0700835], [85.189996, 28.0699443], [85.1899181, 28.0691368], [85.1898811, 28.0685453], [85.1898585, 28.0676478], [85.189864, 28.0672027], [85.1899501, 28.0659063], [85.1899911, 28.0655677], [85.1901892, 28.064407], [85.1904999, 28.0632658], [85.1906493, 28.0628057], [85.1908977, 28.0621114], [85.1910496, 28.0617232], [85.1915499, 28.0606075], [85.1915883, 28.0605318], [85.1921731, 28.0595408], [85.191178, 28.0585881], [85.1910662, 28.0584681], [85.1898399, 28.0569493], [85.1897095, 28.0567617], [85.1890903, 28.0557818], [85.1889353, 28.0555108], [85.1882982, 28.0542382], [85.1881001, 28.0536991], [85.1876828, 28.0534037], [85.1871322, 28.052973], [85.1862421, 28.0523749], [85.1857265, 28.0520127], [85.1854636, 28.0518197], [85.1845185, 28.0510648], [85.1836476, 28.0502428], [85.1834089, 28.0499977], [85.1830421, 28.0496065], [85.1826532, 28.0491756], [85.1819425, 28.0483213], [85.1816072, 28.0478834], [85.18129, 28.0474516], [85.1809748, 28.0470042], [85.1802888, 28.0459229], [85.1797172, 28.0447904], [85.1795323, 28.0443736], [85.179015, 28.0429955], [85.1786672, 28.0415761], [85.1784689, 28.0404883], [85.1783195, 28.0393824], [85.1782732, 28.0382693], [85.1782745, 28.0379949], [85.178276, 28.0376118], [85.1783459, 28.0363609], [85.1783674, 28.0361632], [85.1784149, 28.0358839], [85.1773622, 28.0351005], [85.1772421, 28.0349993], [85.1766918, 28.0344843], [85.1766735, 28.0344714], [85.1765533, 28.0343749], [85.1753085, 28.0332519], [85.1742192, 28.0320081], [85.1741127, 28.0318707], [85.1732502, 28.0306171], [85.1730644, 28.0303109], [85.1725635, 28.0294059], [85.1721398, 28.0284703], [85.1719788, 28.0280724], [85.1719646, 28.0280373], [85.1718418, 28.0277311], [85.1712622, 28.0258801], [85.171203, 28.0256212], [85.171155, 28.0254154], [85.1710257, 28.0247873], [85.1709711, 28.024481], [85.1707939, 28.0228663], [85.1707816, 28.0225725], [85.170776, 28.0224763], [85.1707931, 28.0208438], [85.1708122, 28.0206003], [85.1709279, 28.0196321], [85.1709483, 28.0195049], [85.1708894, 28.0194214], [85.1707638, 28.0192116], [85.170029, 28.0177931], [85.1700016, 28.017731], [85.1698824, 28.0174708], [85.1698124, 28.0173152], [85.1696623, 28.0169751], [85.1693661, 28.0162432], [85.1692923, 28.016043], [85.1688084, 28.0143785], [85.1687538, 28.0141253], [85.1685278, 28.0126269], [85.1685073, 28.0123919], [85.1684867, 28.0121632], [85.1684407, 28.0108545], [85.1684464, 28.0105637], [85.1684521, 28.0104295], [85.1683507, 28.0094153], [85.1683253, 28.0088999], [85.1683121, 28.0081205], [85.1683204, 28.00759], [85.1683474, 28.0069515], [85.1683774, 28.006515], [85.1683896, 28.0063537], [85.1684143, 28.0060546], [85.1686571, 28.0044443], [85.1687247, 28.0041376], [85.1686545, 28.0037482], [85.1686288, 28.0035501], [85.1685311, 28.0017754], [85.1685351, 28.0015684], [85.1686032, 28.0004982], [85.1687585, 27.9994884], [85.1683244, 27.9987313], [85.168268, 27.9986213], [85.1677285, 27.9974194], [85.1673207, 27.9961772], [85.1671019, 27.9951561], [85.1663805, 27.9939112], [85.1662445, 27.993639], [85.1657778, 27.9925883], [85.1654113, 27.9915066], [85.1651478, 27.9904017], [85.1650662, 27.989972], [85.1648823, 27.9885434], [85.1648702, 27.9871056], [85.1649096, 27.9863398], [85.1650847, 27.9848219], [85.1651921, 27.9842248], [85.1651386, 27.9838064], [85.1650512, 27.9824188], [85.1650597, 27.980783], [85.1652904, 27.97916], [85.1653962, 27.978661], [85.165669, 27.9776076], [85.1660205, 27.9766191], [85.1656786, 27.9762262], [85.1653851, 27.9758046], [85.1652223, 27.9757504], [85.1650792, 27.9757027], [85.1634644, 27.9750673], [85.1619432, 27.9742704], [85.16127, 27.9738694], [85.1600799, 27.9730831], [85.1589814, 27.9721979], [85.1579851, 27.971222], [85.1571003, 27.9701648], [85.1564084, 27.9692479], [85.1555146, 27.9679015], [85.1551347, 27.96714], [85.1543306, 27.9667404], [85.1530251, 27.9659212], [85.1518234, 27.9649851], [85.1513011, 27.964533], [85.1503204, 27.9636003], [85.149443, 27.9625897], [85.1486767, 27.9615102], [85.1480284, 27.9603714], [85.1475037, 27.9591835], [85.1471073, 27.957957], [85.1468427, 27.9567028], [85.1467882, 27.956354], [85.1466539, 27.9549975], [85.1466738, 27.953636], [85.1468477, 27.9522831], [85.1471737, 27.9509526], [85.1471761, 27.9509459], [85.1464625, 27.9496432], [85.1458458, 27.9483511], [85.1453831, 27.9470092], [85.1452797, 27.9465403], [85.1442959, 27.9461721], [85.1442166, 27.946138], [85.1427137, 27.945396], [85.1413145, 27.9445083], [85.1411966, 27.9444242], [85.1398448, 27.9433354], [85.1386492, 27.9421109], [85.1385177, 27.9419587], [85.1379059, 27.9411974], [85.1376411, 27.9408425], [85.136903, 27.939744], [85.1368164, 27.9396001], [85.1360952, 27.93822], [85.1360136, 27.9380377], [85.1359207, 27.9378248], [85.1357779, 27.9374894], [85.1354559, 27.9366508], [85.135406, 27.9365055], [85.1349876, 27.9349706], [85.1349556, 27.9348138], [85.1348677, 27.9343337], [85.1348362, 27.9341399], [85.1348071, 27.9338732], [85.1343879, 27.9328271], [85.1340654, 27.9317471], [85.1340369, 27.9316329], [85.1339492, 27.9311659], [85.1339001, 27.9311359], [85.1328034, 27.9303218], [85.132661, 27.9302056], [85.1323977, 27.9299821], [85.1321474, 27.9297874], [85.1314831, 27.9291771], [85.1310264, 27.9290372], [85.1305455, 27.9288822], [85.1294452, 27.9284838], [85.1283833, 27.9280105], [85.1276137, 27.9276334], [85.1273184, 27.9274903], [85.126102, 27.9268338], [85.12496, 27.9260794], [85.1239022, 27.9252336], [85.1229379, 27.9243039], [85.1220754, 27.9232982], [85.1217778, 27.9229154], [85.1208793, 27.9216067], [85.1206516, 27.9212283], [85.1200165, 27.920037], [85.1195149, 27.9187965], [85.1191515, 27.9175185], [85.1189298, 27.9162152], [85.1188519, 27.914899], [85.1189184, 27.9135822], [85.1189746, 27.9130505], [85.1191847, 27.9117471], [85.1195364, 27.9104679], [85.1200263, 27.9092252], [85.1206498, 27.9080307], [85.1214011, 27.9068956], [85.1222728, 27.9058307], [85.1224922, 27.9055885], [85.1227541, 27.9053239], [85.1222516, 27.9040793], [85.1218867, 27.9027877], [85.1216663, 27.9014705], [85.121619, 27.9006147], [85.1212306, 27.8996048], [85.1208411, 27.8984171], [85.1205753, 27.8972028], [85.1204354, 27.8959719], [85.1204228, 27.894761], [85.1189494, 27.8937416], [85.1178108, 27.8928704], [85.1167743, 27.8919036], [85.1151856, 27.8902672], [85.1143425, 27.8893159], [85.1135985, 27.8883014], [85.1130447, 27.8874669], [85.1124377, 27.8864568], [85.1119289, 27.8854047], [85.1115221, 27.8843182], [85.1112852, 27.8835833], [85.1109325, 27.8833734], [85.1098293, 27.8828521], [85.1086412, 27.8822279], [85.108481, 27.8821252], [85.1080239, 27.8819379], [85.106734, 27.8813411], [85.105514, 27.8806379], [85.1043751, 27.8798344], [85.1033276, 27.878938], [85.102381, 27.877957], [85.1015441, 27.8769003], [85.1012031, 27.8763682], [85.1008626, 27.8759922], [85.0999998, 27.874804], [85.0992813, 27.8735423], [85.0991785, 27.8733026], [85.0980699, 27.8734535], [85.09604, 27.8736397], [85.0959401, 27.8736486], [85.0940776, 27.8738084], [85.092397, 27.8739526], [85.0910603, 27.8740147], [85.0897227, 27.8739724], [85.0882748, 27.8738697], [85.0868068, 27.8737016], [85.085364, 27.8734075], [85.0839602, 27.8729904], [85.0826086, 27.8724542], [85.0824823, 27.8723974], [85.0812223, 27.8717621], [85.080036, 27.8710233], [85.078934, 27.8701877], [85.0788289, 27.8701], [85.0783045, 27.8696164], [85.0770467, 27.8695193], [85.0754363, 27.8692373], [85.0738693, 27.8688029], [85.0730168, 27.8684734], [85.0721833, 27.8692495], [85.0709512, 27.8701766], [85.0696156, 27.8709827], [85.0682422, 27.8717202], [85.0669935, 27.8723219], [85.0656871, 27.8728176], [85.0643344, 27.873203], [85.0629472, 27.8734747], [85.0615376, 27.8736304], [85.0601177, 27.8736687], [85.0587, 27.8735893], [85.0572968, 27.8733928], [85.0559203, 27.873081], [85.05474, 27.8727609], [85.0534706, 27.8723612], [85.0522459, 27.8718635], [85.0510755, 27.8712716], [85.0499685, 27.8705901], [85.0489335, 27.8698244], [85.04827, 27.8692875], [85.0480197, 27.8693737], [85.0465013, 27.8698168], [85.044939, 27.8701161], [85.0433499, 27.8702682], [85.0417517, 27.8702715], [85.0414739, 27.8702591], [85.0398854, 27.8701137], [85.0394766, 27.8700568], [85.037716, 27.8697163], [85.036013, 27.8691934], [85.0356333, 27.869054], [85.0343958, 27.8685407], [85.0332151, 27.8679309], [85.0331736, 27.8679072], [85.0320091, 27.8679467], [85.0305647, 27.8678735], [85.0302318, 27.8678425], [85.0286428, 27.8676186], [85.0270893, 27.867247], [85.0255885, 27.8667317], [85.0252906, 27.866613], [85.023921, 27.8659917], [85.0226289, 27.8652507], [85.0214275, 27.8643977], [85.020329, 27.8634414], [85.0200662, 27.8631883], [85.0192481, 27.8623315], [85.0185128, 27.8614174], [85.0180351, 27.8607052], [85.0178084, 27.8604238], [85.0177305, 27.8603263], [85.0171466, 27.8595878], [85.0164116, 27.8585636], [85.0157829, 27.8574849], [85.0155982, 27.8570833], [85.0141704, 27.85631], [85.0134111, 27.8558296], [85.0124042, 27.8551344], [85.0124004, 27.8551314], [85.0119259, 27.8549188], [85.010761, 27.854274], [85.0096662, 27.8535386], [85.009491, 27.8534095], [85.0083042, 27.852436], [85.0072401, 27.8513563], [85.0063107, 27.8501825], [85.0055263, 27.8489279], [85.0048959, 27.8476064], [85.00482, 27.8474205], [85.0043373, 27.8459989], [85.0040326, 27.8445389], [85.0039098, 27.843058], [85.003904, 27.8427843], [85.0039565, 27.8413808], [85.0041722, 27.8399897], [85.0043066, 27.8393648], [85.0044321, 27.838838], [85.0045957, 27.8382132], [85.0049297, 27.8371398], [85.0053617, 27.8360945], [85.0056017, 27.8355803], [85.0048313, 27.8345687], [85.0040217, 27.8331855], [85.0037052, 27.8325593], [85.0031044, 27.8311705], [85.0029166, 27.8306534], [85.0025412, 27.8294243], [85.0023804, 27.8287791], [85.0021102, 27.827323], [85.0020199, 27.8258495], [85.00202, 27.8254747], [85.0020781, 27.8242949], [85.0021111, 27.8239597], [85.002069, 27.8238992], [85.0013947, 27.8226653], [85.0011478, 27.8221483], [85.000897, 27.821869], [85.0002276, 27.8210646], [84.9998334, 27.8205522], [84.9988354, 27.8190574], [84.9986423, 27.8187205], [84.9981058, 27.8176779], [84.9977767, 27.816862], [84.9975939, 27.8168804], [84.9973202, 27.8169058], [84.9968125, 27.8169488], [84.9958367, 27.8174351], [84.9944583, 27.8179706], [84.9930272, 27.8183826], [84.992276, 27.818563], [84.9911512, 27.8187927], [84.99001, 27.8189459], [84.9893931, 27.8190076], [84.9878447, 27.8190918], [84.9862948, 27.8190353], [84.9854257, 27.8189641], [84.9837085, 27.818735], [84.9820318, 27.8183334], [84.9812753, 27.8181104], [84.9797247, 27.8175678], [84.9782501, 27.8168777], [84.9775635, 27.8165124], [84.9766529, 27.8159878], [84.9758214, 27.8154705], [84.9756354, 27.8153359]]]}, "properties": {"feature_type": "corridor", "source_refs": ["osm-overpass-lhende-khola-trishuli"], "geometry_quality": "osm_centreline", "positional_accuracy_m": 30.0, "aoi_id": "lhende-khola-trishuli", "buffer_m": 1500.0, "buffer_epsg": 32645}}]}
