{"type": "FeatureCollection", "features": [{"type": "Feature", "geometry": {"type": "Point", "coordinates": [85.3771184, 28.2736443]}, "properties": {"id": "rasuwagadhi-hep", "aoi_id": "lhende-khola-trishuli", "name": "Rasuwagadhi Hydroelectric Project", "asset_type": "hydropower_plant", "status": "operational", "capacity_mw": {"low": 111.0, "high": 111.0, "best": 111.0, "unit": "MW", "source_refs": ["doed-powerplants-gt1mw", "rghpcl-about-project"], "disputed": false, "estimates": []}, "transect_id": "rasuwagadhi-gyirong", "geometry_quality": "osm_way_centroid", "source_refs": ["doed-powerplants-gt1mw", "rghpcl-about-project", "osm-overpass-lhende-khola-trishuli"], "notes": "Location: centroid of OSM way 1552793903; 0.1 km from the centreline. Geometry is the OSM way 'Rasuwagadhi Hydropower Dam' (headworks); the powerhouse is in Timure per the operator. Status 'operational' = COD 31 Dec 2024 (operator) / 2081-09-16 BS (DoED), i.e. before the 26 Aug 2026 event.", "feature_type": "exposed_asset", "positional_accuracy_m": 100.0}}, {"type": "Feature", "geometry": {"type": "Point", "coordinates": [85.1863644, 28.0253559]}, "properties": {"id": "upper-trishuli-3a", "aoi_id": "lhende-khola-trishuli", "name": "Upper Trishuli 3A Hydropower Project", "asset_type": "hydropower_plant", "status": "operational", "capacity_mw": {"low": 60.0, "high": 60.0, "best": 60.0, "unit": "MW", "source_refs": ["doed-powerplants-gt1mw"], "disputed": false, "estimates": []}, "transect_id": "betrawati", "geometry_quality": "osm_way_centroid", "source_refs": ["doed-powerplants-gt1mw", "osm-overpass-lhende-khola-trishuli"], "notes": "Location: centroid of OSM way 1554017038; 0.1 km from the centreline. Geometry is the OSM way 'Upper Trishuli 3A Powerhouse'. DoED COD 2076-05-13 BS.", "feature_type": "exposed_asset", "positional_accuracy_m": 100.0}}, {"type": "Feature", "geometry": {"type": "Point", "coordinates": [85.3319222, 28.1573491]}, "properties": {"id": "chilime-hep", "aoi_id": "lhende-khola-trishuli", "name": "Chilime Hydropower Plant", "asset_type": "hydropower_plant", "status": "operational", "capacity_mw": {"low": 22.0, "high": 22.1, "best": 22.0, "unit": "MW", "source_refs": ["doed-powerplants-gt1mw", "chilime-company-home"], "disputed": false, "estimates": [{"low": 22.0, "high": 22.0, "unit": "MW", "source_ref": "doed-powerplants-gt1mw"}, {"low": 22.1, "high": 22.1, "unit": "MW", "source_ref": "chilime-company-home"}], "notes": "DoED licence register: 22.000 MW; operator: 22.1 MW installed."}, "transect_id": "syabrubesi", "geometry_quality": "osm_node", "source_refs": ["doed-powerplants-gt1mw", "chilime-company-home", "osm-overpass-lhende-khola-trishuli"], "notes": "Location: OSM node 982602383; 0.0 km from the centreline. Geometry is the OSM node 'Chilime Hydropower Powerhouse' near Syabrubesi; the OSM way 'Chilime Hydropower Plant' (28.179 N, 85.308 E) marks the headworks. Commissioned 25 Aug 2003 (operator).", "feature_type": "exposed_asset", "positional_accuracy_m": 100.0}}, {"type": "Feature", "geometry": {"type": "Point", "coordinates": [85.1460596, 27.9215091]}, "properties": {"id": "trishuli-hep", "aoi_id": "lhende-khola-trishuli", "name": "Trishuli Hydropower Station", "asset_type": "hydropower_plant", "status": "operational", "capacity_mw": {"low": 24.0, "high": 24.0, "best": 24.0, "unit": "MW", "source_refs": ["doed-powerplants-gt1mw"], "disputed": false, "estimates": []}, "transect_id": "betrawati", "geometry_quality": "osm_node", "source_refs": ["doed-powerplants-gt1mw", "osm-overpass-lhende-khola-trishuli"], "notes": "Location: OSM node 3492358494; 0.1 km from the centreline. Geometry is an OSM power=generator node named 'Trishuli Hydropower Station'.", "feature_type": "exposed_asset", "positional_accuracy_m": 100.0}}, {"type": "Feature", "geometry": {"type": "Point", "coordinates": [85.1340658, 27.888214]}, "properties": {"id": "devighat-hep", "aoi_id": "lhende-khola-trishuli", "name": "Devighat Hydropower Station", "asset_type": "hydropower_plant", "status": "operational", "capacity_mw": {"low": 14.1, "high": 14.1, "best": 14.1, "unit": "MW", "source_refs": ["doed-powerplants-gt1mw"], "disputed": false, "estimates": []}, "transect_id": "betrawati", "geometry_quality": "osm_way_centroid", "source_refs": ["doed-powerplants-gt1mw", "osm-overpass-lhende-khola-trishuli"], "notes": "Location: centroid of OSM way 338849229; 0.1 km from the centreline. Geometry is the OSM power=generator way named 'Devighat'.", "feature_type": "exposed_asset", "positional_accuracy_m": 100.0}}, {"type": "Feature", "geometry": {"type": "Point", "coordinates": [85.185, 28.0046]}, "properties": {"id": "upper-trishuli-3b", "aoi_id": "lhende-khola-trishuli", "name": "Upper Trishuli 3B Hydropower Project", "asset_type": "hydropower_plant", "status": "unknown", "capacity_mw": {"low": 37.0, "high": 37.0, "best": 37.0, "unit": "MW", "source_refs": ["doed-construction-licences-gt1mw"], "disputed": false, "estimates": []}, "transect_id": "betrawati", "geometry_quality": "source_stated_location", "source_refs": ["doed-construction-licences-gt1mw"], "notes": "Location: centre of the DoED generation-licence rectangle 27°59'12\"-28°01'21\" N, 85°10'11\"-85°12'01\" E (no OSM feature); 0.1 km from the centreline. Holds a generation licence (NEA, 2070-04-27 BS); no retrieved source states whether it is under construction or operating, so status is unknown.", "feature_type": "exposed_asset", "positional_accuracy_m": 3000.0}}, {"type": "Feature", "geometry": {"type": "Point", "coordinates": [85.2096089, 28.0730012]}, "properties": {"id": "upper-trishuli-1", "aoi_id": "lhende-khola-trishuli", "name": "Upper Trishuli-1 Hydroelectric Project", "asset_type": "hydropower_plant", "status": "unknown", "capacity_mw": {"low": 216.0, "high": 216.0, "best": 216.0, "unit": "MW", "source_refs": ["doed-construction-licences-gt1mw", "nwedc-home"], "disputed": false, "estimates": []}, "transect_id": "betrawati", "geometry_quality": "osm_way_centroid", "source_refs": ["doed-construction-licences-gt1mw", "nwedc-home", "osm-overpass-lhende-khola-trishuli"], "notes": "Location: centroid of OSM way 1552864314; 0.1 km from the centreline. Geometry is the OSM way 'Upper Trishuli-1 Hydroelectric Project' near Mailung, inside the DoED licence rectangle. Neither retrieved source states a commissioning date, so status is unknown. OSM construction ways named 'Upper Trishuli-3 Hydropower Project' (28.08-28.13 N) fall inside this licence rectangle and were not used.", "feature_type": "exposed_asset", "positional_accuracy_m": 200.0}}, {"type": "Feature", "geometry": {"type": "Point", "coordinates": [85.2896, 28.2]}, "properties": {"id": "sanjen-hep", "aoi_id": "lhende-khola-trishuli", "name": "Sanjen Hydroelectric Project", "asset_type": "hydropower_plant", "status": "operational", "capacity_mw": {"low": 42.5, "high": 42.5, "best": 42.5, "unit": "MW", "source_refs": ["doed-powerplants-gt1mw", "sjcl-about"], "disputed": false, "estimates": []}, "geometry_quality": "source_stated_location", "source_refs": ["doed-powerplants-gt1mw", "sjcl-about"], "notes": "Location: centre of the DoED licence rectangle 28°11'-28°13' N, 85°16'30\"-85°18'15\" E; operator: powerhouse in Chilime village at 1,745 m (no OSM feature); 5.6 km from the centreline. On the Sanjen Khola (tributary), not on the corridor centreline. DoED COD 2081-09-01 BS.", "feature_type": "exposed_asset", "positional_accuracy_m": 3000.0}}, {"type": "Feature", "geometry": {"type": "Point", "coordinates": [85.2896, 28.2285]}, "properties": {"id": "sanjen-upper-hep", "aoi_id": "lhende-khola-trishuli", "name": "Sanjen (Upper) Hydroelectric Project", "asset_type": "hydropower_plant", "status": "operational", "capacity_mw": {"low": 14.8, "high": 14.8, "best": 14.8, "unit": "MW", "source_refs": ["doed-powerplants-gt1mw", "sjcl-about"], "disputed": false, "estimates": []}, "geometry_quality": "source_stated_location", "source_refs": ["doed-powerplants-gt1mw", "sjcl-about"], "notes": "Location: centre of the DoED licence rectangle 28°13'-28°14'25\" N, 85°16'30\"-85°18'15\" E; operator: powerhouse in Simbu village at 2,187 m (no OSM feature); 6.5 km from the centreline. On the Sanjen Khola (tributary), not on the corridor centreline. DoED COD 2080-06-21 BS.", "feature_type": "exposed_asset", "positional_accuracy_m": 3000.0}}, {"type": "Feature", "geometry": {"type": "Point", "coordinates": [85.3777789, 28.2777749]}, "properties": {"id": "rasuwagadhi-kerung-border-post", "aoi_id": "lhende-khola-trishuli", "name": "Rasuwagadhi-Kerung (Gyirong) border post: customs and immigration", "asset_type": "border_post", "status": "unknown", "transect_id": "rasuwagadhi-gyirong", "geometry_quality": "osm_node", "source_refs": ["customs-office-rasuwa-contact", "immigration-office-rasuwagadhi", "osm-overpass-lhende-khola-trishuli"], "notes": "Location: OSM node 992955542; 0.1 km from the centreline. Located at the OSM 'Rasuwa Gadhi' hamlet node; the Customs Office Rasuwa states its address as Timure, ~3 km south. No retrieved source gives a post-August-2026 operating status.", "feature_type": "exposed_asset", "positional_accuracy_m": 300.0}}, {"type": "Feature", "geometry": {"type": "Point", "coordinates": [85.3781653, 28.2787739]}, "properties": {"id": "miteri-bridge", "aoi_id": "lhende-khola-trishuli", "name": "Nepal-China Friendship (Miteri) Bridge, Rasuwagadhi", "asset_type": "bridge", "status": "unknown", "transect_id": "rasuwagadhi-gyirong", "geometry_quality": "osm_way_centroid", "source_refs": ["myrepublica-2025-12-friendship-bridge", "osm-overpass-lhende-khola-trishuli"], "notes": "Location: centroid of OSM way 1552746560; 0.0 km from the centreline. Geometry is the OSM way tagged 'Temporary Friendship Bridge in Rasuwagadhi'. Press (Republica, 26 Dec 2025) reports the bridge washed away by the July 2025 Lhende flood and rebuilt; no official confirmation and no post-August-2026 status were retrieved, so status is unknown.", "feature_type": "exposed_asset", "positional_accuracy_m": 50.0}}, {"type": "Feature", "geometry": {"type": "Point", "coordinates": [85.3666715, 28.2528483]}, "properties": {"id": "timure", "aoi_id": "lhende-khola-trishuli", "name": "Timure", "asset_type": "settlement", "status": "unknown", "transect_id": "rasuwagadhi-gyirong", "geometry_quality": "osm_node", "source_refs": ["osm-overpass-lhende-khola-trishuli"], "notes": "Location: OSM node 2553894641; 0.2 km from the centreline. OSM place=suburb node; population not sourced (null).", "feature_type": "exposed_asset", "positional_accuracy_m": 500.0}}, {"type": "Feature", "geometry": {"type": "Point", "coordinates": [85.3427433, 28.164569]}, "properties": {"id": "syabrubesi", "aoi_id": "lhende-khola-trishuli", "name": "Syabrubesi (Shyaphru Bensi)", "asset_type": "settlement", "status": "unknown", "transect_id": "syabrubesi", "geometry_quality": "osm_node", "source_refs": ["osm-overpass-lhende-khola-trishuli"], "notes": "Location: OSM node 14127413536; 0.1 km from the centreline. OSM place=hamlet node; population not sourced (null).", "feature_type": "exposed_asset", "positional_accuracy_m": 500.0}}, {"type": "Feature", "geometry": {"type": "Point", "coordinates": [85.1859528, 27.9731085]}, "properties": {"id": "betrawati", "aoi_id": "lhende-khola-trishuli", "name": "Betrawati", "asset_type": "settlement", "status": "unknown", "transect_id": "betrawati", "geometry_quality": "osm_node", "source_refs": ["osm-overpass-lhende-khola-trishuli"], "notes": "Location: OSM node 268864226; 0.2 km from the centreline. OSM place=hamlet node; population not sourced (null).", "feature_type": "exposed_asset", "positional_accuracy_m": 500.0}}]}
