{"type": "FeatureCollection", "features": [{"type": "Feature", "geometry": {"type": "LineString", "coordinates": [[85.4674016, 28.2793443], [85.4674744, 28.2798747], [85.4669595, 28.2810652], [85.4670667, 28.2822934], [85.4675075, 28.2837106], [85.4665572, 28.2842931], [85.4664323, 28.2843918], [85.4662335, 28.2845916], [85.4661418, 28.2846297], [85.4659201, 28.2846477], [85.4658717, 28.2847172], [85.4657595, 28.2848272], [85.4651607, 28.2851773], [85.4649237, 28.2854084], [85.4646867, 28.2855004], [85.4637947, 28.285763], [85.4633808, 28.2858337], [85.4632475, 28.2859511], [85.4629484, 28.2866652], [85.462624, 28.2869286], [85.461568, 28.2877125], [85.4613194, 28.2879886], [85.4610779, 28.2881758], [85.4607896, 28.2885281], [85.4606418, 28.2887883], [85.4605337, 28.2889407], [85.4604004, 28.2890327], [85.4602057, 28.2890644], [85.4597588, 28.2890771], [85.4595174, 28.2890517], [85.4591318, 28.2890866], [85.4587461, 28.2891977], [85.4585407, 28.2893437], [85.4583749, 28.2894135], [85.4581659, 28.2896103], [85.4580217, 28.2896833], [85.4577947, 28.2897213], [85.4568901, 28.2899752], [85.4565045, 28.2902164], [85.4562486, 28.2904513], [85.4555494, 28.2906829], [85.4553764, 28.2909082], [85.4549656, 28.2911367], [85.4544538, 28.291489], [85.4542448, 28.291581], [85.4541943, 28.2916921], [85.4541835, 28.2918381], [85.4540682, 28.2919809], [85.4540393, 28.2920697], [85.4540393, 28.2921871], [85.4539853, 28.2922887], [85.4539204, 28.2923522], [85.4538339, 28.2924918], [85.4537474, 28.2925394], [85.4536033, 28.2925838], [85.453333, 28.2927901], [85.4532825, 28.2929266], [85.4533005, 28.2931519], [85.4532176, 28.2934311], [85.4530158, 28.2938437], [85.4526554, 28.2943768], [85.4521797, 28.2945291], [85.4517616, 28.2946941], [85.4514697, 28.2949163], [85.4513183, 28.2954208], [85.4511814, 28.295551], [85.4509471, 28.2956874], [85.4507561, 28.2959159], [85.4501687, 28.2962618], [85.4501074, 28.2963538], [85.4500209, 28.2966172], [85.4498479, 28.296944], [85.4498371, 28.2971408], [85.4497326, 28.2973153], [85.4493614, 28.2977056], [85.449192, 28.2979658], [85.4491019, 28.2981594], [85.4490911, 28.2983625], [85.4491199, 28.2984831], [85.4490514, 28.2988258], [85.4488164, 28.2990603], [85.448673, 28.2992034], [85.4485671, 28.299424], [85.4484856, 28.2995937], [85.4484027, 28.2996762], [85.4482622, 28.2996889], [85.4481829, 28.2997809], [85.4481288, 28.2999269], [85.4481216, 28.3000792], [85.4479234, 28.3002633], [85.4478225, 28.3004378], [85.4478369, 28.3006631], [85.4476711, 28.3010724], [85.4476171, 28.3013231], [85.4475594, 28.3013866], [85.4471521, 28.3014976], [85.4469972, 28.3016151], [85.4466043, 28.3017325], [85.4464566, 28.3018435], [85.4463196, 28.3018689], [85.445928, 28.3018646], [85.4454438, 28.3017793], [85.4450234, 28.3019812], [85.4449189, 28.3020643], [85.4444092, 28.302522], [85.4442002, 28.3028024], [85.4441569, 28.3028922], [85.4441926, 28.3030336], [85.444162, 28.3032175], [85.4440269, 28.3033544], [85.4436294, 28.3034464], [85.4434586, 28.3036124], [85.4432905, 28.3038615], [85.4432395, 28.3040657], [85.4429515, 28.3045391], [85.4427196, 28.3046939], [85.4424724, 28.3049071], [85.4421717, 28.3052728], [85.4420953, 28.3054747], [85.4419831, 28.3056542], [85.441741, 28.3057821], [85.4415473, 28.3058517], [85.4414072, 28.3059616], [85.4413282, 28.3061501], [85.4412212, 28.3063094], [85.4410224, 28.3065315], [85.4406809, 28.3066594], [85.4404464, 28.3068097], [85.4399939, 28.3071906], [85.4398853, 28.3073292], [85.4398816, 28.3074588], [85.4398419, 28.3075857], [85.4397879, 28.3076555], [85.4394383, 28.3078903], [85.4393121, 28.3080442], [85.4392761, 28.308114], [85.4393464, 28.3086804], [85.4392148, 28.3088121], [85.439168, 28.3089263], [85.4390418, 28.3091151], [85.4388887, 28.3091801], [85.4387679, 28.309169], [85.438622, 28.3091103], [85.438431, 28.3090627], [85.4383373, 28.3091755], [85.4382454, 28.3093673], [85.4381084, 28.3098544], [85.4379877, 28.3101225], [85.4378075, 28.3104017], [85.4376489, 28.3105905], [85.4374867, 28.3106984], [85.4374038, 28.3107142], [85.4372921, 28.3106952], [85.4370993, 28.3106254], [85.4369569, 28.3106206], [85.4368614, 28.3106492], [85.4367173, 28.3107285], [85.4364722, 28.3109697], [85.4363569, 28.3110125], [85.4361965, 28.3111664], [85.4361262, 28.31126], [85.4359785, 28.3113266], [85.4356938, 28.3118406], [85.4356649, 28.3119707], [85.4357262, 28.3121595], [85.4357442, 28.3124054], [85.4359406, 28.3127385], [85.4356377, 28.3131158], [85.4356634, 28.3132392], [85.4355182, 28.3135194], [85.4354093, 28.3140215], [85.4351507, 28.3146216], [85.4350804, 28.3151393], [85.434877, 28.3158581], [85.4349222, 28.3160558], [85.4350251, 28.3163088], [85.4347097, 28.3170797], [85.4350305, 28.3174447], [85.4350061, 28.3177184], [85.4351659, 28.3183549], [85.4350112, 28.3184954], [85.4347625, 28.3191694], [85.4345378, 28.3196644], [85.4345461, 28.3202764], [85.4345721, 28.3206762], [85.4341094, 28.3209646], [85.4349468, 28.3212309], [85.4348805, 28.3214193], [85.4349468, 28.3216661], [85.4352169, 28.3223077], [85.4352373, 28.3228685], [85.4354921, 28.3234832], [85.4356501, 28.324044], [85.4357703, 28.3243816], [85.4358712, 28.3244895], [85.4360118, 28.3246069], [85.4360839, 28.3247687], [85.4361451, 28.3252414], [85.4363289, 28.3259869], [85.4362677, 28.326136], [85.4361379, 28.3262185], [85.4360262, 28.3263834], [85.4360623, 28.3268212], [85.4359253, 28.3272527], [85.4357343, 28.3274367], [85.435464, 28.3275445], [85.4352622, 28.3277983], [85.4350676, 28.3278745], [85.4349666, 28.3278935], [85.4344347, 28.3279121], [85.4341748, 28.3280826], [85.4337517, 28.3284595], [85.4334561, 28.3288677], [85.433293, 28.3293074], [85.4329977, 28.3295455], [85.4324981, 28.3297953], [85.4319378, 28.329995], [85.4313557, 28.3299381], [85.4309813, 28.3299969], [85.4306907, 28.3303723], [85.4295577, 28.3301489], [85.4290388, 28.3300499], [85.4282136, 28.3302783], [85.4276964, 28.3302433], [85.4263038, 28.3305113], [85.4257329, 28.3304717], [85.4253074, 28.3302417], [85.4248974, 28.330126], [85.4244148, 28.3301671], [85.4237626, 28.3300073], [85.4218277, 28.3297787], [85.4203618, 28.3292591], [85.4194482, 28.3281922], [85.4192233, 28.3281206], [85.4187165, 28.3277354], [85.4180522, 28.3273943], [85.4173135, 28.3271019], [85.4169226, 28.3270516], [85.4165524, 28.3272785], [85.4162185, 28.3273836], [85.4156909, 28.327376], [85.415338, 28.3272039], [85.4151906, 28.3270666], [85.4145942, 28.3265111], [85.4136912, 28.3253629], [85.4136254, 28.3247538], [85.4132827, 28.3239437], [85.4131774, 28.3234868], [85.4130732, 28.3229447], [85.4132889, 28.3226354], [85.4133122, 28.3222569], [85.4133176, 28.321797], [85.4135482, 28.3209349], [85.4136231, 28.3203127], [85.4138207, 28.3196358], [85.4139613, 28.31916], [85.4139811, 28.3187869], [85.4139506, 28.3185791], [85.4139677, 28.3179827], [85.4143105, 28.3176403], [85.4144602, 28.3172597], [85.4143773, 28.316884], [85.4142333, 28.3162061], [85.4139022, 28.3146466], [85.4138358, 28.3141251], [85.4137206, 28.3134024], [85.4133063, 28.3116223], [85.412949, 28.3111149], [85.4127553, 28.3105088], [85.4126846, 28.3103386], [85.4124681, 28.3098173], [85.4123885, 28.3093574], [85.4120093, 28.3084457], [85.4119388, 28.3082761], [85.4115409, 28.3078816], [85.4111002, 28.3075798], [85.4106895, 28.307487], [85.4104149, 28.3074941], [85.409664, 28.3073516], [85.4091502, 28.3070211], [85.4090187, 28.3068201], [85.4089924, 28.3063613], [85.408941, 28.3060349], [85.4087897, 28.3059171], [85.408812, 28.3057634], [85.4085926, 28.3054781], [85.4085658, 28.3052809], [85.4084409, 28.3051173], [85.4078378, 28.3047876], [85.4074441, 28.3047396], [85.407163, 28.3046686], [85.4068909, 28.304534], [85.4065969, 28.3040253], [85.4060329, 28.3035287], [85.4045487, 28.3023422], [85.4041992, 28.3021351], [85.4037581, 28.301637], [85.403576, 28.3014963], [85.4033754, 28.3014715], [85.4029428, 28.3015494], [85.4027333, 28.3015086], [85.4025689, 28.3013026], [85.4022164, 28.3011451], [85.4017728, 28.300754], [85.4011323, 28.300567], [85.4007814, 28.3002229], [85.4008343, 28.2998741], [85.4007093, 28.2996547], [85.3999188, 28.2991592], [85.3995669, 28.299136], [85.3988197, 28.298851], [85.3983657, 28.2987016], [85.3979828, 28.2984486], [85.3976698, 28.29814], [85.3974269, 28.2977919], [85.3973771, 28.2974413], [85.3973403, 28.2971822], [85.3973834, 28.2965476], [85.3974005, 28.2962497], [85.3973111, 28.2958784], [85.3974137, 28.295421], [85.3972961, 28.2950166], [85.3970435, 28.2946476], [85.3965461, 28.2939873], [85.3962126, 28.2935411], [85.3955653, 28.2928355], [85.3951445, 28.292429], [85.394529, 28.2919332], [85.3943586, 28.2914677], [85.3937227, 28.2908516], [85.3931718, 28.2902466], [85.393182, 28.2897668], [85.3929741, 28.2893737], [85.3917754, 28.2887005], [85.3909027, 28.288181], [85.3901552, 28.2877098], [85.388924, 28.2875133], [85.3880673, 28.2870884], [85.3873951, 28.2863418], [85.3869856, 28.2859506], [85.3867974, 28.2854304], [85.3864773, 28.2846397], [85.3859256, 28.2841678], [85.3849225, 28.2837567], [85.3841007, 28.2832429], [85.3838122, 28.2829662], [85.383533, 28.2827425], [85.3832149, 28.2826578], [85.3830268, 28.282566], [85.3825389, 28.2820608], [85.3821406, 28.2819011], [85.3816699, 28.2818453], [85.3814097, 28.2816865], [85.3807758, 28.2803737], [85.3804174, 28.2800201], [85.3796586, 28.2797444], [85.3792351, 28.279603], [85.3789545, 28.2794405], [85.3785056, 28.279029], [85.3783054, 28.2788212], [85.3777589, 28.2785144], [85.376979, 28.2780546], [85.3768216, 28.2779066], [85.3767462, 28.2777463], [85.3767613, 28.2775121], [85.3765985, 28.2770261], [85.3771714, 28.2758879], [85.3773933, 28.2751452], [85.3776105, 28.2744659], [85.3776476, 28.2741356], [85.3777286, 28.2734137], [85.3776181, 28.2726571], [85.3775209, 28.2719917], [85.3776048, 28.2713134], [85.3775962, 28.2706383], [85.3775949, 28.270283], [85.3773685, 28.2698453], [85.3767389, 28.2692069], [85.3763324, 28.2688538], [85.376239, 28.2682701], [85.3761588, 28.268068], [85.3760461, 28.2677839], [85.3758622, 28.2674971], [85.3758404, 28.2671284], [85.3757841, 28.2668506], [85.3755782, 28.266605], [85.3752892, 28.2663322], [85.3750465, 28.2662087], [85.3747305, 28.2660842], [85.374483, 28.2660575], [85.3740981, 28.2658021], [85.3738543, 28.2655288], [85.3736376, 28.2652264], [85.3732695, 28.2649583], [85.3728356, 28.2648002], [85.3726159, 28.2645444], [85.3725014, 28.2642226], [85.3725293, 28.2637686], [85.3727395, 28.2633658], [85.3728672, 28.2630691], [85.372849, 28.2627265], [85.3726205, 28.2623202], [85.3721556, 28.2619653], [85.371794, 28.2617948], [85.3711533, 28.2614335], [85.3709295, 28.2612648], [85.3706772, 28.2609758], [85.3701434, 28.2603391], [85.369643, 28.2598333], [85.369335, 28.2595682], [85.3689459, 28.2591658], [85.3687436, 28.2589566], [85.3680626, 28.2586969], [85.3674829, 28.2585703], [85.3665112, 28.2584886], [85.3658447, 28.2581913], [85.3655834, 28.2579395], [85.3654734, 28.2576234], [85.3655078, 28.2570507], [85.3655078, 28.2564967], [85.3651377, 28.254852], [85.3650429, 28.2542095], [85.3650446, 28.2534983], [85.3650598, 28.2530637], [85.3650195, 28.2522315], [85.3648935, 28.2520075], [85.3647465, 28.2517719], [85.3646775, 28.2514446], [85.3646449, 28.2511203], [85.3648108, 28.2505815], [85.36497, 28.2500646], [85.3650164, 28.2497402], [85.3649821, 28.249554], [85.3648616, 28.2494292], [85.364336, 28.2489507], [85.3640952, 28.2486872], [85.3638697, 28.2481966], [85.3633558, 28.2467827], [85.3631936, 28.2465653], [85.3629994, 28.2463895], [85.3624306, 28.2458514], [85.3611588, 28.2450484], [85.3604894, 28.2447003], [85.3596845, 28.2442672], [85.3592583, 28.2438852], [85.3588736, 28.2434913], [85.3586512, 28.2432473], [85.358457, 28.2428725], [85.3582262, 28.2423521], [85.3581454, 28.2416326], [85.3581813, 28.2411955], [85.3582245, 28.2406879], [85.3582515, 28.2403252], [85.3582567, 28.2397252], [85.3582034, 28.2392849], [85.3582631, 28.2386698], [85.3581634, 28.2382734], [85.3580332, 28.2380123], [85.3579697, 28.2378227], [85.3579239, 28.2376081], [85.3579374, 28.2373559], [85.358087, 28.2370764], [85.3584222, 28.23691], [85.3585944, 28.2368124], [85.3587017, 28.2366909], [85.3587843, 28.2364763], [85.358794, 28.2362643], [85.3588086, 28.2359585], [85.3588799, 28.2357066], [85.3590113, 28.2351725], [85.3591105, 28.2349433], [85.3592688, 28.2347566], [85.3594673, 28.2345889], [85.3596367, 28.2343824], [85.3598347, 28.233913], [85.360057, 28.2334183], [85.3603115, 28.2329665], [85.3603513, 28.2327601], [85.3603578, 28.2321643], [85.3603979, 28.2316935], [85.3604357, 28.2311473], [85.3605317, 28.23082], [85.360677, 28.2305289], [85.3607477, 28.2302819], [85.3608379, 28.2300611], [85.3608727, 28.2295459], [85.3609988, 28.2289197], [85.361031, 28.2285227], [85.3610095, 28.2280429], [85.360978, 28.2276578], [85.3609934, 28.227386], [85.3610739, 28.2266628], [85.36108, 28.2264494], [85.3610873, 28.2258924], [85.361097, 28.2255196], [85.3611168, 28.2251645], [85.3611661, 28.2247643], [85.3611157, 28.2243836], [85.3610444, 28.2241672], [85.3609334, 28.2237594], [85.3609103, 28.2234369], [85.3608544, 28.2231308], [85.3608245, 28.2229265], [85.3607766, 28.2227661], [85.3606904, 28.222631], [85.360536, 28.222457], [85.3603604, 28.2221915], [85.3599903, 28.2218275], [85.3599375, 28.2217743], [85.3597462, 28.2215817], [85.3595547, 28.2213854], [85.3593171, 28.2213028], [85.3591132, 28.2212627], [85.3588825, 28.2211563], [85.3587438, 28.2210795], [85.3586572, 28.2209271], [85.3585698, 28.2207489], [85.3584718, 28.2205331], [85.3582308, 28.2202393], [85.3580672, 28.2200337], [85.3577882, 28.2197855], [85.3576004, 28.2196012], [85.3573912, 28.2193649], [85.3571874, 28.2190907], [85.3568763, 28.2188165], [85.3565893, 28.2185944], [85.3564122, 28.218462], [85.356254, 28.2182659], [85.3559624, 28.2179836], [85.3557745, 28.2177415], [85.3556367, 28.2175385], [85.3555419, 28.2173248], [85.3554214, 28.2170492], [85.3552582, 28.216824], [85.3550939, 28.2165683], [85.3548749, 28.216323], [85.3548004, 28.216186], [85.3547013, 28.2160753], [85.3546174, 28.2158921], [85.3546029, 28.2156445], [85.354615, 28.2154387], [85.3546433, 28.2152425], [85.3546835, 28.2147811], [85.3547627, 28.214411], [85.3548374, 28.2140348], [85.3548592, 28.2136405], [85.3548512, 28.2132576], [85.3547822, 28.212834], [85.3546037, 28.2121479], [85.3544623, 28.2117237], [85.3543764, 28.2114968], [85.354277, 28.2112688], [85.3541994, 28.2110146], [85.3541709, 28.2107702], [85.354202, 28.2105184], [85.3542691, 28.2101235], [85.3542678, 28.2099214], [85.3542182, 28.2097264], [85.3541944, 28.2094957], [85.354186, 28.2092868], [85.3542477, 28.2088826], [85.3542741, 28.2087969], [85.3543558, 28.2085319], [85.3543335, 28.2082209], [85.3544435, 28.2077953], [85.3545052, 28.2075826], [85.3546929, 28.2071926], [85.3548217, 28.2067884], [85.3548605, 28.2065511], [85.3548646, 28.2064575], [85.3548955, 28.2062059], [85.3548431, 28.2060722], [85.3548029, 28.2059091], [85.3546876, 28.2057058], [85.3545772, 28.2055263], [85.3544489, 28.2053962], [85.3543079, 28.2052212], [85.3538936, 28.2047532], [85.3537488, 28.2045311], [85.35362, 28.2043065], [85.3535745, 28.2041907], [85.3532921, 28.2037442], [85.3532002, 28.2032427], [85.352985, 28.2023396], [85.3525852, 28.2003513], [85.35248, 28.1995918], [85.3523831, 28.199336], [85.352108, 28.1990037], [85.3519543, 28.1985975], [85.3518202, 28.1980166], [85.3515916, 28.1976113], [85.351472, 28.1974739], [85.3512821, 28.1973014], [85.3510543, 28.1971358], [85.3509353, 28.197051], [85.350757, 28.1968721], [85.3505912, 28.1965873], [85.3503538, 28.1956769], [85.3502347, 28.1952771], [85.3497741, 28.1942085], [85.3491297, 28.1934251], [85.34891, 28.1920078], [85.3487117, 28.1916909], [85.3483397, 28.1911612], [85.3474878, 28.1897316], [85.3467497, 28.1886996], [85.346105, 28.1879348], [85.3459219, 28.1874569], [85.3457747, 28.1867874], [85.3458047, 28.1862178], [85.3451906, 28.1856063], [85.3445442, 28.1849538], [85.344102, 28.1840369], [85.3439246, 28.1836371], [85.3438114, 28.1831794], [85.3436949, 28.1827808], [85.343715, 28.1824017], [85.3436936, 28.1823194], [85.3436134, 28.1821557], [85.3434173, 28.1820751], [85.3431107, 28.1819754], [85.3429162, 28.1817393], [85.3427556, 28.1811583], [85.3426722, 28.1807772], [85.3426633, 28.1803773], [85.3426728, 28.1801701], [85.3426392, 28.1799331], [85.3427327, 28.1793587], [85.3428027, 28.1789346], [85.3427577, 28.1785799], [85.3428829, 28.1782323], [85.3429865, 28.1779971], [85.3429497, 28.177811], [85.3428838, 28.1773014], [85.3427835, 28.1769611], [85.3427678, 28.1765348], [85.3427535, 28.1764462], [85.3427038, 28.1761377], [85.3427405, 28.1758528], [85.3427418, 28.1755148], [85.3427748, 28.1753508], [85.3429465, 28.1743452], [85.3430013, 28.1739672], [85.3429266, 28.1738088], [85.3429127, 28.1734989], [85.3428061, 28.1731357], [85.3426822, 28.1728292], [85.3427098, 28.17265], [85.3426868, 28.1724432], [85.3427036, 28.1721164], [85.3426869, 28.1713281], [85.3426739, 28.1709703], [85.3427953, 28.1706038], [85.3427419, 28.1703673], [85.3427625, 28.1701237], [85.3427062, 28.1699171], [85.3426577, 28.1697139], [85.3425684, 28.1693096], [85.3424341, 28.1683292], [85.3424312, 28.1681469], [85.3424173, 28.1677745], [85.3424406, 28.1675819], [85.3424861, 28.1674392], [85.3425707, 28.167275], [85.3426658, 28.1671531], [85.3427899, 28.1669935], [85.342845, 28.1666895], [85.3428768, 28.1666029], [85.3428934, 28.1665014], [85.3428912, 28.1663782], [85.3428463, 28.1661297], [85.342693, 28.1657707], [85.3425719, 28.1655778], [85.3421898, 28.1650042], [85.3420658, 28.1648709], [85.3419347, 28.1647573], [85.3418024, 28.1646622], [85.3415572, 28.1645234], [85.3413057, 28.1644225], [85.3409875, 28.1643893], [85.340532, 28.1643132], [85.3402864, 28.1642576], [85.3400519, 28.1641894], [85.3398457, 28.1641076], [85.3396849, 28.1640114], [85.3395867, 28.1639001], [85.3393909, 28.1634449], [85.3393403, 28.163375], [85.3392711, 28.1633073], [85.3391771, 28.1632397], [85.339052, 28.16317], [85.338553, 28.1629488], [85.3381598, 28.1627521], [85.3378941, 28.1625885], [85.3377417, 28.1624543], [85.3376559, 28.162331], [85.3375777, 28.1621786], [85.3375177, 28.1620127], [85.3374859, 28.1618485], [85.337497, 28.1616699], [85.3376032, 28.1611136], [85.3376654, 28.1606448], [85.337625, 28.1604757], [85.3375494, 28.1602767], [85.3375407, 28.1601462], [85.3374678, 28.1600291], [85.337362, 28.1598988], [85.3371801, 28.1598502], [85.3369789, 28.1598283], [85.3365713, 28.1596998], [85.335946, 28.1594676], [85.3355644, 28.1592296], [85.3352234, 28.1589672], [85.3347748, 28.1588089], [85.3343802, 28.1587523], [85.3340535, 28.158677], [85.3339434, 28.1586316], [85.333848, 28.1585642], [85.3336178, 28.1583377], [85.332979, 28.1575967], [85.3327739, 28.1573924], [85.3326739, 28.1573217], [85.3324092, 28.1571811], [85.331426, 28.1567493], [85.3312826, 28.1566735], [85.3311212, 28.1565668], [85.3309161, 28.156409], [85.330426, 28.1559941], [85.3291962, 28.1548428], [85.3282423, 28.1538869], [85.328064, 28.1537128], [85.3279363, 28.1536303], [85.3275485, 28.1534571], [85.3273835, 28.1533544], [85.3273022, 28.1532871], [85.3272221, 28.1531995], [85.3270634, 28.1529595], [85.3266736, 28.1522561], [85.326519, 28.1520573], [85.3264191, 28.1519809], [85.3261108, 28.1518156], [85.3253143, 28.1514667], [85.3249712, 28.1513013], [85.3248453, 28.1512249], [85.324439, 28.1509382], [85.3242126, 28.150821], [85.3240829, 28.1507747], [85.3239379, 28.1507387], [85.3237747, 28.1507148], [85.3234034, 28.1506985], [85.3230839, 28.1506652], [85.3228256, 28.1505994], [85.3226163, 28.1504961], [85.3224435, 28.1503504], [85.3222088, 28.1500621], [85.3220265, 28.1498619], [85.3218138, 28.1496708], [85.3216942, 28.1495823], [85.3214243, 28.1494261], [85.3212726, 28.1493613], [85.3209984, 28.1492687], [85.3206945, 28.1489647], [85.3204673, 28.1489124], [85.3203607, 28.1488221], [85.3202429, 28.148726], [85.3201385, 28.1486113], [85.3201245, 28.1485858], [85.3200135, 28.1483867], [85.3199657, 28.1483006], [85.3199073, 28.1482269], [85.3198349, 28.1481694], [85.3197427, 28.1481207], [85.3195008, 28.1480239], [85.3190625, 28.1478942], [85.3186415, 28.1478064], [85.3183128, 28.1477671], [85.3181053, 28.1477268], [85.3179142, 28.1476493], [85.3178282, 28.1475901], [85.3177505, 28.1475137], [85.3176822, 28.1474176], [85.3175648, 28.1471704], [85.3174902, 28.1470461], [85.3173103, 28.146815], [85.3171119, 28.1466138], [85.3169217, 28.1464508], [85.3167665, 28.1463341], [85.3165973, 28.146233], [85.3163658, 28.1461201], [85.3160998, 28.1460086], [85.315697, 28.1458726], [85.3145872, 28.1456305], [85.3139249, 28.1454574], [85.3137532, 28.1453985], [85.3136229, 28.1453408], [85.3133995, 28.1452158], [85.3131771, 28.1450626], [85.3130771, 28.1449731], [85.3129903, 28.1448736], [85.312921, 28.1447632], [85.3128735, 28.1446409], [85.3128521, 28.1445058], [85.3128612, 28.144357], [85.3129926, 28.1434204], [85.3130287, 28.1429048], [85.3130252, 28.1427774], [85.3129957, 28.1425949], [85.3129326, 28.141955], [85.3128555, 28.1416831], [85.3127933, 28.1415606], [85.312711, 28.1414526], [85.3126147, 28.1413619], [85.3125138, 28.141288], [85.3124101, 28.14123], [85.3122014, 28.1411581], [85.3120029, 28.1411397], [85.3118292, 28.1411678], [85.3116654, 28.1412484], [85.3106353, 28.1419047], [85.3103448, 28.1420738], [85.3102541, 28.1421148], [85.3100296, 28.142174], [85.3098638, 28.1421917], [85.309779, 28.1421898], [85.3096104, 28.1421572], [85.3094494, 28.142077], [85.3076233, 28.1407319], [85.3075203, 28.1406605], [85.3060828, 28.1393561], [85.3046923, 28.1375475], [85.3033364, 28.1350049], [85.3028335, 28.1346139], [85.3026186, 28.1345063], [85.3025608, 28.1344347], [85.302528, 28.1343363], [85.3026272, 28.1340357], [85.3026116, 28.1338612], [85.3023343, 28.1336234], [85.3011448, 28.1326205], [85.3009424, 28.132384], [85.3006023, 28.1315057], [85.3004252, 28.1313217], [85.3004022, 28.1311802], [85.3005091, 28.1310402], [85.3006002, 28.1309499], [85.3006023, 28.1308019], [85.3004923, 28.1305231], [85.3004513, 28.1303875], [85.300565, 28.1301279], [85.3005771, 28.1299159], [85.3004577, 28.1297003], [85.3002729, 28.1294918], [85.2999343, 28.1291096], [85.2987956, 28.128339], [85.2985606, 28.128045], [85.2981267, 28.1275022], [85.2980461, 28.1273133], [85.297939, 28.1271264], [85.297776, 28.1268183], [85.2976758, 28.126656], [85.2975361, 28.1264958], [85.2974126, 28.1264198], [85.2972566, 28.1263849], [85.2970656, 28.1263582], [85.2969701, 28.1263027], [85.2968653, 28.1261918], [85.2967465, 28.1260439], [85.29653, 28.1258714], [85.2963134, 28.1257605], [85.2960409, 28.1256619], [85.2956962, 28.1255366], [85.2954237, 28.1254298], [85.2952048, 28.1253189], [85.2949579, 28.1251546], [85.294555, 28.1248423], [85.2942219, 28.124561], [85.2940403, 28.1243638], [85.2937911, 28.1240926], [85.2935815, 28.1237784], [85.2934114, 28.1234415], [85.2932717, 28.1231909], [85.2931506, 28.1230492], [85.2929876, 28.1229054], [85.2928595, 28.1228356], [85.2926592, 28.1227493], [85.2923378, 28.122624], [85.292198, 28.1225521], [85.2920117, 28.1224761], [85.2918394, 28.1224453], [85.2916135, 28.1224268], [85.2914085, 28.1223139], [85.2912571, 28.1221927], [85.2911081, 28.1219667], [85.2909078, 28.1216216], [85.2907401, 28.1213094], [85.2905375, 28.1210506], [85.290265, 28.1208349], [85.2900134, 28.1206809], [85.2898318, 28.1205885], [85.2895243, 28.1204775], [85.2893194, 28.1204303], [85.2891127, 28.1202822], [85.2889856, 28.1201641], [85.2887092, 28.1198921], [85.2885066, 28.1195573], [85.2882807, 28.1191711], [85.2881246, 28.118937], [85.2879104, 28.1187131], [85.2876425, 28.1185241], [85.2874981, 28.118446], [85.2873188, 28.1183741], [85.2871348, 28.1183207], [85.2869601, 28.1182529], [85.2867039, 28.1181749], [85.2864757, 28.1180886], [85.2860518, 28.1179428], [85.2856885, 28.1177641], [85.2853322, 28.1175566], [85.285069, 28.1174005], [85.2849223, 28.1173101], [85.2847359, 28.1172033], [85.284543, 28.1171113], [85.2843716, 28.1170029], [85.2841956, 28.1169202], [85.2840824, 28.1168444], [85.2839483, 28.116773], [85.2838556, 28.1166224], [85.2837076, 28.1165134], [85.2835416, 28.1164248], [85.2832671, 28.116345], [85.2830665, 28.1162579], [85.2828945, 28.1161599], [85.282767, 28.1159654], [85.2827093, 28.1158475], [85.2826303, 28.1156812], [85.2826143, 28.1155286], [85.2825968, 28.1153732], [85.2825436, 28.1151409], [85.2824721, 28.1148892], [85.2823435, 28.1145988], [85.2821521, 28.1143051], [85.2818759, 28.1140296], [85.2815569, 28.1136968], [85.2812122, 28.1132819], [85.2811226, 28.1131441], [85.2810004, 28.1129807], [85.2807019, 28.1127824], [85.2803481, 28.1125136], [85.2801618, 28.1123493], [85.2800011, 28.1122568], [85.2799502, 28.1122053], [85.2798431, 28.1121409], [85.2796828, 28.1120114], [85.2794689, 28.1118427], [85.2793348, 28.111707], [85.2791394, 28.1115399], [85.2790392, 28.1114002], [85.2789344, 28.1112441], [85.2788483, 28.1111229], [85.2787365, 28.1110243], [85.2786375, 28.1109493], [85.278556, 28.1109133], [85.2784803, 28.1108907], [85.2783618, 28.1108712], [85.2783206, 28.1108658], [85.2783029, 28.110867], [85.277999, 28.110841], [85.277881, 28.1108202], [85.2777608, 28.1107786], [85.2776613, 28.1107689], [85.2775729, 28.1107092], [85.2774654, 28.1105934], [85.2773171, 28.1102092], [85.2772736, 28.1100911], [85.2771837, 28.1099484], [85.2770519, 28.1097828], [85.2769504, 28.1096898], [85.2768976, 28.1096554], [85.2764147, 28.1094724], [85.2762238, 28.1093779], [85.2760758, 28.1092741], [85.2759983, 28.109169], [85.2759175, 28.1089796], [85.2758784, 28.1089306], [85.2758092, 28.108894], [85.2756373, 28.1088534], [85.27561, 28.1088284], [85.2755813, 28.1087398], [85.2755568, 28.1085638], [85.2755101, 28.108477], [85.2754473, 28.1084379], [85.2754083, 28.1084307], [85.2751765, 28.1084419], [85.2750815, 28.1084221], [85.2750367, 28.1083971], [85.2749796, 28.1083366], [85.2749267, 28.1081049], [85.2748489, 28.1079807], [85.2746771, 28.1077927], [85.2744599, 28.1076149], [85.2740853, 28.107395], [85.2738132, 28.1072704], [85.2736109, 28.1072039], [85.2735078, 28.1071811], [85.2730324, 28.1071235], [85.2728981, 28.1070958], [85.2727514, 28.1070438], [85.2726745, 28.1070058], [85.2726016, 28.1069612], [85.2724709, 28.1068594], [85.2723211, 28.1067038], [85.2722418, 28.1065896], [85.2718936, 28.1057988], [85.2717537, 28.1055297], [85.2716827, 28.1054544], [85.2714004, 28.1052333], [85.2713191, 28.1051558], [85.2711876, 28.1049874], [85.2710554, 28.1046086], [85.2709716, 28.1042902], [85.2709017, 28.1041608], [85.2708132, 28.1040786], [85.2706991, 28.1040129], [85.2705617, 28.1039595], [85.2703148, 28.1039081], [85.2701239, 28.1038999], [85.2700097, 28.1038382], [85.2699189, 28.1037602], [85.2697792, 28.1036636], [85.2695416, 28.1035671], [85.2693227, 28.1034787], [85.2691876, 28.1033924], [85.2691084, 28.1032918], [85.2690059, 28.1030452], [85.268964, 28.1028973], [85.2689058, 28.1027371], [85.2688382, 28.1026303], [85.2686659, 28.1024577], [85.2685471, 28.1024043], [85.2683864, 28.1023467], [85.2682281, 28.1023098], [85.2680441, 28.1022995], [85.2678484, 28.1023077], [85.2676924, 28.1023406], [85.2675573, 28.1024043], [85.2674292, 28.1024454], [85.2673244, 28.1024659], [85.2672382, 28.1024721], [85.2671451, 28.1024556], [85.2670705, 28.1024392], [85.2669657, 28.1023714], [85.2668516, 28.102244], [85.2666932, 28.1020653], [85.2666187, 28.1019831], [85.2665442, 28.101866], [85.266458, 28.1016667], [85.2664231, 28.1015435], [85.2663765, 28.1014572], [85.2662973, 28.1013914], [85.266118, 28.101336], [85.265948, 28.1013298], [85.2658851, 28.1013072], [85.2658315, 28.101262], [85.2657919, 28.1011922], [85.2657337, 28.1010874], [85.2656336, 28.1009497], [85.2654752, 28.1007731], [85.2653378, 28.1006436], [85.2652246, 28.100484], [85.2650128, 28.1002845], [85.2647071, 28.1000095], [85.2645275, 28.0998585], [85.2644089, 28.099722], [85.2642993, 28.0995494], [85.2641826, 28.0993514], [85.26415, 28.0992445], [85.2641197, 28.0991213], [85.2640731, 28.0989446], [85.2640103, 28.0988603], [85.2639357, 28.0987535], [85.2638412, 28.0985804], [85.263796, 28.0984994], [85.2636236, 28.0982871], [85.2635118, 28.0981721], [85.2634415, 28.0981075], [85.2633208, 28.0979986], [85.2631183, 28.0978484], [85.2629252, 28.097749], [85.2626368, 28.0976153], [85.2621326, 28.0973728], [85.2619649, 28.0972486], [85.2618442, 28.0971457], [85.2616981, 28.09698], [85.2614956, 28.0967434], [85.2612582, 28.0964654], [85.2610731, 28.0962726], [85.2608424, 28.0960958], [85.2603355, 28.0958952], [85.2595496, 28.0956775], [85.2585974, 28.095474], [85.2577016, 28.0953604], [85.2568969, 28.0952326], [85.2562344, 28.0951404], [85.2556095, 28.0950292], [85.2548853, 28.094763], [85.2545017, 28.0945701], [85.2539545, 28.0942389], [85.2536361, 28.0940161], [85.2533323, 28.0938035], [85.2526204, 28.0933609], [85.2520609, 28.0931078], [85.2514654, 28.092928], [85.2503065, 28.0927968], [85.2496684, 28.0927245], [85.2488476, 28.0926724], [85.2479571, 28.0926535], [85.2469218, 28.0926109], [85.2458408, 28.0925423], [85.2448887, 28.0924855], [85.2441671, 28.0924902], [85.2436924, 28.0925115], [85.2432471, 28.0924784], [85.2429011, 28.0924737], [85.2423245, 28.0922394], [85.2420455, 28.0921116], [85.2417746, 28.0919744], [85.2415118, 28.091752], [85.2411523, 28.0915627], [85.2407715, 28.0914609], [85.2400419, 28.0913923], [85.2386606, 28.0913757], [85.2376977, 28.0913119], [85.2370325, 28.0912101], [85.2362573, 28.0909711], [85.2335697, 28.0900483], [85.2328482, 28.0897856], [85.2324714, 28.0896532], [85.2321884, 28.0895537], [85.2320878, 28.0895194], [85.2318826, 28.0894449], [85.2316385, 28.0893289], [85.2314079, 28.0891657], [85.2311799, 28.0889906], [85.2309975, 28.0887681], [85.2307078, 28.0883233], [85.2302411, 28.0878145], [85.2297851, 28.0874548], [85.2296993, 28.0873554], [85.2295572, 28.0869816], [85.2294552, 28.0867899], [85.2293506, 28.0866384], [85.2292433, 28.0864894], [85.2291092, 28.0863616], [85.2290288, 28.0862764], [85.2289805, 28.0861675], [85.2289376, 28.0858528], [85.2289, 28.0856777], [85.2288651, 28.0855144], [85.2288142, 28.0854292], [85.2287284, 28.0853417], [85.2286211, 28.0852683], [85.2284548, 28.0851902], [85.2283153, 28.0851571], [85.2277037, 28.0850553], [85.2272156, 28.0849252], [85.2267998, 28.0847856], [85.2264807, 28.0846436], [85.2260971, 28.0844306], [85.2258664, 28.0843241], [85.2252373, 28.0840919], [85.225103, 28.0840315], [85.2247698, 28.0838421], [85.2246353, 28.0837657], [85.2243215, 28.0835503], [85.223954, 28.0833089], [85.2235249, 28.0830841], [85.2230926, 28.0829039], [85.2223416, 28.082637], [85.2221988, 28.082578], [85.2220567, 28.0824796], [85.2219611, 28.08236], [85.221878, 28.0822417], [85.2217734, 28.0820476], [85.2216715, 28.0819033], [85.2215543, 28.0817885], [85.2212289, 28.0816004], [85.2207836, 28.081385], [85.2203652, 28.0812217], [85.2197295, 28.0810135], [85.2194023, 28.0808904], [85.2191448, 28.0807461], [85.2189866, 28.0806065], [85.2188015, 28.0803958], [85.2186674, 28.0802278], [85.218485, 28.080003], [85.2183589, 28.0798563], [85.2182028, 28.0797126], [85.2179007, 28.0794701], [85.2178874, 28.0794598], [85.2177782, 28.079389], [85.2176865, 28.0793173], [85.2175483, 28.0791764], [85.2174587, 28.0790475], [85.2173282, 28.0788018], [85.2171469, 28.0785771], [85.2169583, 28.0783928], [85.2166371, 28.0781825], [85.21653, 28.0780994], [85.216492, 28.0780575], [85.2164061, 28.0778896], [85.2163146, 28.0777831], [85.2162355, 28.0777331], [85.2159512, 28.0776624], [85.2157672, 28.0775736], [85.2157047, 28.0775321], [85.2152953, 28.0771988], [85.215087, 28.0770532], [85.2150142, 28.0770023], [85.214582, 28.0767799], [85.2135014, 28.0762876], [85.2128995, 28.0759548], [85.212885, 28.0759468], [85.2125144, 28.0757196], [85.2116963, 28.0751283], [85.2114714, 28.0749819], [85.2112937, 28.0749158], [85.2109564, 28.0748422], [85.2107155, 28.0748141], [85.2102698, 28.0747973], [85.2100557, 28.0747645], [85.2098524, 28.0747062], [85.2097574, 28.0746671], [85.2095853, 28.0745681], [85.2095103, 28.0745079], [85.2093513, 28.0743434], [85.209173, 28.0741294], [85.2088511, 28.0736956], [85.2087539, 28.073547], [85.2086393, 28.0733444], [85.2085087, 28.0730607], [85.2083926, 28.0726968], [85.2083212, 28.0722852], [85.2082993, 28.0719323], [85.2083087, 28.071507], [85.2083079, 28.0710515], [85.2082934, 28.0708966], [85.2082658, 28.0707591], [85.208206, 28.0706033], [85.2081573, 28.0705066], [85.2080204, 28.0702899], [85.2079313, 28.0701756], [85.2077101, 28.0699496], [85.2075772, 28.0698437], [85.2074289, 28.0697462], [85.2071282, 28.0695832], [85.2069395, 28.0694888], [85.2067316, 28.0694107], [85.2062065, 28.0692415], [85.205922, 28.069134], [85.2055355, 28.0689646], [85.2054226, 28.0689036], [85.20536, 28.0688574], [85.2052825, 28.0687782], [85.2052399, 28.0687121], [85.2052032, 28.0686301], [85.2051725, 28.068525], [85.2051543, 28.0683858], [85.2051172, 28.0677943], [85.2051226, 28.0673492], [85.2051635, 28.0670106], [85.2053128, 28.0665505], [85.2054647, 28.0661623], [85.2055031, 28.0660866], [85.2055859, 28.0659645], [85.2058706, 28.0656197], [85.2062253, 28.0652287], [85.2063101, 28.0650963], [85.2063549, 28.0650264], [85.2065984, 28.0646015], [85.2068474, 28.0641391], [85.2072168, 28.0633692], [85.2074316, 28.0628702], [85.2075072, 28.0626323], [85.2076549, 28.0621671], [85.2077493, 28.0618632], [85.2077916, 28.0616979], [85.2078792, 28.0613246], [85.2079306, 28.0609033], [85.2079608, 28.0606393], [85.207994, 28.060362], [85.2080756, 28.0600847], [85.2081844, 28.0597941], [85.2083234, 28.0595488], [85.208408, 28.0592955], [85.2085168, 28.0587142], [85.2085863, 28.0582822], [85.2086558, 28.0579702], [85.208692, 28.0577089], [85.208695, 28.0575089], [85.2087068, 28.0571865], [85.2087162, 28.0565863], [85.2087378, 28.0562124], [85.2087494, 28.0560504], [85.2087222, 28.055885], [85.2086739, 28.0557037], [85.2085681, 28.0554584], [85.2082781, 28.0549837], [85.2080847, 28.0547011], [85.207997, 28.0545731], [85.2076496, 28.0540211], [85.207157, 28.0532291], [85.2069093, 28.0528212], [85.2068126, 28.0526692], [85.2066675, 28.0524638], [85.20645, 28.0522212], [85.2062838, 28.0521145], [85.2061267, 28.0520398], [85.2056463, 28.0518932], [85.2054106, 28.0518238], [85.2052051, 28.0516798], [85.2050208, 28.0515385], [85.2045947, 28.0512052], [85.2042291, 28.0508985], [85.2037517, 28.0505172], [85.2029389, 28.0499652], [85.2028271, 28.0498452], [85.2026967, 28.0496576], [85.2026696, 28.0496102], [85.2025417, 28.0493866], [85.2024978, 28.0491465], [85.2024796, 28.0489492], [85.2024736, 28.0487492], [85.2024736, 28.0484558], [85.2024524, 28.0482478], [85.2023708, 28.0480398], [85.2021352, 28.0475998], [85.2019267, 28.0472238], [85.2014493, 28.0463625], [85.2009356, 28.0454398], [85.2007599, 28.045232], [85.1992857, 28.0442181], [85.1977716, 28.0432499], [85.1967953, 28.0424864], [85.1954529, 28.0415845], [85.19519, 28.0413915], [85.1949513, 28.0411465], [85.1945624, 28.0407156], [85.1942271, 28.0402777], [85.1939119, 28.0398303], [85.1937269, 28.0394136], [85.1935284, 28.0383258], [85.1935297, 28.0380452], [85.1935311, 28.0376558], [85.1935525, 28.0374581], [85.1937336, 28.0369598], [85.1940259, 28.0364389], [85.1942298, 28.036169], [85.1945704, 28.0358045], [85.1947153, 28.035634], [85.1948091, 28.0353759], [85.1948225, 28.0349356], [85.1948145, 28.0344739], [85.194793, 28.0340857], [85.1947609, 28.0336193], [85.1947099, 28.0333044], [85.1946214, 28.0330866], [85.1945516, 28.032999], [85.1944068, 28.0328995], [85.1942486, 28.0327575], [85.1940903, 28.0325515], [85.1939987, 28.032384], [85.1939052, 28.0321254], [85.1937443, 28.0316874], [85.1932964, 28.0307758], [85.1932071, 28.0297448], [85.1933547, 28.0294064], [85.193351, 28.0291551], [85.19333, 28.0288259], [85.1933384, 28.0285889], [85.1933188, 28.0283411], [85.1932995, 28.0280725], [85.1931936, 28.0278133], [85.1929095, 28.0275172], [85.1927075, 28.0272512], [85.1923439, 28.0270126], [85.1921705, 28.0268354], [85.1918067, 28.026658], [85.1913326, 28.0264568], [85.1907914, 28.0264414], [85.1903075, 28.0263773], [85.1902129, 28.0263345], [85.1894957, 28.0260576], [85.1892257, 28.0258911], [85.188928, 28.0257734], [85.188615, 28.0255798], [85.1883336, 28.0255171], [85.1881506, 28.0254448], [85.1880359, 28.0253966], [85.1878665, 28.0252856], [85.1877464, 28.0251844], [85.1876289, 28.0250325], [85.1874841, 28.0248637], [85.1873421, 28.024719], [85.187129, 28.0245695], [85.1869078, 28.0244345], [85.1867876, 28.024338], [85.1866811, 28.0242006], [85.1864953, 28.0238944], [85.1863342, 28.0234965], [85.1862113, 28.0231903], [85.1861457, 28.0229033], [85.1860911, 28.0226695], [85.1860364, 28.0223632], [85.1860201, 28.021975], [85.1860091, 28.0217845], [85.1860282, 28.021541], [85.1860665, 28.0213023], [85.1861348, 28.0209526], [85.1861949, 28.0207452], [85.1862768, 28.0205933], [85.1863664, 28.0204707], [85.1866975, 28.0202172], [85.1870252, 28.0199543], [85.1872602, 28.019747], [85.1873558, 28.0196192], [85.1874213, 28.0194745], [85.1874759, 28.0193153], [85.1874869, 28.0191441], [85.1874759, 28.0189898], [85.187424, 28.0186233], [85.1873776, 28.0184231], [85.1873503, 28.0182351], [85.1873366, 28.0178082], [85.1873522, 28.017443], [85.1872902, 28.0170511], [85.1872957, 28.0166966], [85.1873066, 28.0164772], [85.1873011, 28.0163445], [85.1872875, 28.0162457], [85.1872274, 28.0160745], [85.1870799, 28.0159201], [85.1869624, 28.0158285], [85.1867931, 28.01572], [85.1864489, 28.0155656], [85.1861157, 28.0154258], [85.1857332, 28.0152498], [85.1856322, 28.0151654], [85.1855639, 28.0150617], [85.1854983, 28.0149194], [85.1853365, 28.0144716], [85.1852374, 28.0142434], [85.1850394, 28.013909], [85.1848346, 28.0135955], [85.1846652, 28.0133953], [85.1844576, 28.0131904], [85.1843566, 28.0130674], [85.1842309, 28.0128576], [85.1841681, 28.0127153], [85.1841123, 28.0125934], [85.1840124, 28.0123753], [85.1838622, 28.0120353], [85.1837884, 28.0118351], [85.1837338, 28.0115819], [85.1837119, 28.0113311], [85.1836899, 28.0110866], [85.1836955, 28.0107958], [85.1837365, 28.0101663], [85.1837354, 28.0098032], [85.1835872, 28.0088224], [85.1835617, 28.008307], [85.1835699, 28.0077765], [85.1835999, 28.00734], [85.1836245, 28.0070409], [85.1836983, 28.0067057], [85.1837611, 28.006426], [85.1837902, 28.0063465], [85.1838786, 28.0061052], [85.1839767, 28.0058782], [85.1840807, 28.0056374], [85.1841544, 28.0053914], [85.1842255, 28.0051502], [85.1842746, 28.0047595], [85.1842746, 28.0045473], [85.1842418, 28.0043375], [85.1842063, 28.0041614], [85.1841626, 28.0039878], [85.1841435, 28.0038069], [85.1841353, 28.0036188], [85.1841572, 28.0033873], [85.1841626, 28.0031461], [85.1841224, 28.0029503], [85.1840862, 28.0028278], [85.1840097, 28.002671], [85.1838731, 28.0024033], [85.1838048, 28.0022007], [85.1837791, 28.0020026], [85.183783, 28.0017956], [85.1838157, 28.0016316], [85.1838676, 28.0014652], [85.1839605, 28.0012939], [85.1841217, 28.0010552], [85.1843211, 28.0008164], [85.1844576, 28.0006789], [85.184668, 28.0003992], [85.1847226, 28.0002593], [85.1847581, 28.0001001], [85.1847772, 27.999912], [85.1847909, 27.9995985], [85.1847936, 27.9994272], [85.1848346, 27.9992584], [85.184927, 27.9990392], [85.185217, 27.9986145], [85.185509, 27.998187], [85.1856977, 27.9978692], [85.1859163, 27.997505], [85.1860646, 27.9972086], [85.1861484, 27.9970009], [85.1861703, 27.9968297], [85.186132, 27.9967091], [85.1859927, 27.9965379], [85.1858671, 27.9964438], [85.1856049, 27.9962653], [85.1854656, 27.9961351], [85.1851269, 27.99566], [85.1849712, 27.9954694], [85.1848373, 27.9953127], [85.1845327, 27.9950057], [85.1842992, 27.9947989], [85.1840834, 27.9946229], [85.1837679, 27.9943842], [85.1835317, 27.9942056], [85.183193, 27.9939572], [85.1828433, 27.9936943], [85.1826357, 27.9935279], [85.1824445, 27.9933759], [85.1822779, 27.9932408], [85.1822042, 27.9931251], [85.1821478, 27.9930151], [85.1821277, 27.9928887], [85.1821277, 27.992785], [85.1821523, 27.9926379], [85.1822147, 27.992372], [85.1824625, 27.9916476], [85.1828281, 27.9908578], [85.1829157, 27.9903881], [85.1828553, 27.9900066], [85.1827405, 27.9897424], [85.1824655, 27.9894942], [85.1819608, 27.9892167], [85.1809576, 27.9888245], [85.1806856, 27.9887177], [85.1804681, 27.9885977], [85.18032, 27.9884242], [85.180184, 27.988152], [85.1801024, 27.9877224], [85.1801417, 27.9869566], [85.1804645, 27.9851617], [85.1805376, 27.9844029], [85.180459, 27.983549], [85.1803623, 27.9830499], [85.1802747, 27.9816623], [85.1803804, 27.9811633], [85.1806705, 27.9804481], [85.1813414, 27.9791405], [85.1815317, 27.9786895], [85.1816768, 27.9782278], [85.1820318, 27.9765961], [85.1821724, 27.9759381], [85.1824625, 27.9749667], [85.1827193, 27.9744169], [85.1830306, 27.974006], [85.1836954, 27.9732053], [85.1840429, 27.972805], [85.1844206, 27.9721138], [85.1843375, 27.9713772], [85.1838011, 27.9706486], [85.1835745, 27.9705259], [85.1828976, 27.970247], [85.1811918, 27.9698733], [85.1798073, 27.9695149], [85.1791136, 27.9692761], [85.1782122, 27.9685196], [85.1778288, 27.9678993], [85.1773658, 27.9667154], [85.1771148, 27.9660609], [85.1768812, 27.9656057], [85.1762602, 27.9649438], [85.1756392, 27.9645875], [85.1741328, 27.9641031], [85.1726348, 27.9637142], [85.1719738, 27.9635426], [85.170581, 27.9630785], [85.1704379, 27.9630308], [85.1697648, 27.9626298], [85.1690728, 27.961713], [85.1687374, 27.9609203], [85.1686824, 27.9607589], [85.1686147, 27.9605426], [85.1682875, 27.9595662], [85.1679099, 27.9585563], [85.1675032, 27.9577962], [85.1670947, 27.9570338], [85.1666346, 27.9566821], [85.1656998, 27.956326], [85.1641117, 27.9557071], [85.1632558, 27.9555512], [85.1624635, 27.9552921], [85.1619412, 27.9548401], [85.1618866, 27.9544913], [85.1622625, 27.9538272], [85.1625544, 27.9531683], [85.1626008, 27.9524964], [85.1624398, 27.9502647], [85.1625999, 27.9490345], [85.1628659, 27.947379], [85.1627308, 27.9469735], [85.1622463, 27.9466233], [85.161801, 27.9463014], [85.1611003, 27.9454219], [85.1601688, 27.9437218], [85.1599483, 27.9423487], [85.1592114, 27.9405468], [85.1583033, 27.939073], [85.1571413, 27.9376969], [85.1561354, 27.9362994], [85.1557918, 27.9355358], [85.1556677, 27.9351314], [85.1555407, 27.9346626], [85.1553276, 27.9340437], [85.15528, 27.9337759], [85.1552937, 27.9336297], [85.1554392, 27.9334816], [85.1554876, 27.9329836], [85.1552412, 27.9324458], [85.1548091, 27.9320262], [85.1544661, 27.9318483], [85.1542915, 27.9317982], [85.1541099, 27.9317732], [85.1538698, 27.9317822], [85.1536567, 27.9318226], [85.1534774, 27.9318645], [85.1533518, 27.9319169], [85.1532213, 27.9319745], [85.1529035, 27.9322668], [85.152587, 27.9325771], [85.1523106, 27.9328684], [85.1521801, 27.9329648], [85.1519102, 27.9332011], [85.1518678, 27.9332424], [85.1515368, 27.933615], [85.1512398, 27.9339255], [85.15114, 27.9339796], [85.1510516, 27.9340036], [85.1509382, 27.9339896], [85.1508589, 27.9339555], [85.150741, 27.9338714], [85.1506095, 27.9337192], [85.1503446, 27.9333643], [85.150258, 27.9332204], [85.1501764, 27.9330381], [85.1500336, 27.9327027], [85.1499837, 27.9325574], [85.1499517, 27.9324006], [85.1499202, 27.9322068], [85.1499089, 27.9320065], [85.14989, 27.9315582], [85.1498703, 27.9313475], [85.1498411, 27.9311532], [85.1495471, 27.9301652], [85.1493974, 27.9297254], [85.1492734, 27.9294425], [85.1492151, 27.9292902], [85.1491171, 27.9290659], [85.149092, 27.9290139], [85.1490013, 27.9289195], [85.1489443, 27.9288188], [85.1489158, 27.9287046], [85.1489067, 27.9286332], [85.1489246, 27.9285362], [85.1489925, 27.9284413], [85.1491503, 27.928298], [85.1493015, 27.9282032], [85.1494965, 27.9280735], [85.1497967, 27.9278121], [85.1500355, 27.927574], [85.1503072, 27.927272], [85.1505044, 27.9270029], [85.1506184, 27.9268189], [85.1507258, 27.926606], [85.1508331, 27.9263233], [85.1509359, 27.9260911], [85.151015, 27.9258974], [85.1510742, 27.9257019], [85.1510983, 27.925516], [85.1511048, 27.9253146], [85.151118, 27.9251559], [85.1511333, 27.9249894], [85.1511599, 27.9248165], [85.1511837, 27.9246215], [85.1512275, 27.9244299], [85.1512911, 27.9241472], [85.1513283, 27.9239052], [85.1513415, 27.9237174], [85.1513524, 27.9233941], [85.1513305, 27.9231075], [85.1512933, 27.9229468], [85.1512385, 27.9227958], [85.1511158, 27.9226042], [85.1509383, 27.922335], [85.1507893, 27.9221705], [85.1506469, 27.9220717], [85.150522, 27.9220408], [85.1502678, 27.9220117], [85.150007, 27.9219536], [85.1498471, 27.921911], [85.1497074, 27.9218874], [85.1495359, 27.9218491], [85.1493541, 27.9218162], [85.1492423, 27.9217813], [85.1491043, 27.9217155], [85.1489553, 27.9216342], [85.1487493, 27.9215199], [85.1485477, 27.9214076], [85.1484184, 27.9213379], [85.1482541, 27.9212566], [85.1480328, 27.921156], [85.1477983, 27.9210669], [85.1475507, 27.9209836], [85.1470818, 27.920821], [85.1469131, 27.9207474], [85.1466808, 27.9206835], [85.1465384, 27.9206526], [85.1463478, 27.9206313], [85.1461067, 27.9206119], [85.1457386, 27.9205771], [85.1454209, 27.9205403], [85.1451295, 27.9205132], [85.1447438, 27.920488], [85.1444984, 27.9204802], [85.1443253, 27.9204744], [85.1440689, 27.9204628], [85.1436899, 27.9204512], [85.1435409, 27.9204551], [85.1433941, 27.9204357], [85.1432494, 27.9204144], [85.1431136, 27.9203544], [85.1429712, 27.9202382], [85.1428024, 27.9200892], [85.1426534, 27.9199827], [85.1425351, 27.9198646], [85.1424124, 27.9197058], [85.142316, 27.9195277], [85.1421626, 27.9192547], [85.1420509, 27.9190494], [85.1419435, 27.9188674], [85.1417616, 27.9186119], [85.1415929, 27.9184202], [85.1414198, 27.9182421], [85.1412029, 27.9180117], [85.1410407, 27.9178239], [85.1408107, 27.9176109], [85.1406376, 27.9174831], [85.140436, 27.9173553], [85.14023, 27.9172372], [85.1400284, 27.9171501], [85.1398553, 27.9170668], [85.1396712, 27.9169971], [85.1395288, 27.9169661], [85.1393163, 27.9169371], [85.1391278, 27.9169158], [85.1387578, 27.9168768], [85.1383127, 27.9167977], [85.1377937, 27.9166871], [85.1372521, 27.9165897], [85.1370177, 27.9165344], [85.1366715, 27.9164434], [85.1362245, 27.9163136], [85.1357436, 27.9161586], [85.1349421, 27.9157659], [85.1346147, 27.9156073], [85.1343171, 27.9152245], [85.1340893, 27.9148461], [85.1341454, 27.9143144], [85.1343647, 27.9140722], [85.1353721, 27.9134195], [85.1368273, 27.9119598], [85.1380735, 27.9106469], [85.1388693, 27.909243], [85.1389519, 27.9082467], [85.1391003, 27.907109], [85.1394667, 27.9061918], [85.1404189, 27.9051783], [85.1407752, 27.9045613], [85.1408902, 27.9039971], [85.1408483, 27.9033029], [85.1404405, 27.9021052], [85.1397067, 27.9014617], [85.1390163, 27.9011428], [85.1377349, 27.9007992], [85.1375981, 27.9007], [85.1368283, 27.9001413], [85.1368283, 27.8988942], [85.1366889, 27.8977033], [85.1361431, 27.8965168], [85.1356472, 27.8952278], [85.1356817, 27.8943852], [85.1358053, 27.8934901], [85.135968, 27.8929627], [85.1362578, 27.8925964], [85.1370751, 27.8903307], [85.1370587, 27.8889861], [85.1365971, 27.8885493], [85.1347459, 27.8875487], [85.1333809, 27.886455], [85.1306813, 27.8847034], [85.1283089, 27.8830621], [85.1267201, 27.8814258], [85.1261662, 27.8805913], [85.1257623, 27.8793385], [85.1256703, 27.8787953], [85.1257916, 27.8779849], [85.1260431, 27.8770859], [85.1260598, 27.8763234], [85.1259112, 27.8756894], [85.1256596, 27.875053], [85.1253431, 27.8746475], [85.1248602, 27.8743055], [85.1238303, 27.873983], [85.122178, 27.8735468], [85.1209335, 27.8730346], [85.1187662, 27.8717448], [85.1169802, 27.870901], [85.1164161, 27.870424], [85.115634, 27.8701067], [85.1149192, 27.8698582], [85.1144042, 27.8696471], [85.114465, 27.8691241], [85.1136664, 27.8685205], [85.1132116, 27.8680688], [85.1129727, 27.8670595], [85.1126849, 27.8666182], [85.1123059, 27.866037], [85.1118657, 27.8651328], [85.1116115, 27.8646361], [85.111024, 27.8635196], [85.1109144, 27.8632629], [85.1107623, 27.8630194], [85.1106015, 27.8626747], [85.1105227, 27.8623753], [85.1105115, 27.8619701], [85.1103283, 27.8618254], [85.1092605, 27.8613495], [85.1083081, 27.8606428], [85.10774, 27.8603403], [85.1074103, 27.8599187], [85.1069278, 27.8590962], [85.1066615, 27.8587405], [85.1062434, 27.8584955], [85.1052065, 27.8582518], [85.1033789, 27.8580888], [85.1016784, 27.8581636], [85.1007253, 27.8583827], [85.0985341, 27.8593734], [85.097828, 27.8597212], [85.0973491, 27.859837], [85.0965058, 27.8599897], [85.0944762, 27.8601759], [85.0926139, 27.8603357], [85.0909334, 27.8604799], [85.0894857, 27.8603773], [85.0893594, 27.8603205], [85.0892543, 27.8602328], [85.0891822, 27.8600385], [85.0885678, 27.857563], [85.0884335, 27.8573224], [85.0882497, 27.857136], [85.087858, 27.8569549], [85.0863703, 27.8563353], [85.0814161, 27.8561827], [85.081069, 27.8561726], [85.0791811, 27.8561176], [85.0772339, 27.8550037], [85.0747642, 27.8534529], [85.0723582, 27.8530758], [85.0707918, 27.8537019], [85.0691369, 27.854686], [85.0676027, 27.8557081], [85.0656983, 27.8565831], [85.0636679, 27.8574416], [85.0629893, 27.8578471], [85.0625333, 27.8583735], [85.0617394, 27.859398], [85.0603661, 27.8601354], [85.0591859, 27.8598153], [85.0577965, 27.8586913], [85.0575605, 27.8582099], [85.0574961, 27.8578495], [85.0571989, 27.8562394], [85.0564045, 27.855267], [85.0548461, 27.8542615], [85.0532019, 27.8535667], [85.0515473, 27.8531007], [85.0507316, 27.8529454], [85.0498304, 27.8528292], [85.0489318, 27.8528624], [85.0483096, 27.8529857], [85.0477892, 27.8532228], [85.0474834, 27.8534552], [85.0472099, 27.8537635], [85.0468183, 27.8541596], [85.0464964, 27.8543445], [85.0457293, 27.8547619], [85.0447851, 27.8553524], [85.0438265, 27.8560646], [85.0430963, 27.8565535], [85.0425157, 27.8567535], [85.0422379, 27.8567411], [85.0418291, 27.8566843], [85.0414495, 27.8565449], [85.0412571, 27.856435], [85.0397499, 27.8555741], [85.0378869, 27.8543968], [85.0374526, 27.8542369], [85.0361757, 27.8537669], [85.0347799, 27.8537307], [85.0340791, 27.8537255], [85.0335359, 27.8538133], [85.0329986, 27.8540302], [85.0325255, 27.8542832], [85.0321518, 27.8544123], [85.0318189, 27.8543813], [85.031521, 27.8542626], [85.0312582, 27.8540095], [85.0310538, 27.8536739], [85.0308552, 27.8533693], [85.0301894, 27.8525431], [85.0296054, 27.8518047], [85.029366, 27.8509836], [85.0291674, 27.8501058], [85.029109, 27.8494655], [85.0289805, 27.8487115], [85.0287819, 27.8483965], [85.0285838, 27.8481962], [85.0262589, 27.8467854], [85.025342, 27.8463103], [85.0239579, 27.8457216], [85.0230001, 27.8452827], [85.0222408, 27.8448024], [85.0210786, 27.8435785], [85.0207749, 27.8433823], [85.020407, 27.8432945], [85.0200274, 27.8432842], [85.0196828, 27.8432377], [85.0193849, 27.8431189], [85.0192097, 27.8429898], [85.0191338, 27.8428039], [85.019128, 27.8425302], [85.0192623, 27.8419053], [85.0194258, 27.8412805], [85.0199222, 27.8402166], [85.020553, 27.8393181], [85.0210786, 27.8385641], [85.02154, 27.8379185], [85.0219605, 27.8372575], [85.0226847, 27.8369683], [85.0230585, 27.8366481], [85.0232687, 27.8361471], [85.0234147, 27.8354396], [85.023257, 27.8346649], [85.0231402, 27.8337818], [85.0229709, 27.833162], [85.0228949, 27.8329658], [85.0226672, 27.8326559], [85.0220131, 27.8318967], [85.0209151, 27.8307346], [85.0195348, 27.8292612], [85.0184888, 27.8283124], [85.0179094, 27.8276388], [85.0175929, 27.8270126], [85.0174051, 27.8264955], [85.0172442, 27.8258503], [85.0172442, 27.8254755], [85.0172883, 27.8250274], [85.0173992, 27.8243663], [85.0174802, 27.8235114], [85.0173992, 27.8225276], [85.0172766, 27.8216405], [85.0171047, 27.8202093], [85.0169894, 27.8197017], [85.0168633, 27.8192415], [85.01674, 27.8189497], [85.0165737, 27.8187433], [85.0163215, 27.8184563], [85.0157958, 27.8178751], [85.0154069, 27.8173745], [85.015144, 27.8168242], [85.0147694, 27.8158787], [85.0141597, 27.8150165], [85.0135079, 27.8142194], [85.0127918, 27.8134223], [85.0123975, 27.8129099], [85.0122043, 27.812573], [85.0120193, 27.8118281], [85.0119603, 27.8111401], [85.0120676, 27.810324], [85.0123438, 27.8098495], [85.012832, 27.8095719], [85.0135696, 27.8092516], [85.0141382, 27.8088697], [85.0143287, 27.8086229], [85.0144708, 27.8082434], [85.0143716, 27.8078756], [85.0141382, 27.8075459], [85.0137815, 27.8072849], [85.0127086, 27.8068056], [85.0121748, 27.8065969], [85.0108274, 27.8059833], [85.0106379, 27.8058993], [85.0098494, 27.8056645], [85.0095946, 27.8056028], [85.0092566, 27.8055862], [85.0090286, 27.8056597], [85.0086048, 27.8058424], [85.0084653, 27.8058258], [85.0083286, 27.8057523], [85.0081193, 27.8055221], [85.007776, 27.8050595], [85.0074863, 27.8048199], [85.0071216, 27.8046087], [85.0050428, 27.8037902], [85.0034121, 27.8030665], [85.0020039, 27.8022978], [85.0015479, 27.8021246], [85.001335, 27.802167], [84.9995792, 27.8025161], [84.9974763, 27.8032706], [84.9958777, 27.8034319], [84.9941397, 27.803579], [84.9926376, 27.8034889], [84.9910766, 27.8032042], [84.9907279, 27.8032231], [84.9905455, 27.8033892], [84.9897248, 27.8047558], [84.9890596, 27.8053157], [84.9883085, 27.805496], [84.9876916, 27.8055577], [84.9868226, 27.8054865], [84.9860662, 27.8052635], [84.9853796, 27.8048982], [84.9845481, 27.8043809], [84.9833357, 27.8033655], [84.982059, 27.8025683], [84.9812221, 27.8023453], [84.9801278, 27.8023168], [84.9793178, 27.8022077], [84.9784219, 27.8019419], [84.9770915, 27.8015054], [84.9761146, 27.8015517], [84.9749889, 27.8016053], [84.9736918, 27.801855]]}, "properties": {"feature_type": "river_centreline", "source_refs": ["osm-overpass-lhende-khola-trishuli"], "geometry_quality": "osm_centreline", "positional_accuracy_m": 30.0, "aoi_id": "lhende-khola-trishuli", "epsg_for_chainage": 32645, "chainage_km": {"start": 0.0, "end": 100.0}, "osm_way_ids": [335960628, 937405875, 201928141, 809865767, 24624604, 928822514, 119684552, 84953861, 321548891, 343007937, 343007938, 27033466, 915399520, 915399518, 915399519, 1553053155, 185752518, 185752519, 291315938], "osm_timestamp": "2026-09-03T10:15:35Z", "attribution": "© OpenStreetMap contributors", "licence": "ODbL-1.0"}}]}
