{"type": "FeatureCollection", "features": [{"type": "Feature", "geometry": {"type": "Polygon", "coordinates": [[[85.53, 28.27], [85.53, 28.29], [85.51, 28.29], [85.51, 28.27], [85.53, 28.27]]]}, "properties": {"feature_type": "source_zone", "source_refs": ["osm-overpass-lhende-khola-trishuli", "usgs-comcat-us7000tbwb"], "geometry_quality": "hand_digitised_approximate", "positional_accuracy_m": 1000.0, "aoi_id": "lhende-khola-trishuli", "bbox_4326": [85.51, 28.27, 85.53, 28.29], "notes": "Design rectangle (see aoi.json notes); not a mapped scar or deposit."}}]}
