{"type": "FeatureCollection", "features": [{"type": "Feature", "geometry": {"type": "Point", "coordinates": [85.3773874, 28.2782954]}, "properties": {"id": "rasuwagadhi-gyirong", "aoi_id": "lhende-khola-trishuli", "name": "Rasuwagadhi (Nepal-China border, Lhende Khola-Bhote Koshi confluence)", "chainage_km": 16.875, "geometry_quality": "snapped_to_osm_centreline", "positional_accuracy_m": 69.3, "source_refs": ["osm-overpass-lhende-khola-trishuli"], "notes": "Snapped from OSM node 992955542 to the OSM centreline; the feature lies 69 m from the snapped point.", "feature_type": "transect"}}, {"type": "Feature", "geometry": {"type": "Point", "coordinates": [85.3421727, 28.1649858]}, "properties": {"id": "syabrubesi", "aoi_id": "lhende-khola-trishuli", "name": "Syabrubesi (Langtang Khola confluence)", "chainage_km": 31.121, "geometry_quality": "snapped_to_osm_centreline", "positional_accuracy_m": 72.6, "source_refs": ["osm-overpass-lhende-khola-trishuli"], "notes": "Snapped from OSM node 14127413536 to the OSM centreline; the feature lies 73 m from the snapped point.", "feature_type": "transect"}}, {"type": "Feature", "geometry": {"type": "Point", "coordinates": [85.1842725, 27.9723848]}, "properties": {"id": "betrawati", "aoi_id": "lhende-khola-trishuli", "name": "Betrawati", "chainage_km": 62.371, "geometry_quality": "snapped_to_osm_centreline", "positional_accuracy_m": 183.7, "source_refs": ["osm-overpass-lhende-khola-trishuli"], "notes": "Snapped from OSM node 268864226 to the OSM centreline; the feature lies 184 m from the snapped point.", "feature_type": "transect"}}, {"type": "Feature", "geometry": {"type": "Point", "coordinates": [85.0015479, 27.8021246]}, "properties": {"id": "galchhi", "aoi_id": "lhende-khola-trishuli", "name": "Galchhi", "chainage_km": 96.975, "geometry_quality": "snapped_to_osm_centreline", "positional_accuracy_m": 534.9, "source_refs": ["osm-overpass-lhende-khola-trishuli"], "notes": "Snapped from OSM node 279374592 to the OSM centreline; the feature lies 535 m from the snapped point.", "feature_type": "transect"}}]}
