{"type": "FeatureCollection", "features": [{"type": "Feature", "geometry": {"type": "Polygon", "coordinates": [[[79.5721531, 30.5458501], [79.5722129, 30.5456827], [79.5728487, 30.5443934], [79.5736352, 30.543168], [79.5745639, 30.5420195], [79.5763543, 30.540033], [79.5765343, 30.5398371], [79.5804518, 30.5356519], [79.5810223, 30.5350762], [79.5811081, 30.5349944], [79.5811398, 30.53493], [79.581877, 30.5337648], [79.5827427, 30.5326678], [79.5837284, 30.5316495], [79.5848247, 30.5307198], [79.586021, 30.5298877], [79.5863147, 30.5297032], [79.5869437, 30.529061], [79.5879646, 30.5281936], [79.5888686, 30.5275549], [79.589353, 30.5264565], [79.5900788, 30.5252126], [79.5909485, 30.52404], [79.5916444, 30.5232854], [79.5917444, 30.5230983], [79.5924631, 30.5220247], [79.5928881, 30.5214519], [79.5936912, 30.5204845], [79.5937177, 30.5202609], [79.5938926, 30.5192439], [79.5940876, 30.5183278], [79.5943616, 30.5172496], [79.5947576, 30.5159864], [79.5952926, 30.5147622], [79.5959617, 30.5135885], [79.5967586, 30.5124763], [79.5971485, 30.5119866], [79.5976093, 30.5112195], [79.5983879, 30.5101716], [79.5986636, 30.5098357], [79.5987913, 30.5095014], [79.5993963, 30.5081611], [79.5999658, 30.5072115], [79.6001132, 30.5066746], [79.6006236, 30.5053978], [79.6012785, 30.5041716], [79.6020713, 30.5030079], [79.6022963, 30.5027423], [79.6025177, 30.5023176], [79.6032563, 30.5011986], [79.6041145, 30.5001455], [79.6042259, 30.5000332], [79.6044939, 30.4996087], [79.6049651, 30.4989412], [79.6059811, 30.4976708], [79.6065758, 30.4970836], [79.6068023, 30.4967295], [79.6069433, 30.4965312], [79.6069377, 30.4960869], [79.6070465, 30.4948842], [79.6072785, 30.4936947], [79.6076319, 30.4925279], [79.6081039, 30.4913929], [79.6082618, 30.4910606], [79.6089588, 30.4897864], [79.609805, 30.4885819], [79.6107914, 30.4874601], [79.6119071, 30.4864334], [79.6131309, 30.4854187], [79.6144619, 30.4844327], [79.615912, 30.4835819], [79.6170814, 30.4829757], [79.6184555, 30.4823416], [79.6186359, 30.4822774], [79.6194129, 30.4818431], [79.6210697, 30.4811409], [79.6220737, 30.4807774], [79.6234854, 30.4803339], [79.6249397, 30.4800098], [79.625637, 30.4798851], [79.6268716, 30.479715], [79.628261, 30.4793456], [79.6299949, 30.4790647], [79.630821, 30.4789723], [79.6323021, 30.4788684], [79.6337878, 30.4788867], [79.6339184, 30.4788991], [79.6340627, 30.4788875], [79.6358929, 30.4789255], [79.6362791, 30.4789532], [79.6379414, 30.4791507], [79.6393956, 30.479464], [79.6398697, 30.4794076], [79.639896, 30.4793986], [79.6405481, 30.4792089], [79.6421134, 30.4788308], [79.6437155, 30.4785955], [79.6451299, 30.4785172], [79.6454674, 30.4783382], [79.6467622, 30.4777867], [79.6481102, 30.477341], [79.6494999, 30.4770049], [79.6509195, 30.4767812], [79.6511925, 30.4767605], [79.6524505, 30.4765212], [79.653137, 30.4764196], [79.654457, 30.4762738], [79.6557865, 30.4762259], [79.6569845, 30.4762711], [79.6570241, 30.4762635], [79.6585499, 30.4761032], [79.6595645, 30.4760836], [79.6607744, 30.4758269], [79.6622721, 30.4756396], [79.6637837, 30.4755787], [79.665295, 30.4756446], [79.6664508, 30.4757931], [79.6669938, 30.4756639], [79.6683852, 30.4754475], [79.6697476, 30.4752903], [79.6710877, 30.4751863], [79.6724332, 30.4751825], [79.6738635, 30.4752319], [79.6749298, 30.4752158], [79.6751168, 30.475213], [79.6759818, 30.4749329], [79.6775357, 30.4745822], [79.6791229, 30.4743714], [79.6797499, 30.4743165], [79.6816932, 30.4742517], [79.682961, 30.4742778], [79.6832187, 30.4737939], [79.6840563, 30.4725752], [79.6850365, 30.4714391], [79.6856051, 30.4708475], [79.6867353, 30.4697912], [79.6874139, 30.469279], [79.6874345, 30.4692527], [79.6884621, 30.4681949], [79.6896089, 30.4672333], [79.6899101, 30.4670054], [79.6899269, 30.4669899], [79.6901337, 30.466756], [79.6911079, 30.4657579], [79.6920628, 30.4648703], [79.6932522, 30.4638758], [79.6935492, 30.4636754], [79.6939971, 30.4632546], [79.6950867, 30.4624064], [79.6957759, 30.4619634], [79.696556, 30.4612494], [79.6975323, 30.4604496], [79.6987028, 30.4595812], [79.6999664, 30.458817], [79.7013108, 30.4581643], [79.7027229, 30.4576295], [79.7031552, 30.4574873], [79.7042206, 30.4570773], [79.7055489, 30.4566278], [79.7056191, 30.4566102], [79.7059183, 30.4564329], [79.7072732, 30.4557898], [79.7086948, 30.4552658], [79.7101691, 30.454866], [79.7116818, 30.4545943], [79.7129798, 30.4544186], [79.7145389, 30.4542765], [79.7161066, 30.4542706], [79.7165874, 30.4543107], [79.71634, 30.4537355], [79.7161876, 30.4535981], [79.7152744, 30.452603], [79.714473, 30.451538], [79.7137906, 30.4504125], [79.713466, 30.4497278], [79.713368, 30.4495757], [79.7127726, 30.4484017], [79.7123081, 30.4471841], [79.7121618, 30.446629], [79.7121352, 30.4465889], [79.711683, 30.4458551], [79.7105782, 30.4439217], [79.7099631, 30.4426965], [79.7094904, 30.4414248], [79.7091648, 30.4401188], [79.7089893, 30.4387914], [79.7088608, 30.4370709], [79.7088455, 30.4362724], [79.708717, 30.4360114], [79.7082613, 30.4347622], [79.7079471, 30.4334807], [79.7077774, 30.4321788], [79.7077638, 30.4314254], [79.7076865, 30.4310371], [79.7075768, 30.4296672], [79.7075908, 30.4292905], [79.7069964, 30.4282195], [79.7064656, 30.4269546], [79.7060824, 30.4256502], [79.7058507, 30.4243193], [79.7057757, 30.4236717], [79.7056976, 30.4223426], [79.7057706, 30.4210133], [79.7059939, 30.4196966], [79.7063652, 30.4184053], [79.7068811, 30.4171519], [79.7072031, 30.4164765], [79.7078555, 30.415278], [79.7083834, 30.4145126], [79.7084119, 30.4143262], [79.7087684, 30.4130143], [79.7091287, 30.4121052], [79.7091785, 30.4118672], [79.7094611, 30.4107751], [79.7097616, 30.4098036], [79.7102486, 30.4084979], [79.7108857, 30.4072417], [79.7116662, 30.4060478], [79.7125822, 30.4049286], [79.7134453, 30.4040729], [79.7137736, 30.4031271], [79.714343, 30.4019216], [79.7150434, 30.4007691], [79.7158683, 30.3996803], [79.7168102, 30.3986654], [79.717507, 30.398047], [79.718322, 30.3972449], [79.7193616, 30.3963935], [79.7204867, 30.395628], [79.7208944, 30.395376], [79.7206392, 30.3947688], [79.7202948, 30.39367], [79.7201547, 30.393135], [79.7197292, 30.3923371], [79.7191553, 30.3911056], [79.7187234, 30.3898314], [79.7184377, 30.3885266], [79.7183008, 30.3872038], [79.7183142, 30.3858757], [79.7184777, 30.3845551], [79.7187897, 30.3832548], [79.7192471, 30.3819873], [79.7198457, 30.3807648], [79.7205795, 30.379599], [79.7214416, 30.3785012], [79.7224236, 30.3774819], [79.7235162, 30.3765509], [79.7247086, 30.3757173], [79.7259896, 30.3749891], [79.7273467, 30.3743732], [79.7287668, 30.3738755], [79.7302364, 30.373501], [79.7317412, 30.3732531], [79.7332668, 30.3731343], [79.7347985, 30.3731457], [79.7363215, 30.3732873], [79.7378212, 30.3735575], [79.7392831, 30.3739539], [79.7406932, 30.3744726], [79.7420379, 30.3751087], [79.7433042, 30.3758559], [79.74448, 30.3767072], [79.7455539, 30.3776543], [79.7465156, 30.3786881], [79.7473558, 30.3797986], [79.7480664, 30.3809752], [79.7491825, 30.3830666], [79.7497911, 30.3843845], [79.7502371, 30.3857503], [79.7504499, 30.3865619], [79.7505909, 30.3868578], [79.7510168, 30.3878624], [79.7513499, 30.3888931], [79.7517256, 30.3902623], [79.7520175, 30.3906685], [79.7526218, 30.3916951], [79.7531232, 30.3927625], [79.7535363, 30.3937618], [79.7539691, 30.3949892], [79.7542659, 30.3962465], [79.754424, 30.3975226], [79.7544419, 30.3988059], [79.754345, 30.3998181], [79.7543327, 30.4002746], [79.7541605, 30.4015391], [79.7540766, 30.4019773], [79.7537684, 30.4032214], [79.7535481, 30.4038267], [79.753474, 30.4042673], [79.7530881, 30.4055991], [79.7525485, 30.4068902], [79.7518607, 30.4081272], [79.7510318, 30.4092974], [79.750953, 30.4093969], [79.7504787, 30.4101221], [79.7495991, 30.4112047], [79.7486015, 30.4122076], [79.7474957, 30.4131213], [79.7472259, 30.4133041], [79.7467934, 30.4136833], [79.7455753, 30.4145545], [79.7446419, 30.4151561], [79.7433393, 30.4159106], [79.741956, 30.4165482], [79.7417696, 30.4166144], [79.7417476, 30.4166653], [79.7416832, 30.4167948], [79.7410772, 30.4178785], [79.7403624, 30.4189111], [79.7395445, 30.4198846], [79.7390445, 30.4203802], [79.7390312, 30.4203983], [79.7390171, 30.4204786], [79.7387294, 30.4216959], [79.7386852, 30.4219421], [79.7383547, 30.4230422], [79.738538, 30.4238097], [79.7386803, 30.4249984], [79.7388869, 30.4261185], [79.738979, 30.4274489], [79.7389869, 30.4280882], [79.739376, 30.4292779], [79.7396994, 30.4304699], [79.7398295, 30.4312676], [79.7398851, 30.4314265], [79.7402042, 30.4329454], [79.7403215, 30.4344858], [79.7403245, 30.4347732], [79.7408362, 30.4355609], [79.74158, 30.4368652], [79.7420646, 30.4380106], [79.7428509, 30.4389474], [79.7437544, 30.4401537], [79.7445051, 30.4414361], [79.7450945, 30.4427804], [79.7452775, 30.4432755], [79.745629, 30.4436313], [79.7460689, 30.4441214], [79.7470495, 30.4453479], [79.7478683, 30.4466604], [79.7494779, 30.4496198], [79.7501623, 30.4510978], [79.7506416, 30.4526352], [79.7509744, 30.4540225], [79.7511977, 30.4552206], [79.7512962, 30.4564311], [79.7512692, 30.4576445], [79.7512407, 30.4578694], [79.7512652, 30.4580539], [79.7512971, 30.4593032], [79.7511959, 30.4605497], [79.7509624, 30.4617828], [79.7508117, 30.4623989], [79.7508098, 30.4624927], [79.7506547, 30.4637235], [79.7503705, 30.4649368], [79.7501024, 30.4658616], [79.7496567, 30.4671317], [79.7490695, 30.468358], [79.7488756, 30.4686719], [79.7484528, 30.4696383], [79.7482481, 30.4699922], [79.7481178, 30.4703175], [79.7474369, 30.4715803], [79.7466095, 30.4727758], [79.7456446, 30.4738912], [79.7445524, 30.4749147], [79.7442922, 30.475113], [79.7439866, 30.4754476], [79.7429346, 30.4763941], [79.7417817, 30.4772477], [79.7405386, 30.4780005], [79.739217, 30.4786453], [79.7378295, 30.4791761], [79.7378108, 30.4791814], [79.7367192, 30.4798383], [79.7354111, 30.4805453], [79.7340289, 30.4811371], [79.7325861, 30.481608], [79.7310967, 30.4819535], [79.7295752, 30.4821701], [79.72858, 30.4822684], [79.7279145, 30.4823866], [79.726553, 30.4826976], [79.7246936, 30.4830192], [79.7228029, 30.4831434], [79.7213757, 30.4831619], [79.7198176, 30.4831147], [79.7182726, 30.4829332], [79.7167562, 30.4826193], [79.7163135, 30.4824861], [79.7161668, 30.4825998], [79.715511, 30.4832188], [79.7144351, 30.4840619], [79.7137503, 30.4845059], [79.7132379, 30.4850287], [79.7121543, 30.4860274], [79.711854, 30.4862782], [79.7115559, 30.4866484], [79.7110184, 30.4872332], [79.7106864, 30.4879476], [79.7099963, 30.4890996], [79.7091819, 30.4901891], [79.708431, 30.4910953], [79.7074523, 30.492159], [79.7070289, 30.4925347], [79.7069312, 30.4926798], [79.7061379, 30.4936512], [79.7052492, 30.4945585], [79.7042718, 30.4953947], [79.7036126, 30.4959111], [79.7032083, 30.4962536], [79.7021619, 30.4970636], [79.7010359, 30.497789], [79.6999307, 30.4984362], [79.6995069, 30.4986759], [79.6985675, 30.4991884], [79.6972737, 30.499822], [79.6959162, 30.5003463], [79.6945072, 30.5007565], [79.6930597, 30.501049], [79.6915866, 30.501221], [79.6915666, 30.5012217], [79.6906722, 30.5014201], [79.6890287, 30.5016272], [79.6873692, 30.501682], [79.6869144, 30.5016551], [79.6865861, 30.5017109], [79.6850856, 30.5018374], [79.6835779, 30.5018381], [79.6833289, 30.5018174], [79.6827541, 30.5019994], [79.6811223, 30.5023496], [79.6794566, 30.5025461], [79.6788233, 30.5025909], [79.6773396, 30.5026346], [79.6758578, 30.5025561], [79.6743912, 30.5023563], [79.674072, 30.5022993], [79.6739604, 30.5023009], [79.6737238, 30.5022986], [79.6719052, 30.5028062], [79.670174, 30.5031962], [79.6684027, 30.5034123], [79.6666144, 30.5034517], [79.6654534, 30.5034197], [79.6646916, 30.5033826], [79.6640929, 30.5033406], [79.6635677, 30.5032801], [79.6634056, 30.5033044], [79.6619942, 30.5034037], [79.6605783, 30.5033919], [79.6605089, 30.5033859], [79.6600519, 30.5034486], [79.6586279, 30.5035298], [79.6581819, 30.5035199], [79.6579987, 30.5036001], [79.6567746, 30.5040278], [79.6555131, 30.5043646], [79.6542553, 30.5046506], [79.6526404, 30.5050752], [79.6511145, 30.5054048], [79.649558, 30.5055999], [79.6485322, 30.5056382], [79.6470473, 30.5059974], [79.6461402, 30.5061257], [79.6459204, 30.5062201], [79.6444963, 30.5066884], [79.6439705, 30.5068363], [79.6424606, 30.5071898], [79.6409175, 30.5074109], [79.6393565, 30.5074973], [79.6377934, 30.5074481], [79.6372998, 30.5074111], [79.6365339, 30.5073234], [79.6358086, 30.5082558], [79.6349177, 30.5092037], [79.6341757, 30.5098617], [79.63417, 30.5098691], [79.6340939, 30.5100402], [79.6335094, 30.5111916], [79.6328039, 30.512291], [79.6319836, 30.513329], [79.631432, 30.513904], [79.6311059, 30.5144434], [79.6301891, 30.515634], [79.6300647, 30.5157635], [79.6297849, 30.5165574], [79.6293464, 30.5176003], [79.6287366, 30.5188512], [79.627985, 30.5200429], [79.6270994, 30.5211634], [79.6270162, 30.5212487], [79.6265041, 30.5222207], [79.6258264, 30.5233608], [79.6250317, 30.5244339], [79.624984, 30.5256838], [79.6247928, 30.5269649], [79.6246374, 30.5277201], [79.6243166, 30.528946], [79.6238659, 30.5301409], [79.623289, 30.5312944], [79.6225909, 30.5323966], [79.6216444, 30.5337391], [79.6208116, 30.5348032], [79.6198659, 30.535794], [79.6193736, 30.5362626], [79.6191157, 30.5367231], [79.6183063, 30.5378646], [79.6180194, 30.5382276], [79.6179055, 30.5385739], [79.6173585, 30.5397823], [79.6166802, 30.5409399], [79.6151197, 30.5433136], [79.6142688, 30.5444677], [79.6132876, 30.5455415], [79.6121861, 30.5465239], [79.6109755, 30.547405], [79.6096682, 30.5481757], [79.6088676, 30.5485981], [79.6086694, 30.5487997], [79.6077215, 30.5495964], [79.6071258, 30.5503612], [79.6061734, 30.5513619], [79.6059673, 30.5515585], [79.6048818, 30.5525941], [79.604474, 30.552983], [79.6009837, 30.5567127], [79.6004846, 30.5577008], [79.5996312, 30.5589857], [79.5985858, 30.5603772], [79.5979049, 30.5614833], [79.5970587, 30.5626993], [79.59607, 30.5638319], [79.5949496, 30.5648686], [79.5937098, 30.565798], [79.5931306, 30.5661476], [79.592804, 30.5664453], [79.5920889, 30.5675806], [79.5911714, 30.5687346], [79.5901209, 30.5698004], [79.5889487, 30.5707664], [79.5886382, 30.570997], [79.5882398, 30.5712626], [79.5882395, 30.5712628], [79.5870076, 30.5722072], [79.5856677, 30.5730343], [79.5843546, 30.5736764], [79.5831459, 30.5743258], [79.581769, 30.5749124], [79.5803321, 30.5753793], [79.5788493, 30.5757221], [79.5773348, 30.5759376], [79.5758032, 30.5760235], [79.5742692, 30.575979], [79.5727477, 30.5758047], [79.5712532, 30.5755022], [79.5698002, 30.5750743], [79.5684027, 30.5745253], [79.5670741, 30.5738604], [79.5658273, 30.573086], [79.5646742, 30.5722095], [79.563626, 30.5712395], [79.5626927, 30.5701852], [79.5618834, 30.5690569], [79.5612057, 30.5678653], [79.5606664, 30.566622], [79.5602704, 30.565339], [79.5600217, 30.5640285], [79.5599227, 30.5627032], [79.5599742, 30.561376], [79.5601758, 30.5600595], [79.5605256, 30.5587664], [79.5610201, 30.5575092], [79.5616545, 30.5563], [79.5624229, 30.5551505], [79.5633178, 30.5540716], [79.5643305, 30.5530739], [79.5654513, 30.5521668], [79.5661328, 30.551715], [79.5664237, 30.5512793], [79.5673274, 30.5501907], [79.5683512, 30.5491849], [79.5694848, 30.5482716], [79.5695146, 30.548252], [79.5695441, 30.5482248], [79.5695716, 30.5481892], [79.5705217, 30.5471844], [79.5715785, 30.5462631], [79.5721531, 30.5458501]]]}, "properties": {"feature_type": "corridor", "source_refs": ["osm-overpass-chamoli-rishiganga"], "geometry_quality": "osm_centreline", "positional_accuracy_m": 30.0, "aoi_id": "chamoli-rishiganga", "buffer_m": 1500.0, "buffer_epsg": 32644}}]}
