{"type": "FeatureCollection", "features": [{"type": "Feature", "geometry": {"type": "Point", "coordinates": [79.699, 30.478]}, "properties": {"id": "rishiganga-hep", "aoi_id": "chamoli-rishiganga", "name": "Rishi Ganga Hydropower Project", "asset_type": "hydropower_plant", "status": "damaged", "capacity_mw": {"low": 13.2, "high": 13.2, "best": 13.2, "unit": "MW", "source_refs": ["icimod-2021-chamoli-flood"], "disputed": false, "estimates": []}, "transect_id": "raini", "geometry_quality": "source_stated_location", "source_refs": ["icimod-2021-chamoli-flood", "shugar-2021-abstract-europepmc"], "notes": "Location: coordinates stated in ICIMOD Table 1 (30.478 N, 79.699 E); no OSM feature; 0.0 km from the centreline. Operational before 7 Feb 2021 (ICIMOD); 'substantial damage' (ICIMOD) / 'severely damaging' (Shugar et al.) after the event.", "feature_type": "exposed_asset", "positional_accuracy_m": 500.0}}, {"type": "Feature", "geometry": {"type": "Point", "coordinates": [79.6295066, 30.4927932]}, "properties": {"id": "tapovan-vishnugad-hep", "aoi_id": "chamoli-rishiganga", "name": "Tapovan Vishnugad Hydropower Project", "asset_type": "hydropower_plant", "status": "destroyed", "capacity_mw": {"low": 520.0, "high": 520.0, "best": 520.0, "unit": "MW", "source_refs": ["icimod-2021-chamoli-flood"], "disputed": false, "estimates": []}, "transect_id": "tapovan", "geometry_quality": "osm_way_centroid", "source_refs": ["icimod-2021-chamoli-flood", "shugar-2021-abstract-europepmc", "osm-overpass-chamoli-rishiganga"], "notes": "Location: centroid of OSM way 683265980; 0.1 km from the centreline. Under construction before 7 Feb 2021 (ICIMOD); 'swept away' (ICIMOD). Geometry is the OSM way tagged 'Tapovan Vishnugad Hydropower Plant (Destroyed)'; ICIMOD states 30.493 N, 79.628 E, 0.3 km from the OSM centroid.", "feature_type": "exposed_asset", "positional_accuracy_m": 200.0}}]}
