{"type": "FeatureCollection", "features": [{"type": "Feature", "geometry": {"type": "LineString", "coordinates": [[79.7338986, 30.3866569], [79.7350144, 30.3887485], [79.7355187, 30.3906735], [79.7361624, 30.3920247], [79.736731, 30.3940977], [79.737246, 30.3955413], [79.7380614, 30.3968647], [79.7384262, 30.3973274], [79.7388392, 30.3983268], [79.7388028, 30.3985675], [79.7387481, 30.3989283], [79.7387588, 30.3993216], [79.7386748, 30.3997598], [79.7382975, 30.3999647], [79.7380829, 30.4004367], [79.7381902, 30.4013435], [79.738158, 30.4016397], [79.7378576, 30.4020191], [79.7376001, 30.4021116], [79.7374499, 30.4025187], [79.7373319, 30.402602], [79.7372889, 30.4028796], [79.7368812, 30.4030369], [79.7366023, 30.4033608], [79.736259, 30.4036939], [79.7353256, 30.4042954], [79.7349393, 30.4043417], [79.7343278, 30.4043972], [79.7340917, 30.404499], [79.7337913, 30.4049616], [79.7332549, 30.4050264], [79.7328257, 30.4053133], [79.7318065, 30.4056371], [79.7312164, 30.4060628], [79.7301221, 30.4062941], [79.7295535, 30.4066457], [79.7294032, 30.4070529], [79.7288346, 30.40746], [79.7284913, 30.4076451], [79.7282016, 30.4086536], [79.7281051, 30.4092458], [79.7281909, 30.4095142], [79.7277832, 30.4102914], [79.7273433, 30.4108558], [79.7273219, 30.4110594], [79.7274077, 30.4113092], [79.7273433, 30.4114387], [79.726721, 30.4119106], [79.7262061, 30.4126878], [79.7251975, 30.4131412], [79.7248435, 30.4133078], [79.7245431, 30.4142793], [79.7242319, 30.4157689], [79.7237706, 30.4167681], [79.7237813, 30.4172863], [79.7235775, 30.418452], [79.7233415, 30.4187111], [79.7233951, 30.4191922], [79.7228372, 30.420728], [79.7226763, 30.4210148], [79.7222042, 30.4211073], [79.7219682, 30.4215236], [79.7216356, 30.4216439], [79.7213137, 30.4223193], [79.7213888, 30.4229669], [79.7217643, 30.4233555], [79.722408, 30.4244471], [79.7229338, 30.4257238], [79.7231054, 30.4258811], [79.7229874, 30.4260476], [79.7233629, 30.4275926], [79.7233736, 30.4284714], [79.7233844, 30.4291005], [79.7231913, 30.4294151], [79.7233844, 30.4297851], [79.7234809, 30.4310062], [79.7233629, 30.4313115], [79.7238994, 30.431589], [79.72435, 30.4329674], [79.7242856, 30.4336149], [79.724704, 30.4346047], [79.7247147, 30.4356685], [79.7244465, 30.4361958], [79.7245753, 30.4379163], [79.7256803, 30.4398496], [79.7266245, 30.4412741], [79.7272253, 30.4421991], [79.727354, 30.4435495], [79.7279656, 30.444123], [79.7279441, 30.4446872], [79.728899, 30.4453347], [79.7302186, 30.4469071], [79.7312164, 30.4496078], [79.7321713, 30.450838], [79.7324717, 30.4516796], [79.7328257, 30.4518738], [79.7332978, 30.4519386], [79.7337377, 30.4524288], [79.735347, 30.4553883], [79.7356796, 30.4567756], [79.7354221, 30.4576727], [79.7353899, 30.4584403], [79.7356796, 30.4589767], [79.7354329, 30.4599847], [79.7350144, 30.4608171], [79.7352183, 30.4616401], [79.7349501, 30.4625649], [79.7340703, 30.4635914], [79.7341776, 30.4639428], [79.7341454, 30.4642018], [79.7337806, 30.4645624], [79.7336411, 30.4652283], [79.7330618, 30.4656259], [79.7327292, 30.4657369], [79.7323322, 30.466375], [79.7322186, 30.4665454], [79.7309911, 30.4665229], [79.7296822, 30.4675679], [79.7289419, 30.4680395], [79.7278047, 30.4687238], [79.7261202, 30.4688902], [79.72435, 30.4692047], [79.722569, 30.4696115], [79.721142, 30.46963], [79.7197366, 30.4688255], [79.7177624, 30.4688163], [79.7171938, 30.4687423], [79.7153914, 30.4677898], [79.7140932, 30.4679655], [79.7130847, 30.468955], [79.7115934, 30.4693156], [79.7105634, 30.4694451], [79.7094583, 30.4698704], [79.7090781, 30.4700153], [79.7082674, 30.4702819], [79.7072911, 30.4710818], [79.7062611, 30.472136], [79.7049737, 30.472885], [79.7045016, 30.4736155], [79.7034931, 30.4740963], [79.7025382, 30.474984], [79.7018516, 30.4757607], [79.700768, 30.4767593], [79.6998882, 30.4774251], [79.6993303, 30.4782202], [79.6986759, 30.4789322], [79.6976137, 30.4795055], [79.6970451, 30.4800972], [79.69697, 30.4810958], [79.6964872, 30.4822978], [79.6957362, 30.4832039], [79.6944916, 30.4840175], [79.694159, 30.4847479], [79.693959, 30.4850778], [79.6937889, 30.4853582], [79.6929037, 30.4860516], [79.6922815, 30.4865786], [79.6911764, 30.4872258], [79.6902371, 30.4877383], [79.6900177, 30.4875863], [79.6893954, 30.4874754], [79.6876037, 30.4881503], [79.6859407, 30.4879747], [79.6843229, 30.4883203], [79.6826363, 30.4878082], [79.6813214, 30.4877811], [79.6806943, 30.487836], [79.678184, 30.4890578], [79.6775508, 30.4891026], [79.6755338, 30.488742], [79.6752, 30.488747], [79.6736884, 30.4887698], [79.6718109, 30.488705], [79.6704483, 30.4888622], [79.6689999, 30.4893984], [79.6671116, 30.4899254], [79.6659507, 30.4898934], [79.6653521, 30.4898515], [79.6644401, 30.4894262], [79.6637535, 30.4891118], [79.6630347, 30.4892967], [79.6614361, 30.4898792], [79.6604168, 30.4897498], [79.6596658, 30.4896018], [79.6590543, 30.4898052], [79.658314, 30.4899994], [79.6575679, 30.4898934], [79.6557712, 30.489759], [79.6550846, 30.4898607], [79.6537757, 30.4901658], [79.6530032, 30.4901935], [79.6527564, 30.4903692], [79.6524024, 30.4908592], [79.6515441, 30.4912752], [79.6499991, 30.4916265], [79.6481001, 30.4921258], [79.6466195, 30.4921165], [79.6459544, 30.4921535], [79.6455229, 30.4920378], [79.6448707, 30.4922275], [79.6442914, 30.4924586], [79.6436798, 30.4927822], [79.6429825, 30.4928469], [79.6416148, 30.4928458], [79.6404826, 30.4933276], [79.6396672, 30.4938176], [79.6391415, 30.4939655], [79.638648, 30.4939285], [79.6372747, 30.4934848], [79.6366846, 30.4933276], [79.6360516, 30.4930965], [79.6349895, 30.4924401], [79.6346033, 30.4924124], [79.634026, 30.4924889], [79.6337664, 30.4925233], [79.6328223, 30.4923939], [79.6319961, 30.4924863], [79.6311593, 30.4927544], [79.630655, 30.4930225], [79.6299898, 30.4934718], [79.6297163, 30.4935125], [79.628799, 30.4931381], [79.6281016, 30.4932629], [79.6270975, 30.4936265], [79.6258225, 30.4944354], [79.6251074, 30.4945872], [79.6239379, 30.4951935], [79.6227141, 30.4962083], [79.6225563, 30.4965406], [79.6225805, 30.4969164], [79.623671, 30.4994622], [79.623254, 30.5001959], [79.6222847, 30.5009811], [79.6221377, 30.5011001], [79.6209559, 30.502635], [79.6201107, 30.503824], [79.6195094, 30.5051753], [79.6190259, 30.5054904], [79.6183006, 30.5059978], [79.6178295, 30.5066654], [79.6178481, 30.5071888], [79.6176615, 30.5075416], [79.6164409, 30.5084652], [79.6161558, 30.5090901], [79.6158954, 30.5097737], [79.6155607, 30.5099873], [79.6154491, 30.5102223], [79.6151197, 30.5104569], [79.6151304, 30.5110208], [79.6150982, 30.5119266], [79.6146595, 30.5129694], [79.6136309, 30.5137499], [79.6132204, 30.514825], [79.6122829, 30.516604], [79.61113, 30.5180092], [79.6107056, 30.5188032], [79.6096275, 30.5201573], [79.6093536, 30.5212355], [79.6091789, 30.5222525], [79.6093878, 30.5236881], [79.609403, 30.5245909], [79.6092475, 30.5253461], [79.6083009, 30.5266885], [79.607019, 30.5279085], [79.6060402, 30.5287661], [79.6056152, 30.5293389], [79.6054039, 30.5302228], [79.6043346, 30.5315755], [79.6036513, 30.5319273], [79.6033716, 30.5326752], [79.6033072, 30.5334515], [79.6030926, 30.5342462], [79.6015318, 30.5366198], [79.5983934, 30.5382752], [79.5972562, 30.5395504], [79.5952042, 30.5408397], [79.5950858, 30.5411173], [79.5945954, 30.5422671], [79.5943885, 30.5424644], [79.5933021, 30.5435007], [79.5925998, 30.5441706], [79.5886824, 30.5483561], [79.5868921, 30.5503428], [79.5865219, 30.5516089], [79.5851057, 30.5534937], [79.5841048, 30.555119], [79.5831423, 30.5556371], [79.5826488, 30.5560806], [79.5821339, 30.5562469], [79.5819354, 30.5567178], [79.5813077, 30.5571523], [79.5806855, 30.5577251], [79.579972, 30.5585471], [79.5795589, 30.5586213], [79.5790547, 30.5594712], [79.5787643, 30.5604969], [79.5784539, 30.5607274], [79.5780194, 30.5608382], [79.5777726, 30.5611896], [79.5772683, 30.5616192], [79.5763778, 30.5620026], [79.5755586, 30.5624925]]}, "properties": {"feature_type": "river_centreline", "source_refs": ["osm-overpass-chamoli-rishiganga"], "geometry_quality": "osm_centreline", "positional_accuracy_m": 30.0, "aoi_id": "chamoli-rishiganga", "epsg_for_chainage": 32644, "chainage_km": {"start": 0.0, "end": 31.602}, "osm_way_ids": [905111471, 682961414, 1074462194, 297368686], "osm_timestamp": "2026-09-03T10:20:36Z", "attribution": "© OpenStreetMap contributors", "licence": "ODbL-1.0"}}]}
