{"type": "FeatureCollection", "features": [{"type": "Feature", "geometry": {"type": "Polygon", "coordinates": [[[79.8, 30.33], [79.8, 30.42], [79.68, 30.42], [79.68, 30.33], [79.8, 30.33]]]}, "properties": {"feature_type": "source_zone", "source_refs": ["osm-overpass-chamoli-rishiganga", "shugar-2021-abstract-europepmc"], "geometry_quality": "hand_digitised_approximate", "positional_accuracy_m": 1000.0, "aoi_id": "chamoli-rishiganga", "bbox_4326": [79.68, 30.33, 79.8, 30.42], "notes": "Design rectangle (see aoi.json notes); not a mapped scar or deposit."}}]}
