{"type": "FeatureCollection", "features": [{"type": "Feature", "geometry": {"type": "Point", "coordinates": [79.6924561, 30.4864307]}, "properties": {"id": "raini", "aoi_id": "chamoli-rishiganga", "name": "Raini (Reni) village, Rishiganga-Dhauliganga confluence", "chainage_km": 15.291, "geometry_quality": "snapped_to_osm_centreline", "positional_accuracy_m": 187.5, "source_refs": ["osm-overpass-chamoli-rishiganga"], "notes": "Snapped from OSM node 7833070518 to the OSM centreline; the feature lies 187 m from the snapped point.", "feature_type": "transect"}}, {"type": "Feature", "geometry": {"type": "Point", "coordinates": [79.6292244, 30.4933117]}, "properties": {"id": "tapovan", "aoi_id": "chamoli-rishiganga", "name": "Tapovan (Tapovan Vishnugad barrage site)", "chainage_km": 21.756, "geometry_quality": "snapped_to_osm_centreline", "positional_accuracy_m": 63.5, "source_refs": ["osm-overpass-chamoli-rishiganga"], "notes": "Snapped from OSM way 683265980 to the OSM centreline; the feature lies 64 m from the snapped point. No OSM place node for Tapovan; snapped from the plant polygon instead.", "feature_type": "transect"}}]}
