{"type":"FeatureCollection","metadata":{"generated":1788428708000,"url":"https://earthquake.usgs.gov/fdsnws/event/1/query?format=geojson&eventtype=landslide&starttime=2000-01-01&endtime=2026-09-03&orderby=time-asc&limit=20000","title":"USGS Earthquakes","status":200,"api":"2.7.0","limit":20000,"offset":1},"features":[{"type":"Feature","properties":{"mag":null,"place":"14 km NE of Mount Shasta, California","time":1308924893200,"updated":1485278048720,"tz":null,"url":"https://earthquake.usgs.gov/earthquakes/eventpage/nc71591175","detail":"https://earthquake.usgs.gov/fdsnws/event/1/query?eventid=nc71591175&format=geojson","felt":null,"cdi":null,"mmi":null,"alert":null,"status":"reviewed","tsunami":0,"sig":0,"net":"nc","code":"71591175","ids":",nc71591175,","sources":",nc,","types":",nearby-cities,origin,phase-data,","nst":4,"dmin":0.05856,"rms":1.25,"gap":153,"magType":null,"type":"landslide","title":"M ? Landslide - 14 km NE of Mount Shasta, California"},"geometry":{"type":"Point","coordinates":[-122.1733333,41.3915,-1.595]},"id":"nc71591175"},
{"type":"Feature","properties":{"mag":null,"place":"7 km NNE of Mount Shasta, California","time":1319363811770,"updated":1485342943327,"tz":null,"url":"https://earthquake.usgs.gov/earthquakes/eventpage/nc71670391","detail":"https://earthquake.usgs.gov/fdsnws/event/1/query?eventid=nc71670391&format=geojson","felt":null,"cdi":null,"mmi":null,"alert":null,"status":"reviewed","tsunami":0,"sig":0,"net":"nc","code":"71670391","ids":",nc71670391,","sources":",nc,","types":",nearby-cities,origin,phase-data,","nst":4,"dmin":0.08198,"rms":0.01,"gap":243,"magType":null,"type":"landslide","title":"M ? Landslide - 7 km NNE of Mount Shasta, California"},"geometry":{"type":"Point","coordinates":[-122.2811667,41.376,8.395]},"id":"nc71670391"},
{"type":"Feature","properties":{"mag":-0.09,"place":"13 km NE of Mount Shasta, California","time":1326264602860,"updated":1485462479731,"tz":null,"url":"https://earthquake.usgs.gov/earthquakes/eventpage/nc71716236","detail":"https://earthquake.usgs.gov/fdsnws/event/1/query?eventid=nc71716236&format=geojson","felt":null,"cdi":null,"mmi":null,"alert":null,"status":"reviewed","tsunami":0,"sig":0,"net":"nc","code":"71716236","ids":",nc71716236,","sources":",nc,","types":",nearby-cities,origin,phase-data,","nst":4,"dmin":0.07027,"rms":0.02,"gap":141,"magType":"md","type":"landslide","title":"M -0.1 Landslide - 13 km NE of Mount Shasta, California"},"geometry":{"type":"Point","coordinates":[-122.2085,41.4021667,-1.608]},"id":"nc71716236"},
{"type":"Feature","properties":{"mag":null,"place":"24 km E of McCloud, California","time":1337483247160,"updated":1485550149982,"tz":null,"url":"https://earthquake.usgs.gov/earthquakes/eventpage/nc71789591","detail":"https://earthquake.usgs.gov/fdsnws/event/1/query?eventid=nc71789591&format=geojson","felt":null,"cdi":null,"mmi":null,"alert":null,"status":"reviewed","tsunami":0,"sig":0,"net":"nc","code":"71789591","ids":",nc71789591,","sources":",nc,","types":",nearby-cities,origin,phase-data,","nst":3,"dmin":0.264,"rms":0.22,"gap":330,"magType":null,"type":"landslide","title":"M ? Landslide - 24 km E of McCloud, California"},"geometry":{"type":"Point","coordinates":[-121.845,41.28,-1.775]},"id":"nc71789591"},
{"type":"Feature","properties":{"mag":0.54,"place":"1 km NNE of Dunsmuir, California","time":1338402384020,"updated":1485556365365,"tz":null,"url":"https://earthquake.usgs.gov/earthquakes/eventpage/nc71796701","detail":"https://earthquake.usgs.gov/fdsnws/event/1/query?eventid=nc71796701&format=geojson","felt":null,"cdi":null,"mmi":null,"alert":null,"status":"reviewed","tsunami":0,"sig":4,"net":"nc","code":"71796701","ids":",nc71796701,","sources":",nc,","types":",nearby-cities,origin,phase-data,","nst":5,"dmin":0.1225,"rms":1.02,"gap":298,"magType":"md","type":"landslide","title":"M 0.5 Landslide - 1 km NNE of Dunsmuir, California"},"geometry":{"type":"Point","coordinates":[-122.2668333,41.2195,-1.666]},"id":"nc71796701"},
{"type":"Feature","properties":{"mag":null,"place":"12 km ESE of Carrick, California","time":1338932881050,"updated":1485560107086,"tz":null,"url":"https://earthquake.usgs.gov/earthquakes/eventpage/nc71798001","detail":"https://earthquake.usgs.gov/fdsnws/event/1/query?eventid=nc71798001&format=geojson","felt":null,"cdi":null,"mmi":null,"alert":null,"status":"reviewed","tsunami":0,"sig":0,"net":"nc","code":"71798001","ids":",nc71798001,","sources":",nc,","types":",nearby-cities,origin,phase-data,","nst":4,"dmin":0.07928,"rms":0.07,"gap":160,"magType":null,"type":"landslide","title":"M ? Landslide - 12 km ESE of Carrick, California"},"geometry":{"type":"Point","coordinates":[-122.2196667,41.4095,-1.627]},"id":"nc71798001"},
{"type":"Feature","properties":{"mag":null,"place":"14 km E of Carrick, California","time":1346827181470,"updated":1485604189999,"tz":null,"url":"https://earthquake.usgs.gov/earthquakes/eventpage/nc71838340","detail":"https://earthquake.usgs.gov/fdsnws/event/1/query?eventid=nc71838340&format=geojson","felt":null,"cdi":null,"mmi":null,"alert":null,"status":"reviewed","tsunami":0,"sig":0,"net":"nc","code":"71838340","ids":",nc71838340,","sources":",nc,","types":",nearby-cities,origin,phase-data,","nst":5,"dmin":0.05315,"rms":0.26,"gap":143,"magType":null,"type":"landslide","title":"M ? Landslide - 14 km E of Carrick, California"},"geometry":{"type":"Point","coordinates":[-122.195,41.4448333,-1.678]},"id":"nc71838340"},
{"type":"Feature","properties":{"mag":0.67,"place":"12 km NE of Mount Shasta, California","time":1352294295720,"updated":1485640198345,"tz":null,"url":"https://earthquake.usgs.gov/earthquakes/eventpage/nc71878840","detail":"https://earthquake.usgs.gov/fdsnws/event/1/query?eventid=nc71878840&format=geojson","felt":null,"cdi":null,"mmi":null,"alert":null,"status":"reviewed","tsunami":0,"sig":7,"net":"nc","code":"71878840","ids":",nc71878840,","sources":",nc,","types":",nearby-cities,origin,phase-data,","nst":8,"dmin":0.04775,"rms":0.88,"gap":115,"magType":"md","type":"landslide","title":"M 0.7 Landslide - 12 km NE of Mount Shasta, California"},"geometry":{"type":"Point","coordinates":[-122.1991667,41.381,-1.497]},"id":"nc71878840"},
{"type":"Feature","properties":{"mag":null,"place":"14 km E of McCloud, California","time":1374037462570,"updated":1485923478042,"tz":null,"url":"https://earthquake.usgs.gov/earthquakes/eventpage/nc72029580","detail":"https://earthquake.usgs.gov/fdsnws/event/1/query?eventid=nc72029580&format=geojson","felt":null,"cdi":null,"mmi":null,"alert":null,"status":"reviewed","tsunami":0,"sig":0,"net":"nc","code":"72029580","ids":",nc72029580,","sources":",nc,","types":",nearby-cities,origin,phase-data,","nst":3,"dmin":0.1946,"rms":0.15,"gap":331,"magType":null,"type":"landslide","title":"M ? Landslide - 14 km E of McCloud, California"},"geometry":{"type":"Point","coordinates":[-121.9693333,41.2305,-1.775]},"id":"nc72029580"},
{"type":"Feature","properties":{"mag":-0.16,"place":"6 km NNE of McCloud, California","time":1380245246470,"updated":1485961112113,"tz":null,"url":"https://earthquake.usgs.gov/earthquakes/eventpage/nc72077511","detail":"https://earthquake.usgs.gov/fdsnws/event/1/query?eventid=nc72077511&format=geojson","felt":null,"cdi":null,"mmi":null,"alert":null,"status":"reviewed","tsunami":0,"sig":0,"net":"nc","code":"72077511","ids":",nc72077511,","sources":",nc,","types":",nearby-cities,origin,phase-data,scitech-link,","nst":4,"dmin":0.04234,"rms":0.75,"gap":191,"magType":"md","type":"landslide","title":"M -0.2 Landslide - 6 km NNE of McCloud, California"},"geometry":{"type":"Point","coordinates":[-122.1196667,41.3161667,-1.595]},"id":"nc72077511"},
{"type":"Feature","properties":{"mag":0.93,"place":"7 km NNE of McCloud, California","time":1384486311030,"updated":1485991078024,"tz":null,"url":"https://earthquake.usgs.gov/earthquakes/eventpage/nc72108101","detail":"https://earthquake.usgs.gov/fdsnws/event/1/query?eventid=nc72108101&format=geojson","felt":null,"cdi":null,"mmi":null,"alert":null,"status":"reviewed","tsunami":0,"sig":13,"net":"nc","code":"72108101","ids":",nc72108101,","sources":",nc,","types":",cap,nearby-cities,origin,phase-data,","nst":6,"dmin":0.04955,"rms":0.67,"gap":110,"magType":"md","type":"landslide","title":"M 0.9 Landslide - 7 km NNE of McCloud, California"},"geometry":{"type":"Point","coordinates":[-122.1105,41.3225,-1.666]},"id":"nc72108101"},
{"type":"Feature","properties":{"mag":null,"place":"8 km NE of McCloud, California","time":1386266974590,"updated":1486001507394,"tz":null,"url":"https://earthquake.usgs.gov/earthquakes/eventpage/nc72116130","detail":"https://earthquake.usgs.gov/fdsnws/event/1/query?eventid=nc72116130&format=geojson","felt":null,"cdi":null,"mmi":null,"alert":null,"status":"reviewed","tsunami":0,"sig":0,"net":"nc","code":"72116130","ids":",nc72116130,","sources":",nc,","types":",nearby-cities,origin,phase-data,","nst":6,"dmin":0.05405,"rms":0.34,"gap":256,"magType":null,"type":"landslide","title":"M ? Landslide - 8 km NE of McCloud, California"},"geometry":{"type":"Point","coordinates":[-122.0626667,41.3051667,-1.497]},"id":"nc72116130"},
{"type":"Feature","properties":{"mag":2.8,"place":"12 km SE of Collbran, Colorado","time":1401061425000,"updated":1587058193100,"tz":null,"url":"https://earthquake.usgs.gov/earthquakes/eventpage/usb000r40g","detail":"https://earthquake.usgs.gov/fdsnws/event/1/query?eventid=usb000r40g&format=geojson","felt":null,"cdi":null,"mmi":null,"alert":null,"status":"reviewed","tsunami":0,"sig":121,"net":"us","code":"b000r40g","ids":",usb000r40g,","sources":",us,","types":",cap,origin,phase-data,","nst":null,"dmin":null,"rms":1.22,"gap":null,"magType":"ms_20","type":"landslide","title":"M 2.8 Landslide - 12 km SE of Collbran, Colorado"},"geometry":{"type":"Point","coordinates":[-107.848,39.165,0]},"id":"usb000r40g"},
{"type":"Feature","properties":{"mag":1.75,"place":"7 km ENE of Mount Shasta, California","time":1427764816240,"updated":1486471955183,"tz":null,"url":"https://earthquake.usgs.gov/earthquakes/eventpage/nc72424086","detail":"https://earthquake.usgs.gov/fdsnws/event/1/query?eventid=nc72424086&format=geojson","felt":null,"cdi":null,"mmi":null,"alert":null,"status":"reviewed","tsunami":0,"sig":47,"net":"nc","code":"72424086","ids":",nc72424086,","sources":",nc,","types":",cap,nearby-cities,origin,phase-data,","nst":6,"dmin":0.03514,"rms":0.1,"gap":178,"magType":"md","type":"landslide","title":"M 1.8 Landslide - 7 km ENE of Mount Shasta, California"},"geometry":{"type":"Point","coordinates":[-122.2341667,41.3356667,-1.487]},"id":"nc72424086"},
{"type":"Feature","properties":{"mag":0.08,"place":"13 km N of McCloud, California","time":1434455172870,"updated":1486514091167,"tz":null,"url":"https://earthquake.usgs.gov/earthquakes/eventpage/nc72468836","detail":"https://earthquake.usgs.gov/fdsnws/event/1/query?eventid=nc72468836&format=geojson","felt":null,"cdi":null,"mmi":null,"alert":null,"status":"reviewed","tsunami":0,"sig":0,"net":"nc","code":"72468836","ids":",nc72468836,","sources":",nc,","types":",nearby-cities,origin,phase-data,","nst":6,"dmin":0.04144,"rms":0.21,"gap":133,"magType":"md","type":"landslide","title":"M 0.1 Landslide - 13 km N of McCloud, California"},"geometry":{"type":"Point","coordinates":[-122.1673333,41.373,-1.497]},"id":"nc72468836"},
{"type":"Feature","properties":{"mag":4.2,"place":"108 km N of Uummannaq, Greenland","time":1497742752000,"updated":1587058166823,"tz":null,"url":"https://earthquake.usgs.gov/earthquakes/eventpage/us20009nlg","detail":"https://earthquake.usgs.gov/fdsnws/event/1/query?eventid=us20009nlg&format=geojson","felt":1,"cdi":2,"mmi":null,"alert":null,"status":"reviewed","tsunami":0,"sig":272,"net":"us","code":"20009nlg","ids":",us20009nlg,","sources":",us,","types":",dyfi,general-header,general-link,impact-text,origin,phase-data,","nst":null,"dmin":null,"rms":0.41,"gap":null,"magType":"ms_20","type":"landslide","title":"M 4.2 Landslide - 108 km N of Uummannaq, Greenland"},"geometry":{"type":"Point","coordinates":[-52.344,71.64,0]},"id":"us20009nlg"},
{"type":"Feature","properties":{"mag":3,"place":"67 km N of Yakutat, Alaska","time":1694632769556,"updated":1700346571040,"tz":null,"url":"https://earthquake.usgs.gov/earthquakes/eventpage/ak023brp07sr","detail":"https://earthquake.usgs.gov/fdsnws/event/1/query?eventid=ak023brp07sr&format=geojson","felt":null,"cdi":null,"mmi":null,"alert":null,"status":"reviewed","tsunami":0,"sig":138,"net":"ak","code":"023brp07sr","ids":",us6000lbky,ak023brp07sr,","sources":",us,ak,","types":",impact-text,origin,phase-data,","nst":null,"dmin":null,"rms":0.59,"gap":null,"magType":"ml","type":"Landslide","title":"M 3.0 Landslide - 67 km N of Yakutat, Alaska"},"geometry":{"type":"Point","coordinates":[-139.6046,60.151,0]},"id":"ak023brp07sr"},
{"type":"Feature","properties":{"mag":2.6,"place":"51 km SSE of Denali National Park, Alaska","time":1694657209074,"updated":1700346571040,"tz":null,"url":"https://earthquake.usgs.gov/earthquakes/eventpage/ak023bt2cfip","detail":"https://earthquake.usgs.gov/fdsnws/event/1/query?eventid=ak023bt2cfip&format=geojson","felt":null,"cdi":null,"mmi":null,"alert":null,"status":"reviewed","tsunami":0,"sig":104,"net":"ak","code":"023bt2cfip","ids":",us7000kvn3,ak023bt2cfip,","sources":",us,ak,","types":",origin,phase-data,","nst":null,"dmin":null,"rms":0.38,"gap":null,"magType":"ml","type":"Landslide","title":"M 2.6 Landslide - 51 km SSE of Denali National Park, Alaska"},"geometry":{"type":"Point","coordinates":[-151.1904,63.1455,0]},"id":"ak023bt2cfip"},
{"type":"Feature","properties":{"mag":4.3,"place":"eastern Greenland","time":1694867700000,"updated":1700346571040,"tz":null,"url":"https://earthquake.usgs.gov/earthquakes/eventpage/us7000kx2u","detail":"https://earthquake.usgs.gov/fdsnws/event/1/query?eventid=us7000kx2u&format=geojson","felt":null,"cdi":null,"mmi":null,"alert":null,"status":"reviewed","tsunami":0,"sig":284,"net":"us","code":"7000kx2u","ids":",us7000kx2u,","sources":",us,","types":",impact-text,origin,phase-data,","nst":0,"dmin":null,"rms":0.28,"gap":null,"magType":"ms_vx","type":"landslide","title":"M 4.3 Landslide - eastern Greenland"},"geometry":{"type":"Point","coordinates":[-27.115,72.797,0]},"id":"us7000kx2u"},
{"type":"Feature","properties":{"mag":2.3,"place":"73 km NNW of Yakutat, Alaska","time":1715202041871,"updated":1721152914013,"tz":null,"url":"https://earthquake.usgs.gov/earthquakes/eventpage/ak0245xotymz","detail":"https://earthquake.usgs.gov/fdsnws/event/1/query?eventid=ak0245xotymz&format=geojson","felt":null,"cdi":null,"mmi":null,"alert":null,"status":"reviewed","tsunami":0,"sig":81,"net":"ak","code":"0245xotymz","ids":",ak0245xotymz,","sources":",ak,","types":",origin,phase-data,","nst":null,"dmin":null,"rms":0.5,"gap":null,"magType":"ml","type":"landslide","title":"M 2.3 Landslide - 73 km NNW of Yakutat, Alaska"},"geometry":{"type":"Point","coordinates":[-140.1355,60.1717,0]},"id":"ak0245xotymz"},
{"type":"Feature","properties":{"mag":1.2,"place":"105 km NNW of Yakutat, Alaska","time":1721144465107,"updated":1724451066352,"tz":null,"url":"https://earthquake.usgs.gov/earthquakes/eventpage/ak02493pl0ty","detail":"https://earthquake.usgs.gov/fdsnws/event/1/query?eventid=ak02493pl0ty&format=geojson","felt":null,"cdi":null,"mmi":null,"alert":null,"status":"reviewed","tsunami":0,"sig":22,"net":"ak","code":"02493pl0ty","ids":",ak02493pl0ty,","sources":",ak,","types":",origin,phase-data,","nst":null,"dmin":null,"rms":0.18,"gap":null,"magType":"ml","type":"landslide","title":"M 1.2 Landslide - 105 km NNW of Yakutat, Alaska"},"geometry":{"type":"Point","coordinates":[-140.2881,60.4529,0]},"id":"ak02493pl0ty"},
{"type":"Feature","properties":{"mag":1.3,"place":"120 km NNW of Yakutat, Alaska","time":1721402022276,"updated":1724725438821,"tz":null,"url":"https://earthquake.usgs.gov/earthquakes/eventpage/ak02498o14wa","detail":"https://earthquake.usgs.gov/fdsnws/event/1/query?eventid=ak02498o14wa&format=geojson","felt":null,"cdi":null,"mmi":null,"alert":null,"status":"reviewed","tsunami":0,"sig":26,"net":"ak","code":"02498o14wa","ids":",ak02498o14wa,","sources":",ak,","types":",origin,phase-data,","nst":null,"dmin":null,"rms":0.19,"gap":null,"magType":"ml","type":"landslide","title":"M 1.3 Landslide - 120 km NNW of Yakutat, Alaska"},"geometry":{"type":"Point","coordinates":[-140.6159,60.5288,0]},"id":"ak02498o14wa"},
{"type":"Feature","properties":{"mag":1.4,"place":"28 km SW of Lowell Point, Alaska","time":1723035276176,"updated":1731976121652,"tz":null,"url":"https://earthquake.usgs.gov/earthquakes/eventpage/ak024a41p7cx","detail":"https://earthquake.usgs.gov/fdsnws/event/1/query?eventid=ak024a41p7cx&format=geojson","felt":null,"cdi":null,"mmi":null,"alert":null,"status":"reviewed","tsunami":0,"sig":30,"net":"ak","code":"024a41p7cx","ids":",us6000nizd,ak024a41p7cx,","sources":",us,ak,","types":",general-header,impact-text,origin,phase-data,","nst":null,"dmin":null,"rms":0.81,"gap":null,"magType":"ml","type":"landslide","title":"M 1.4 Landslide - 28 km SW of Lowell Point, Alaska"},"geometry":{"type":"Point","coordinates":[-149.8246,59.9038,0]},"id":"ak024a41p7cx"},
{"type":"Feature","properties":{"mag":1,"place":"49 km SSE of Glacier View, Alaska","time":1724318525753,"updated":1727460044188,"tz":null,"url":"https://earthquake.usgs.gov/earthquakes/eventpage/ak024asss6ov","detail":"https://earthquake.usgs.gov/fdsnws/event/1/query?eventid=ak024asss6ov&format=geojson","felt":null,"cdi":null,"mmi":null,"alert":null,"status":"reviewed","tsunami":0,"sig":15,"net":"ak","code":"024asss6ov","ids":",ak024asss6ov,","sources":",ak,","types":",origin,phase-data,","nst":null,"dmin":null,"rms":0.52,"gap":null,"magType":"ml","type":"landslide","title":"M 1.0 Landslide - 49 km SSE of Glacier View, Alaska"},"geometry":{"type":"Point","coordinates":[-147.2947,61.3995,0]},"id":"ak024asss6ov"},
{"type":"Feature","properties":{"mag":1.5,"place":"41 km WSW of Ferry, Alaska","time":1725349145604,"updated":1728876791368,"tz":null,"url":"https://earthquake.usgs.gov/earthquakes/eventpage/ak024bcm54l9","detail":"https://earthquake.usgs.gov/fdsnws/event/1/query?eventid=ak024bcm54l9&format=geojson","felt":null,"cdi":null,"mmi":null,"alert":null,"status":"reviewed","tsunami":0,"sig":35,"net":"ak","code":"024bcm54l9","ids":",ak024bcm54l9,","sources":",ak,","types":",origin,phase-data,","nst":null,"dmin":null,"rms":0.33,"gap":null,"magType":"ml","type":"landslide","title":"M 1.5 Landslide - 41 km WSW of Ferry, Alaska"},"geometry":{"type":"Point","coordinates":[-149.9268,63.9181,0]},"id":"ak024bcm54l9"},
{"type":"Feature","properties":{"mag":1.6,"place":"46 km SE of Denali National Park, Alaska","time":1725428957591,"updated":1731976213078,"tz":null,"url":"https://earthquake.usgs.gov/earthquakes/eventpage/ak024be8jrxr","detail":"https://earthquake.usgs.gov/fdsnws/event/1/query?eventid=ak024be8jrxr&format=geojson","felt":null,"cdi":null,"mmi":null,"alert":null,"status":"reviewed","tsunami":0,"sig":39,"net":"ak","code":"024be8jrxr","ids":",ak024be8jrxr,","sources":",ak,","types":",origin,phase-data,","nst":null,"dmin":null,"rms":1.15,"gap":null,"magType":"ml","type":"landslide","title":"M 1.6 Landslide - 46 km SE of Denali National Park, Alaska"},"geometry":{"type":"Point","coordinates":[-150.9807,63.2885,0]},"id":"ak024be8jrxr"},
{"type":"Feature","properties":{"mag":1.6,"place":"57 km NE of Whittier, Alaska","time":1725873640410,"updated":1729098730759,"tz":null,"url":"https://earthquake.usgs.gov/earthquakes/eventpage/ak024bmkg2t4","detail":"https://earthquake.usgs.gov/fdsnws/event/1/query?eventid=ak024bmkg2t4&format=geojson","felt":null,"cdi":null,"mmi":null,"alert":null,"status":"reviewed","tsunami":0,"sig":39,"net":"ak","code":"024bmkg2t4","ids":",ak024bmkg2t4,","sources":",ak,","types":",origin,phase-data,","nst":null,"dmin":null,"rms":0.27,"gap":null,"magType":"ml","type":"landslide","title":"M 1.6 Landslide - 57 km NE of Whittier, Alaska"},"geometry":{"type":"Point","coordinates":[-147.9938,61.1648,0]},"id":"ak024bmkg2t4"},
{"type":"Feature","properties":{"mag":1.4,"place":"92 km SSE of Chitina, Alaska","time":1726019804180,"updated":1729527686820,"tz":null,"url":"https://earthquake.usgs.gov/earthquakes/eventpage/ak024bpqz126","detail":"https://earthquake.usgs.gov/fdsnws/event/1/query?eventid=ak024bpqz126&format=geojson","felt":null,"cdi":null,"mmi":null,"alert":null,"status":"reviewed","tsunami":0,"sig":30,"net":"ak","code":"024bpqz126","ids":",ak024bpqz126,","sources":",ak,","types":",origin,phase-data,","nst":null,"dmin":null,"rms":0.07,"gap":null,"magType":"ml","type":"landslide","title":"M 1.4 Landslide - 92 km SSE of Chitina, Alaska"},"geometry":{"type":"Point","coordinates":[-144.0094,60.7125,0]},"id":"ak024bpqz126"},
{"type":"Feature","properties":{"mag":1.1,"place":"33 km NNE of Whittier, Alaska","time":1726830765224,"updated":1731461971063,"tz":null,"url":"https://earthquake.usgs.gov/earthquakes/eventpage/ak024c4si23u","detail":"https://earthquake.usgs.gov/fdsnws/event/1/query?eventid=ak024c4si23u&format=geojson","felt":null,"cdi":null,"mmi":null,"alert":null,"status":"reviewed","tsunami":0,"sig":19,"net":"ak","code":"024c4si23u","ids":",ak024c4si23u,","sources":",ak,","types":",origin,phase-data,","nst":null,"dmin":null,"rms":1.82,"gap":null,"magType":"ml","type":"landslide","title":"M 1.1 Landslide - 33 km NNE of Whittier, Alaska"},"geometry":{"type":"Point","coordinates":[-148.45,61.05,0]},"id":"ak024c4si23u"},
{"type":"Feature","properties":{"mag":1.8,"place":"48 km NNE of Whittier, Alaska","time":1726833455129,"updated":1730127327457,"tz":null,"url":"https://earthquake.usgs.gov/earthquakes/eventpage/ak024c4srp18","detail":"https://earthquake.usgs.gov/fdsnws/event/1/query?eventid=ak024c4srp18&format=geojson","felt":null,"cdi":null,"mmi":null,"alert":null,"status":"reviewed","tsunami":0,"sig":50,"net":"ak","code":"024c4srp18","ids":",ak024c4srp18,","sources":",ak,","types":",origin,phase-data,","nst":null,"dmin":null,"rms":0.36,"gap":null,"magType":"ml","type":"landslide","title":"M 1.8 Landslide - 48 km NNE of Whittier, Alaska"},"geometry":{"type":"Point","coordinates":[-148.2668,61.1546,0]},"id":"ak024c4srp18"},
{"type":"Feature","properties":{"mag":1.9,"place":"33 km NNE of Whittier, Alaska","time":1726833459683,"updated":1731461970859,"tz":null,"url":"https://earthquake.usgs.gov/earthquakes/eventpage/ak024c4srowg","detail":"https://earthquake.usgs.gov/fdsnws/event/1/query?eventid=ak024c4srowg&format=geojson","felt":null,"cdi":null,"mmi":null,"alert":null,"status":"reviewed","tsunami":0,"sig":56,"net":"ak","code":"024c4srowg","ids":",ak024c4srowg,","sources":",ak,","types":",origin,phase-data,","nst":null,"dmin":null,"rms":0.98,"gap":null,"magType":"ml","type":"landslide","title":"M 1.9 Landslide - 33 km NNE of Whittier, Alaska"},"geometry":{"type":"Point","coordinates":[-148.45,61.05,0]},"id":"ak024c4srowg"},
{"type":"Feature","properties":{"mag":0.8,"place":"33 km NNE of Whittier, Alaska","time":1726833938701,"updated":1731461970682,"tz":null,"url":"https://earthquake.usgs.gov/earthquakes/eventpage/ak024c4t1z72","detail":"https://earthquake.usgs.gov/fdsnws/event/1/query?eventid=ak024c4t1z72&format=geojson","felt":null,"cdi":null,"mmi":null,"alert":null,"status":"reviewed","tsunami":0,"sig":10,"net":"ak","code":"024c4t1z72","ids":",ak024c4t1z72,","sources":",ak,","types":",origin,phase-data,","nst":null,"dmin":null,"rms":2.58,"gap":null,"magType":"ml","type":"landslide","title":"M 0.8 Landslide - 33 km NNE of Whittier, Alaska"},"geometry":{"type":"Point","coordinates":[-148.45,61.05,0]},"id":"ak024c4t1z72"},
{"type":"Feature","properties":{"mag":1.9,"place":"33 km NNE of Whittier, Alaska","time":1726834034492,"updated":1731461970487,"tz":null,"url":"https://earthquake.usgs.gov/earthquakes/eventpage/ak024c4t2d0y","detail":"https://earthquake.usgs.gov/fdsnws/event/1/query?eventid=ak024c4t2d0y&format=geojson","felt":null,"cdi":null,"mmi":null,"alert":null,"status":"reviewed","tsunami":0,"sig":56,"net":"ak","code":"024c4t2d0y","ids":",ak024c4t2d0y,","sources":",ak,","types":",origin,phase-data,","nst":null,"dmin":null,"rms":1.81,"gap":null,"magType":"ml","type":"landslide","title":"M 1.9 Landslide - 33 km NNE of Whittier, Alaska"},"geometry":{"type":"Point","coordinates":[-148.45,61.05,0]},"id":"ak024c4t2d0y"},
{"type":"Feature","properties":{"mag":1.6,"place":"33 km NNE of Whittier, Alaska","time":1726834548443,"updated":1731461971261,"tz":null,"url":"https://earthquake.usgs.gov/earthquakes/eventpage/ak024c4t453w","detail":"https://earthquake.usgs.gov/fdsnws/event/1/query?eventid=ak024c4t453w&format=geojson","felt":null,"cdi":null,"mmi":null,"alert":null,"status":"reviewed","tsunami":0,"sig":39,"net":"ak","code":"024c4t453w","ids":",ak024c4t453w,","sources":",ak,","types":",origin,phase-data,","nst":null,"dmin":null,"rms":2.12,"gap":null,"magType":"ml","type":"landslide","title":"M 1.6 Landslide - 33 km NNE of Whittier, Alaska"},"geometry":{"type":"Point","coordinates":[-148.45,61.05,0]},"id":"ak024c4t453w"},
{"type":"Feature","properties":{"mag":1.3,"place":"117 km NW of Yakutat, Alaska","time":1727362056044,"updated":1730792228694,"tz":null,"url":"https://earthquake.usgs.gov/earthquakes/eventpage/ak024cerpx6x","detail":"https://earthquake.usgs.gov/fdsnws/event/1/query?eventid=ak024cerpx6x&format=geojson","felt":null,"cdi":null,"mmi":null,"alert":null,"status":"reviewed","tsunami":0,"sig":26,"net":"ak","code":"024cerpx6x","ids":",ak024cerpx6x,","sources":",ak,","types":",origin,phase-data,","nst":null,"dmin":null,"rms":0.09,"gap":null,"magType":"ml","type":"landslide","title":"M 1.3 Landslide - 117 km NW of Yakutat, Alaska"},"geometry":{"type":"Point","coordinates":[-141.3369,60.2188,0]},"id":"ak024cerpx6x"},
{"type":"Feature","properties":{"mag":2,"place":"71 km SE of Denali National Park, Alaska","time":1728023864344,"updated":1734187772040,"tz":null,"url":"https://earthquake.usgs.gov/earthquakes/eventpage/ak024crv79rk","detail":"https://earthquake.usgs.gov/fdsnws/event/1/query?eventid=ak024crv79rk&format=geojson","felt":null,"cdi":null,"mmi":null,"alert":null,"status":"reviewed","tsunami":0,"sig":62,"net":"ak","code":"024crv79rk","ids":",us6000nwge,ak024crv79rk,","sources":",us,ak,","types":",associate,impact-text,origin,phase-data,","nst":null,"dmin":null,"rms":1.14,"gap":null,"magType":"ml","type":"landslide","title":"M 2.0 Landslide - 71 km SE of Denali National Park, Alaska"},"geometry":{"type":"Point","coordinates":[-150.555,63.168,0]},"id":"ak024crv79rk"},
{"type":"Feature","properties":{"mag":1.5,"place":"68 km SE of Denali National Park, Alaska","time":1729123213432,"updated":1732377563202,"tz":null,"url":"https://earthquake.usgs.gov/earthquakes/eventpage/ak024dd9e0q7","detail":"https://earthquake.usgs.gov/fdsnws/event/1/query?eventid=ak024dd9e0q7&format=geojson","felt":null,"cdi":null,"mmi":null,"alert":null,"status":"reviewed","tsunami":0,"sig":35,"net":"ak","code":"024dd9e0q7","ids":",ak024dd9e0q7,","sources":",ak,","types":",origin,phase-data,","nst":null,"dmin":null,"rms":0.15,"gap":null,"magType":"ml","type":"landslide","title":"M 1.5 Landslide - 68 km SE of Denali National Park, Alaska"},"geometry":{"type":"Point","coordinates":[-150.6767,63.148,0]},"id":"ak024dd9e0q7"},
{"type":"Feature","properties":{"mag":1.5,"place":"50 km N of Petersville, Alaska","time":1729553353176,"updated":1733075541169,"tz":null,"url":"https://earthquake.usgs.gov/earthquakes/eventpage/ak024dk9elcz","detail":"https://earthquake.usgs.gov/fdsnws/event/1/query?eventid=ak024dk9elcz&format=geojson","felt":null,"cdi":null,"mmi":null,"alert":null,"status":"reviewed","tsunami":0,"sig":35,"net":"ak","code":"024dk9elcz","ids":",ak024dk9elcz,","sources":",ak,","types":",origin,phase-data,","nst":null,"dmin":null,"rms":0.4,"gap":null,"magType":"ml","type":"landslide","title":"M 1.5 Landslide - 50 km N of Petersville, Alaska"},"geometry":{"type":"Point","coordinates":[-150.8251,62.9457,0]},"id":"ak024dk9elcz"},
{"type":"Feature","properties":{"mag":1.3,"place":"54 km SSE of Denali National Park, Alaska","time":1729961200076,"updated":1733464211715,"tz":null,"url":"https://earthquake.usgs.gov/earthquakes/eventpage/ak024dsf0zxk","detail":"https://earthquake.usgs.gov/fdsnws/event/1/query?eventid=ak024dsf0zxk&format=geojson","felt":null,"cdi":null,"mmi":null,"alert":null,"status":"reviewed","tsunami":0,"sig":26,"net":"ak","code":"024dsf0zxk","ids":",ak024dsf0zxk,","sources":",ak,","types":",origin,phase-data,","nst":null,"dmin":null,"rms":0.26,"gap":null,"magType":"ml","type":"landslide","title":"M 1.3 Landslide - 54 km SSE of Denali National Park, Alaska"},"geometry":{"type":"Point","coordinates":[-151.2861,63.0922,0]},"id":"ak024dsf0zxk"},
{"type":"Feature","properties":{"mag":1.4,"place":"49 km S of Glacier View, Alaska","time":1730874596909,"updated":1738262466503,"tz":null,"url":"https://earthquake.usgs.gov/earthquakes/eventpage/ak024eafvvcg","detail":"https://earthquake.usgs.gov/fdsnws/event/1/query?eventid=ak024eafvvcg&format=geojson","felt":null,"cdi":null,"mmi":null,"alert":null,"status":"reviewed","tsunami":0,"sig":30,"net":"ak","code":"024eafvvcg","ids":",ak024eafvvcg,","sources":",ak,","types":",origin,phase-data,","nst":null,"dmin":null,"rms":0.25,"gap":null,"magType":"ml","type":"landslide","title":"M 1.4 Landslide - 49 km S of Glacier View, Alaska"},"geometry":{"type":"Point","coordinates":[-147.7127,61.3679,0]},"id":"ak024eafvvcg"},
{"type":"Feature","properties":{"mag":1.2,"place":"54 km WSW of Nabesna, Alaska","time":1731313842590,"updated":1734503117172,"tz":null,"url":"https://earthquake.usgs.gov/earthquakes/eventpage/ak024eiqrnnn","detail":"https://earthquake.usgs.gov/fdsnws/event/1/query?eventid=ak024eiqrnnn&format=geojson","felt":null,"cdi":null,"mmi":null,"alert":null,"status":"reviewed","tsunami":0,"sig":22,"net":"ak","code":"024eiqrnnn","ids":",ak024eiqrnnn,","sources":",ak,","types":",origin,phase-data,","nst":null,"dmin":null,"rms":0.51,"gap":null,"magType":"ml","type":"landslide","title":"M 1.2 Landslide - 54 km WSW of Nabesna, Alaska"},"geometry":{"type":"Point","coordinates":[-143.9677,62.1779,0]},"id":"ak024eiqrnnn"},
{"type":"Feature","properties":{"mag":1.8,"place":"45 km ESE of Knik River, Alaska","time":1734831878900,"updated":1736997629132,"tz":null,"url":"https://earthquake.usgs.gov/earthquakes/eventpage/ak024gefpudw","detail":"https://earthquake.usgs.gov/fdsnws/event/1/query?eventid=ak024gefpudw&format=geojson","felt":null,"cdi":null,"mmi":null,"alert":null,"status":"reviewed","tsunami":0,"sig":50,"net":"ak","code":"024gefpudw","ids":",ak024gefpudw,","sources":",ak,","types":",origin,phase-data,","nst":null,"dmin":null,"rms":0.29,"gap":null,"magType":"ml","type":"landslide","title":"M 1.8 Landslide - 45 km ESE of Knik River, Alaska"},"geometry":{"type":"Point","coordinates":[-148.1319,61.2963,0]},"id":"ak024gefpudw"},
{"type":"Feature","properties":{"mag":1.2,"place":"122 km SE of McCarthy, Alaska","time":1739159121080,"updated":1741225662575,"tz":null,"url":"https://earthquake.usgs.gov/earthquakes/eventpage/ak0251vv37w5","detail":"https://earthquake.usgs.gov/fdsnws/event/1/query?eventid=ak0251vv37w5&format=geojson","felt":null,"cdi":null,"mmi":null,"alert":null,"status":"reviewed","tsunami":0,"sig":22,"net":"ak","code":"0251vv37w5","ids":",ak0251vv37w5,","sources":",ak,","types":",origin,phase-data,","nst":null,"dmin":null,"rms":0.18,"gap":null,"magType":"ml","type":"landslide","title":"M 1.2 Landslide - 122 km SE of McCarthy, Alaska"},"geometry":{"type":"Point","coordinates":[-141.0702,60.7912,0]},"id":"ak0251vv37w5"},
{"type":"Feature","properties":{"mag":-0.66,"place":"5 km W of Mammoth Lakes, CA","time":1750238376810,"updated":1750461935379,"tz":null,"url":"https://earthquake.usgs.gov/earthquakes/eventpage/nc75197146","detail":"https://earthquake.usgs.gov/fdsnws/event/1/query?eventid=nc75197146&format=geojson","felt":null,"cdi":null,"mmi":null,"alert":null,"status":"reviewed","tsunami":0,"sig":0,"net":"nc","code":"75197146","ids":",nc75197146,","sources":",nc,","types":",nearby-cities,origin,phase-data,","nst":6,"dmin":0.01687,"rms":0.07,"gap":172,"magType":"md","type":"landslide","title":"M -0.7 Landslide - 5 km W of Mammoth Lakes, CA"},"geometry":{"type":"Point","coordinates":[-119.037333333333,37.6273333333333,-2.85]},"id":"nc75197146"},
{"type":"Feature","properties":{"mag":4.9,"place":"42 km SW of Hualien City, Taiwan","time":1753091639650,"updated":1759516876040,"tz":null,"url":"https://earthquake.usgs.gov/earthquakes/eventpage/us6000qu4q","detail":"https://earthquake.usgs.gov/fdsnws/event/1/query?eventid=us6000qu4q&format=geojson","felt":22,"cdi":2,"mmi":null,"alert":null,"status":"reviewed","tsunami":0,"sig":374,"net":"us","code":"6000qu4q","ids":",us6000qu4q,","sources":",us,","types":",dyfi,general-header,impact-text,origin,phase-data,","nst":0,"dmin":null,"rms":1.01,"gap":null,"magType":"ms_vx","type":"landslide","title":"M 4.9 Landslide - 42 km SW of Hualien City, Taiwan"},"geometry":{"type":"Point","coordinates":[121.295,23.716,0]},"id":"us6000qu4q"},
{"type":"Feature","properties":{"mag":5.4,"place":"44 km NNE of Hobart Bay, Alaska","time":1754832403390,"updated":1761399638040,"tz":null,"url":"https://earthquake.usgs.gov/earthquakes/eventpage/ak025a7d7cil","detail":"https://earthquake.usgs.gov/fdsnws/event/1/query?eventid=ak025a7d7cil&format=geojson","felt":null,"cdi":null,"mmi":6.412,"alert":null,"status":"reviewed","tsunami":0,"sig":449,"net":"ak","code":"025a7d7cil","ids":",ak025a7d7cil,us6000qzpj,ak025a7d7ckh,","sources":",ak,us,ak,","types":",associate,general-header,impact-text,origin,phase-data,shakemap,","nst":null,"dmin":null,"rms":0.59,"gap":null,"magType":"mww","type":"landslide","title":"M 5.4 Landslide - 44 km NNE of Hobart Bay, Alaska"},"geometry":{"type":"Point","coordinates":[-133.09,57.84,0]},"id":"ak025a7d7cil"},
{"type":"Feature","properties":{"mag":1.4,"place":"51 km SSE of Glacier View, Alaska","time":1756432278871,"updated":1762461047930,"tz":null,"url":"https://earthquake.usgs.gov/earthquakes/eventpage/ak025b2lf1oq","detail":"https://earthquake.usgs.gov/fdsnws/event/1/query?eventid=ak025b2lf1oq&format=geojson","felt":null,"cdi":null,"mmi":null,"alert":null,"status":"reviewed","tsunami":0,"sig":30,"net":"ak","code":"025b2lf1oq","ids":",ak025b2lf1oq,","sources":",ak,","types":",origin,phase-data,","nst":null,"dmin":null,"rms":0.44,"gap":null,"magType":"ml","type":"landslide","title":"M 1.4 Landslide - 51 km SSE of Glacier View, Alaska"},"geometry":{"type":"Point","coordinates":[-147.3268,61.3737,0]},"id":"ak025b2lf1oq"},
{"type":"Feature","properties":{"mag":1.6,"place":"43 km SSE of Glacier View, Alaska","time":1756605008579,"updated":1762664524016,"tz":null,"url":"https://earthquake.usgs.gov/earthquakes/eventpage/ak025b5whi2h","detail":"https://earthquake.usgs.gov/fdsnws/event/1/query?eventid=ak025b5whi2h&format=geojson","felt":null,"cdi":null,"mmi":null,"alert":null,"status":"reviewed","tsunami":0,"sig":39,"net":"ak","code":"025b5whi2h","ids":",ak025b5whi2h,","sources":",ak,","types":",origin,phase-data,","nst":null,"dmin":null,"rms":0.28,"gap":null,"magType":"ml","type":"landslide","title":"M 1.6 Landslide - 43 km SSE of Glacier View, Alaska"},"geometry":{"type":"Point","coordinates":[-147.339,61.4458,0]},"id":"ak025b5whi2h"},
{"type":"Feature","properties":{"mag":1.5,"place":"38 km NNW of Petersville, Alaska","time":1758916113706,"updated":1758920424798,"tz":null,"url":"https://earthquake.usgs.gov/earthquakes/eventpage/ak025cd75yay","detail":"https://earthquake.usgs.gov/fdsnws/event/1/query?eventid=ak025cd75yay&format=geojson","felt":null,"cdi":null,"mmi":null,"alert":null,"status":"reviewed","tsunami":0,"sig":35,"net":"ak","code":"025cd75yay","ids":",ak025cd75yay,","sources":",ak,","types":",origin,phase-data,","nst":null,"dmin":null,"rms":0.77,"gap":null,"magType":"ml","type":"landslide","title":"M 1.5 Landslide - 38 km NNW of Petersville, Alaska"},"geometry":{"type":"Point","coordinates":[-151.158,62.7876,0]},"id":"ak025cd75yay"},
{"type":"Feature","properties":{"mag":2.1,"place":"124 km NNW of Yakutat, Alaska","time":1770194901525,"updated":1782923915897,"tz":null,"url":"https://earthquake.usgs.gov/earthquakes/eventpage/ak2026clcfgj","detail":"https://earthquake.usgs.gov/fdsnws/event/1/query?eventid=ak2026clcfgj&format=geojson","felt":null,"cdi":null,"mmi":null,"alert":null,"status":"reviewed","tsunami":0,"sig":68,"net":"ak","code":"2026clcfgj","ids":",ak2026clcfgj,","sources":",ak,","types":",origin,phase-data,","nst":15,"dmin":0.3,"rms":5.5,"gap":68,"magType":"ml","type":"landslide","title":"M 2.1 Landslide - 124 km NNW of Yakutat, Alaska"},"geometry":{"type":"Point","coordinates":[-140.5,60.6,0]},"id":"ak2026clcfgj"},
{"type":"Feature","properties":{"mag":1.8,"place":"44 km SW of Lowell Point, Alaska","time":1775972486817,"updated":1778707439166,"tz":null,"url":"https://earthquake.usgs.gov/earthquakes/eventpage/aka2026hdvric","detail":"https://earthquake.usgs.gov/fdsnws/event/1/query?eventid=aka2026hdvric&format=geojson","felt":null,"cdi":null,"mmi":null,"alert":null,"status":"reviewed","tsunami":0,"sig":50,"net":"ak","code":"a2026hdvric","ids":",aka2026hdvric,","sources":",ak,","types":",origin,phase-data,","nst":21,"dmin":0.3,"rms":0.6,"gap":170,"magType":"ml","type":"landslide","title":"M 1.8 Landslide - 44 km SW of Lowell Point, Alaska"},"geometry":{"type":"Point","coordinates":[-150.103,59.848,0]},"id":"aka2026hdvric"},
{"type":"Feature","properties":{"mag":2.2,"place":"121 km NNW of Yakutat, Alaska","time":1785971392595,"updated":1785987016338,"tz":null,"url":"https://earthquake.usgs.gov/earthquakes/eventpage/aka2026pktbyv","detail":"https://earthquake.usgs.gov/fdsnws/event/1/query?eventid=aka2026pktbyv&format=geojson","felt":null,"cdi":null,"mmi":null,"alert":null,"status":"reviewed","tsunami":0,"sig":74,"net":"ak","code":"a2026pktbyv","ids":",aka2026pktbyv,","sources":",ak,","types":",origin,phase-data,","nst":13,"dmin":0.4,"rms":2.4,"gap":136,"magType":"ml","type":"landslide","title":"M 2.2 Landslide - 121 km NNW of Yakutat, Alaska"},"geometry":{"type":"Point","coordinates":[-140.3,60.6,0]},"id":"aka2026pktbyv"},
{"type":"Feature","properties":{"mag":1.9,"place":"67 km WNW of Happy Valley, Alaska","time":1786204617616,"updated":1786242482020,"tz":null,"url":"https://earthquake.usgs.gov/earthquakes/eventpage/aka2026ppssfl","detail":"https://earthquake.usgs.gov/fdsnws/event/1/query?eventid=aka2026ppssfl&format=geojson","felt":null,"cdi":null,"mmi":null,"alert":null,"status":"reviewed","tsunami":0,"sig":56,"net":"ak","code":"a2026ppssfl","ids":",aka2026ppssfl,","sources":",ak,","types":",origin,phase-data,","nst":23,"dmin":0.1,"rms":5.6,"gap":87,"magType":"ml","type":"landslide","title":"M 1.9 Landslide - 67 km WNW of Happy Valley, Alaska"},"geometry":{"type":"Point","coordinates":[-152.891,60.114,0]},"id":"aka2026ppssfl"},
{"type":"Feature","properties":{"mag":1.4,"place":"41 km SE of Glacier View, Alaska","time":1787584901983,"updated":1787697209271,"tz":null,"url":"https://earthquake.usgs.gov/earthquakes/eventpage/aka2026qtfwub","detail":"https://earthquake.usgs.gov/fdsnws/event/1/query?eventid=aka2026qtfwub&format=geojson","felt":null,"cdi":null,"mmi":null,"alert":null,"status":"reviewed","tsunami":0,"sig":30,"net":"ak","code":"a2026qtfwub","ids":",aka2026qtfwub,","sources":",ak,","types":",origin,phase-data,","nst":13,"dmin":0.4,"rms":0.9,"gap":124,"magType":"ml","type":"landslide","title":"M 1.4 Landslide - 41 km SE of Glacier View, Alaska"},"geometry":{"type":"Point","coordinates":[-147.213,61.502,0]},"id":"aka2026qtfwub"},
{"type":"Feature","properties":{"mag":5.2,"place":"55 km NW of Kodāri̇̄, Nepal","time":1787712730000,"updated":1787900310526,"tz":null,"url":"https://earthquake.usgs.gov/earthquakes/eventpage/us7000tbwb","detail":"https://earthquake.usgs.gov/fdsnws/event/1/query?eventid=us7000tbwb&format=geojson","felt":2,"cdi":2,"mmi":null,"alert":null,"status":"reviewed","tsunami":0,"sig":601,"net":"us","code":"7000tbwb","ids":",us7000tbwb,","sources":",us,","types":",dyfi,general-header,general-text,origin,phase-data,significance,","nst":0,"dmin":null,"rms":11.91,"gap":null,"magType":"ms_vx","type":"landslide","title":"M 5.2 Landslide - 55 km NW of Kodāri̇̄, Nepal"},"geometry":{"type":"Point","coordinates":[85.515,28.271,0]},"id":"us7000tbwb"},
{"type":"Feature","properties":{"mag":4.2,"place":"55 km NW of Kodāri̇̄, Nepal","time":1787724035000,"updated":1787872929676,"tz":null,"url":"https://earthquake.usgs.gov/earthquakes/eventpage/us7000tc90","detail":"https://earthquake.usgs.gov/fdsnws/event/1/query?eventid=us7000tc90&format=geojson","felt":null,"cdi":null,"mmi":null,"alert":null,"status":"reviewed","tsunami":0,"sig":271,"net":"us","code":"7000tc90","ids":",us7000tc90,","sources":",us,","types":",general-header,origin,phase-data,","nst":0,"dmin":null,"rms":1.42,"gap":null,"magType":"ms_vx","type":"landslide","title":"M 4.2 Landslide - 55 km NW of Kodāri̇̄, Nepal"},"geometry":{"type":"Point","coordinates":[85.515,28.27,0]},"id":"us7000tc90"},
{"type":"Feature","properties":{"mag":1.8,"place":"59 km NW of Paxson, Alaska","time":1788169711310,"updated":1788381577474,"tz":null,"url":"https://earthquake.usgs.gov/earthquakes/eventpage/aka2026rfsxme","detail":"https://earthquake.usgs.gov/fdsnws/event/1/query?eventid=aka2026rfsxme&format=geojson","felt":null,"cdi":null,"mmi":null,"alert":null,"status":"reviewed","tsunami":0,"sig":50,"net":"ak","code":"a2026rfsxme","ids":",aka2026rfsxme,","sources":",ak,","types":",origin,phase-data,","nst":19,"dmin":0.3,"rms":0.7,"gap":97,"magType":"ml","type":"landslide","title":"M 1.8 Landslide - 59 km NW of Paxson, Alaska"},"geometry":{"type":"Point","coordinates":[-146.416,63.486,0]},"id":"aka2026rfsxme"}],"bbox":[-152.891,23.716,-2.85,121.295,72.797,8.395]}