{"type":"Feature","properties":{"mag":4.2,"place":"55 km NW of Kodāri̇̄, Nepal","time":1787724035000,"updated":1787872929676,"tz":null,"url":"https://earthquake.usgs.gov/earthquakes/eventpage/us7000tc90","felt":null,"cdi":null,"mmi":null,"alert":null,"status":"reviewed","tsunami":0,"sig":271,"net":"us","code":"7000tc90","ids":",us7000tc90,","sources":",us,","types":",general-header,origin,phase-data,","nst":0,"dmin":null,"rms":1.42,"gap":null,"magType":"ms_vx","type":"landslide","title":"M 4.2 Landslide - 55 km NW of Kodāri̇̄, Nepal","products":{"general-header":[{"indexid":28528635,"indexTime":1787872933926,"id":"urn:usgs-product:admin:general-header:us7000tc90-1787870063314:1787872929676","type":"general-header","code":"us7000tc90-1787870063314","source":"admin","updateTime":1787872929676,"status":"UPDATE","properties":{"eventsource":"us","eventsourcecode":"7000tc90","pdl-client-version":"Version 3.5.4 2026-01-22","review-status":"Reviewed","senderemail":"pearle@usgs.gov"},"preferredWeight":1,"contents":{"":{"contentType":"1","lastModified":1787872929000,"length":703,"bytes":"<p class=\"alert info\">This event occurred about three hours after the \n\n<a href=\"https://earthquake.usgs.gov/earthquakes/eventpage/us7000tbwb/executive\">\n  landslide that triggered catastrophic flooding in Nepal and China\n</a>\n\n. It was identified during post-processing of low-frequency seismic records and shows characteristics consistent with a landslide. Due to the lack of high-frequency energy, a precise location could not be determined, so we fixed this event’s location to that of the initial landslide.\n\nFor more information see the\n<a href=\"https://www.usgs.gov/programs/landslide-hazards/science/2026-nepal-debris-avalanche-and-flash-flood\">\nUSGS landslides special event page. \n</a>\n\n</p>","sha256":"+z9byPluxWSaAaEtgsKsTJ26B1TP2BsdnRpVUqTH9Pk="}}}],"origin":[{"indexid":28528515,"indexTime":1787870039080,"id":"urn:usgs-product:us:origin:us7000tc90:1787870030040","type":"origin","code":"us7000tc90","source":"us","updateTime":1787870030040,"status":"UPDATE","properties":{"depth":"0","depth-type":"operator assigned","error-ellipse-azimuth":"227","error-ellipse-intermediate":"19150","error-ellipse-major":"48105","error-ellipse-minor":"3020","error-ellipse-plunge":"0","error-ellipse-rotation":"91","evaluation-status":"confirmed","event-type":"landslide","eventParametersPublicID":"quakeml:us.anss.org/eventparameters/7000tc90/1787870033","eventsource":"us","eventsourcecode":"7000tc90","eventtime":"2026-08-26T06:00:35.000Z","eventtime-error":"2.87","horizontal-error":"19.97","latitude":"28.2700","latitude-error":"0.2104","longitude":"85.5150","longitude-error":"0.2528","magnitude":"4.2","magnitude-error":"0.148","magnitude-num-stations-used":"8","magnitude-source":"us","magnitude-type":"ms_vx","num-phases-used":"0","num-stations-used":"0","origin-source":"us","pdl-client-version":"Version 3.5.4 2026-01-22","quakeml-magnitude-publicid":"quakeml:us.anss.org/magnitude/7000tc90/ms_vx","quakeml-origin-publicid":"quakeml:us.anss.org/origin/locationdisp_20260827215448_28_86","quakeml-publicid":"quakeml:us.anss.org/event/7000tc90","review-status":"reviewed","standard-error":"1.42","title":"55 km NW of Kodāri̇̄, Nepal","vertical-error":"1.988"},"preferredWeight":158,"contents":{"contents.xml":{"contentType":"application/xml","lastModified":1787870035000,"length":195,"url":"https://earthquake.usgs.gov/product/origin/us7000tc90/us/1787870030040/contents.xml","sha256":"ABhLiaqdYWmIak24eD/csBAWouBShhatD9bUzLNEZFk="},"quakeml.xml":{"contentType":"application/xml","lastModified":1787870030000,"length":3659,"url":"https://earthquake.usgs.gov/product/origin/us7000tc90/us/1787870030040/quakeml.xml","sha256":"Wn/LFmoCCD+OfKoRwtSnh76ik9fTTYNWop/mjbXX0io="}}}],"phase-data":[{"indexid":28528516,"indexTime":1787870040377,"id":"urn:usgs-product:us:phase-data:us7000tc90:1787870030040","type":"phase-data","code":"us7000tc90","source":"us","updateTime":1787870030040,"status":"UPDATE","properties":{"depth":"0","depth-type":"operator assigned","error-ellipse-azimuth":"227","error-ellipse-intermediate":"19150","error-ellipse-major":"48105","error-ellipse-minor":"3020","error-ellipse-plunge":"0","error-ellipse-rotation":"91","evaluation-status":"confirmed","event-type":"landslide","eventParametersPublicID":"quakeml:us.anss.org/eventparameters/7000tc90/1787870033","eventsource":"us","eventsourcecode":"7000tc90","eventtime":"2026-08-26T06:00:35.000Z","eventtime-error":"2.87","horizontal-error":"19.97","latitude":"28.2700","latitude-error":"0.2104","longitude":"85.5150","longitude-error":"0.2528","magnitude":"4.2","magnitude-error":"0.148","magnitude-num-stations-used":"8","magnitude-source":"us","magnitude-type":"ms_vx","num-phases-used":"0","num-stations-used":"0","origin-source":"us","pdl-client-version":"Version 3.5.4 2026-01-22","quakeml-magnitude-publicid":"quakeml:us.anss.org/magnitude/7000tc90/ms_vx","quakeml-origin-publicid":"quakeml:us.anss.org/origin/locationdisp_20260827215448_28_86","quakeml-publicid":"quakeml:us.anss.org/event/7000tc90","review-status":"reviewed","standard-error":"1.42","vertical-error":"1.988"},"preferredWeight":158,"contents":{"contents.xml":{"contentType":"application/xml","lastModified":1787870035000,"length":195,"url":"https://earthquake.usgs.gov/product/phase-data/us7000tc90/us/1787870030040/contents.xml","sha256":"ABhLiaqdYWmIak24eD/csBAWouBShhatD9bUzLNEZFk="},"quakeml.xml":{"contentType":"application/xml","lastModified":1787870030000,"length":42052,"url":"https://earthquake.usgs.gov/product/phase-data/us7000tc90/us/1787870030040/quakeml.xml","sha256":"F3gENVgey+2hDaAWwzM5RYRG07Vp1LrWyvm1AF2JK9E="}}}]}},"geometry":{"type":"Point","coordinates":[85.515,28.27,0]},"id":"us7000tc90"}