{
 "features": [
  {
   "geometry": {
    "coordinates": [
     [
      [
       77.428055,
       30.3255
      ],
      [
       77.789375,
       28.700819
      ],
      [
       80.347313,
       29.109148
      ],
      [
       80.02964,
       30.731276
      ],
      [
       77.428055,
       30.3255
      ]
     ]
    ],
    "type": "Polygon"
   },
   "properties": {
    "beamModeType": "IW",
    "browse": null,
    "bytes": 4511250931,
    "centerLat": 29.723,
    "centerLon": 78.8961,
    "fileID": "S1A_IW_SLC__1SDV_20210227T124722_20210227T124749_036776_0452D7_212E-SLC",
    "fileName": "S1A_IW_SLC__1SDV_20210227T124722_20210227T124749_036776_0452D7_212E.zip",
    "flightDirection": "ASCENDING",
    "frameNumber": 92,
    "granuleType": "SENTINEL_1A_FRAME",
    "groupID": "S1A_IWDV_0092_0097_036776_129",
    "md5sum": "9ff84bbd19d84fef09e529fc077e31e0",
    "orbit": 36776,
    "pathNumber": 129,
    "pgeVersion": "003.31",
    "platform": "Sentinel-1A",
    "polarization": "VV+VH",
    "processingDate": "2021-02-27T12:47:22Z",
    "processingLevel": "SLC",
    "s3Urls": [
     "s3://asf-ngap2w-p-s1-slc-7b420b89/S1A_IW_SLC__1SDV_20210227T124722_20210227T124749_036776_0452D7_212E.zip"
    ],
    "sceneName": "S1A_IW_SLC__1SDV_20210227T124722_20210227T124749_036776_0452D7_212E",
    "sensor": "C-SAR",
    "startTime": "2021-02-27T12:47:22Z",
    "stopTime": "2021-02-27T12:47:49Z",
    "url": "https://datapool.asf.alaska.edu/SLC/SA/S1A_IW_SLC__1SDV_20210227T124722_20210227T124749_036776_0452D7_212E.zip"
   },
   "type": "Feature"
  },
  {
   "geometry": {
    "coordinates": [
     [
      [
       77.428329,
       30.246504
      ],
      [
       77.754494,
       28.73789
      ],
      [
       80.346848,
       29.151659
      ],
      [
       80.060097,
       30.657454
      ],
      [
       77.428329,
       30.246504
      ]
     ]
    ],
    "type": "Polygon"
   },
   "properties": {
    "beamModeType": "IW",
    "browse": [
     "https://datapool.asf.alaska.edu/BROWSE/SA/S1A_IW_GRDH_1SDV_20210227T124723_20210227T124748_036776_0452D7_7571.jpg"
    ],
    "bytes": 981911900,
    "centerLat": 29.7047,
    "centerLon": 78.8947,
    "fileID": "S1A_IW_GRDH_1SDV_20210227T124723_20210227T124748_036776_0452D7_7571-GRD_HD",
    "fileName": "S1A_IW_GRDH_1SDV_20210227T124723_20210227T124748_036776_0452D7_7571.zip",
    "flightDirection": "ASCENDING",
    "frameNumber": 92,
    "granuleType": "SENTINEL_1A_FRAME",
    "groupID": "S1A_IWDV_0092_0097_036776_129",
    "md5sum": "390de0ba1fa84206a3232b5ab3e2cb12",
    "orbit": 36776,
    "pathNumber": 129,
    "pgeVersion": "003.31",
    "platform": "Sentinel-1A",
    "polarization": "VV+VH",
    "processingDate": "2021-02-27T12:47:23Z",
    "processingLevel": "GRD_HD",
    "s3Urls": [
     "s3://asf-ngap2w-p-s1-grd-7d1b4348/S1A_IW_GRDH_1SDV_20210227T124723_20210227T124748_036776_0452D7_7571.zip"
    ],
    "sceneName": "S1A_IW_GRDH_1SDV_20210227T124723_20210227T124748_036776_0452D7_7571",
    "sensor": "C-SAR",
    "startTime": "2021-02-27T12:47:23Z",
    "stopTime": "2021-02-27T12:47:48Z",
    "url": "https://datapool.asf.alaska.edu/GRD_HD/SA/S1A_IW_GRDH_1SDV_20210227T124723_20210227T124748_036776_0452D7_7571.zip"
   },
   "type": "Feature"
  },
  {
   "geometry": {
    "coordinates": [
     [
      [
       79.972473,
       28.918789
      ],
      [
       80.335014,
       30.543438
      ],
      [
       77.728714,
       30.949272
      ],
      [
       77.410271,
       29.32711
      ],
      [
       79.972473,
       28.918789
      ]
     ]
    ],
    "type": "Polygon"
   },
   "properties": {
    "beamModeType": "IW",
    "browse": null,
    "bytes": 4490535331,
    "centerLat": 29.941,
    "centerLon": 78.8641,
    "fileID": "S1A_IW_SLC__1SDV_20210223T004341_20210223T004407_036710_04507D_DF5C-SLC",
    "fileName": "S1A_IW_SLC__1SDV_20210223T004341_20210223T004407_036710_04507D_DF5C.zip",
    "flightDirection": "DESCENDING",
    "frameNumber": 492,
    "granuleType": "SENTINEL_1A_FRAME",
    "groupID": "S1A_IWDV_0492_0498_036710_063",
    "md5sum": "c8dac4f382ef2503c3b13a244b6c6c47",
    "orbit": 36710,
    "pathNumber": 63,
    "pgeVersion": "003.31",
    "platform": "Sentinel-1A",
    "polarization": "VV+VH",
    "processingDate": "2021-02-23T00:43:41Z",
    "processingLevel": "SLC",
    "s3Urls": [
     "s3://asf-ngap2w-p-s1-slc-7b420b89/S1A_IW_SLC__1SDV_20210223T004341_20210223T004407_036710_04507D_DF5C.zip"
    ],
    "sceneName": "S1A_IW_SLC__1SDV_20210223T004341_20210223T004407_036710_04507D_DF5C",
    "sensor": "C-SAR",
    "startTime": "2021-02-23T00:43:41Z",
    "stopTime": "2021-02-23T00:44:07Z",
    "url": "https://datapool.asf.alaska.edu/SLC/SA/S1A_IW_SLC__1SDV_20210223T004341_20210223T004407_036710_04507D_DF5C.zip"
   },
   "type": "Feature"
  },
  {
   "geometry": {
    "coordinates": [
     [
      [
       79.991951,
       28.994869
      ],
      [
       80.257332,
       30.513588
      ],
      [
       77.649261,
       30.918446
      ],
      [
       77.422188,
       29.40395
      ],
      [
       79.991951,
       28.994869
      ]
     ]
    ],
    "type": "Polygon"
   },
   "properties": {
    "beamModeType": "IW",
    "browse": [
     "https://datapool.asf.alaska.edu/BROWSE/SA/S1A_IW_GRDH_1SDV_20210223T004341_20210223T004406_036710_04507D_304C.jpg"
    ],
    "bytes": 970942187,
    "centerLat": 29.9639,
    "centerLon": 78.8331,
    "fileID": "S1A_IW_GRDH_1SDV_20210223T004341_20210223T004406_036710_04507D_304C-GRD_HD",
    "fileName": "S1A_IW_GRDH_1SDV_20210223T004341_20210223T004406_036710_04507D_304C.zip",
    "flightDirection": "DESCENDING",
    "frameNumber": 492,
    "granuleType": "SENTINEL_1A_FRAME",
    "groupID": "S1A_IWDV_0492_0498_036710_063",
    "md5sum": "b04145d37cdbe32982da30d8ac589ca8",
    "orbit": 36710,
    "pathNumber": 63,
    "pgeVersion": "003.31",
    "platform": "Sentinel-1A",
    "polarization": "VV+VH",
    "processingDate": "2021-02-23T00:43:41Z",
    "processingLevel": "GRD_HD",
    "s3Urls": [
     "s3://asf-ngap2w-p-s1-grd-7d1b4348/S1A_IW_GRDH_1SDV_20210223T004341_20210223T004406_036710_04507D_304C.zip"
    ],
    "sceneName": "S1A_IW_GRDH_1SDV_20210223T004341_20210223T004406_036710_04507D_304C",
    "sensor": "C-SAR",
    "startTime": "2021-02-23T00:43:41Z",
    "stopTime": "2021-02-23T00:44:06Z",
    "url": "https://datapool.asf.alaska.edu/GRD_HD/SA/S1A_IW_GRDH_1SDV_20210223T004341_20210223T004406_036710_04507D_304C.zip"
   },
   "type": "Feature"
  },
  {
   "geometry": {
    "coordinates": [
     [
      [
       79.474823,
       30.622534
      ],
      [
       79.836128,
       28.998127
      ],
      [
       82.38308,
       29.402203
      ],
      [
       82.065727,
       31.024046
      ],
      [
       79.474823,
       30.622534
      ]
     ]
    ],
    "type": "Polygon"
   },
   "properties": {
    "beamModeType": "IW",
    "browse": null,
    "bytes": 4478231716,
    "centerLat": 30.018,
    "centerLon": 80.9375,
    "fileID": "S1A_IW_SLC__1SDV_20210222T123913_20210222T123940_036703_045039_2411-SLC",
    "fileName": "S1A_IW_SLC__1SDV_20210222T123913_20210222T123940_036703_045039_2411.zip",
    "flightDirection": "ASCENDING",
    "frameNumber": 93,
    "granuleType": "SENTINEL_1A_FRAME",
    "groupID": "S1A_IWDV_0093_0099_036703_056",
    "md5sum": "544980ffb9ff3c6a62645549a9c3f1e4",
    "orbit": 36703,
    "pathNumber": 56,
    "pgeVersion": "003.31",
    "platform": "Sentinel-1A",
    "polarization": "VV+VH",
    "processingDate": "2021-02-22T12:39:13Z",
    "processingLevel": "SLC",
    "s3Urls": [
     "s3://asf-ngap2w-p-s1-slc-7b420b89/S1A_IW_SLC__1SDV_20210222T123913_20210222T123940_036703_045039_2411.zip"
    ],
    "sceneName": "S1A_IW_SLC__1SDV_20210222T123913_20210222T123940_036703_045039_2411",
    "sensor": "C-SAR",
    "startTime": "2021-02-22T12:39:13Z",
    "stopTime": "2021-02-22T12:39:40Z",
    "url": "https://datapool.asf.alaska.edu/SLC/SA/S1A_IW_SLC__1SDV_20210222T123913_20210222T123940_036703_045039_2411.zip"
   },
   "type": "Feature"
  },
  {
   "geometry": {
    "coordinates": [
     [
      [
       79.478157,
       30.55505
      ],
      [
       79.756577,
       29.038591
      ],
      [
       82.362221,
       29.452492
      ],
      [
       82.122902,
       30.964945
      ],
      [
       79.478157,
       30.55505
      ]
     ]
    ],
    "type": "Polygon"
   },
   "properties": {
    "beamModeType": "IW",
    "browse": [
     "https://datapool.asf.alaska.edu/BROWSE/SA/S1A_IW_GRDH_1SDV_20210222T123914_20210222T123939_036703_045039_8BF8.jpg"
    ],
    "bytes": 983062967,
    "centerLat": 30.0092,
    "centerLon": 80.927,
    "fileID": "S1A_IW_GRDH_1SDV_20210222T123914_20210222T123939_036703_045039_8BF8-GRD_HD",
    "fileName": "S1A_IW_GRDH_1SDV_20210222T123914_20210222T123939_036703_045039_8BF8.zip",
    "flightDirection": "ASCENDING",
    "frameNumber": 93,
    "granuleType": "SENTINEL_1A_FRAME",
    "groupID": "S1A_IWDV_0093_0099_036703_056",
    "md5sum": "69aee770ea39f1416254916ddcd56b25",
    "orbit": 36703,
    "pathNumber": 56,
    "pgeVersion": "003.31",
    "platform": "Sentinel-1A",
    "polarization": "VV+VH",
    "processingDate": "2021-02-22T12:39:14Z",
    "processingLevel": "GRD_HD",
    "s3Urls": [
     "s3://asf-ngap2w-p-s1-grd-7d1b4348/S1A_IW_GRDH_1SDV_20210222T123914_20210222T123939_036703_045039_8BF8.zip"
    ],
    "sceneName": "S1A_IW_GRDH_1SDV_20210222T123914_20210222T123939_036703_045039_8BF8",
    "sensor": "C-SAR",
    "startTime": "2021-02-22T12:39:14Z",
    "stopTime": "2021-02-22T12:39:39Z",
    "url": "https://datapool.asf.alaska.edu/GRD_HD/SA/S1A_IW_GRDH_1SDV_20210222T123914_20210222T123939_036703_045039_8BF8.zip"
   },
   "type": "Feature"
  },
  {
   "geometry": {
    "coordinates": [
     [
      [
       77.311592,
       30.996008
      ],
      [
       77.687141,
       29.314766
      ],
      [
       80.22348,
       29.715944
      ],
      [
       79.893883,
       31.39464
      ],
      [
       77.311592,
       30.996008
      ]
     ]
    ],
    "type": "Polygon"
   },
   "properties": {
    "beamModeType": "IW",
    "browse": null,
    "bytes": 4661882425,
    "centerLat": 30.3617,
    "centerLon": 78.7767,
    "fileID": "S1B_IW_SLC__1SDH_20210221T124650_20210221T124718_025705_031075_06AF-SLC",
    "fileName": "S1B_IW_SLC__1SDH_20210221T124650_20210221T124718_025705_031075_06AF.zip",
    "flightDirection": "ASCENDING",
    "frameNumber": 94,
    "granuleType": "SENTINEL_1B_FRAME",
    "groupID": "S1B_IWDH_0094_0100_025705_129",
    "md5sum": "43f77da2723272ce161b177a30c71283",
    "orbit": 25705,
    "pathNumber": 129,
    "pgeVersion": "003.31",
    "platform": "Sentinel-1B",
    "polarization": "HH+HV",
    "processingDate": "2021-02-21T12:46:50Z",
    "processingLevel": "SLC",
    "s3Urls": [
     "s3://asf-ngap2w-p-s1-slc-7b420b89/S1B_IW_SLC__1SDH_20210221T124650_20210221T124718_025705_031075_06AF.zip"
    ],
    "sceneName": "S1B_IW_SLC__1SDH_20210221T124650_20210221T124718_025705_031075_06AF",
    "sensor": "C-SAR",
    "startTime": "2021-02-21T12:46:50Z",
    "stopTime": "2021-02-21T12:47:18Z",
    "url": "https://datapool.asf.alaska.edu/SLC/SB/S1B_IW_SLC__1SDH_20210221T124650_20210221T124718_025705_031075_06AF.zip"
   },
   "type": "Feature"
  },
  {
   "geometry": {
    "coordinates": [
     [
      [
       77.305183,
       30.905001
      ],
      [
       77.612297,
       29.393255
      ],
      [
       80.174133,
       29.798861
      ],
      [
       79.906677,
       31.307434
      ],
      [
       77.305183,
       30.905001
      ]
     ]
    ],
    "type": "Polygon"
   },
   "properties": {
    "beamModeType": "IW",
    "browse": [
     "https://datapool.asf.alaska.edu/BROWSE/SB/S1B_IW_GRDH_1SDH_20210221T124652_20210221T124717_025705_031075_66D0.jpg"
    ],
    "bytes": 997401432,
    "centerLat": 30.3574,
    "centerLon": 78.7468,
    "fileID": "S1B_IW_GRDH_1SDH_20210221T124652_20210221T124717_025705_031075_66D0-GRD_HD",
    "fileName": "S1B_IW_GRDH_1SDH_20210221T124652_20210221T124717_025705_031075_66D0.zip",
    "flightDirection": "ASCENDING",
    "frameNumber": 94,
    "granuleType": "SENTINEL_1B_FRAME",
    "groupID": "S1B_IWDH_0094_0100_025705_129",
    "md5sum": "021656a8145b1b6d237210136c668a49",
    "orbit": 25705,
    "pathNumber": 129,
    "pgeVersion": "003.31",
    "platform": "Sentinel-1B",
    "polarization": "HH+HV",
    "processingDate": "2021-02-21T12:46:52Z",
    "processingLevel": "GRD_HD",
    "s3Urls": [
     "s3://asf-ngap2w-p-s1-grd-7d1b4348/S1B_IW_GRDH_1SDH_20210221T124652_20210221T124717_025705_031075_66D0.zip"
    ],
    "sceneName": "S1B_IW_GRDH_1SDH_20210221T124652_20210221T124717_025705_031075_66D0",
    "sensor": "C-SAR",
    "startTime": "2021-02-21T12:46:52Z",
    "stopTime": "2021-02-21T12:47:17Z",
    "url": "https://datapool.asf.alaska.edu/GRD_HD/SB/S1B_IW_GRDH_1SDH_20210221T124652_20210221T124717_025705_031075_66D0.zip"
   },
   "type": "Feature"
  },
  {
   "geometry": {
    "coordinates": [
     [
      [
       81.924644,
       28.529428
      ],
      [
       82.285645,
       30.154377
      ],
      [
       79.698288,
       30.559256
      ],
      [
       79.380386,
       28.936855
      ],
      [
       81.924644,
       28.529428
      ]
     ]
    ],
    "type": "Polygon"
   },
   "properties": {
    "beamModeType": "IW",
    "browse": null,
    "bytes": 4454366022,
    "centerLat": 29.5512,
    "centerLon": 80.8247,
    "fileID": "S1A_IW_SLC__1SDV_20210218T003533_20210218T003600_036637_044DFD_5A32-SLC",
    "fileName": "S1A_IW_SLC__1SDV_20210218T003533_20210218T003600_036637_044DFD_5A32.zip",
    "flightDirection": "DESCENDING",
    "frameNumber": 494,
    "granuleType": "SENTINEL_1A_FRAME",
    "groupID": "S1A_IWDV_0493_0499_036637_165",
    "md5sum": "ce6e8ab3bb0ae12c6e255d079f5ee24c",
    "orbit": 36637,
    "pathNumber": 165,
    "pgeVersion": "003.31",
    "platform": "Sentinel-1A",
    "polarization": "VV+VH",
    "processingDate": "2021-02-18T00:35:33Z",
    "processingLevel": "SLC",
    "s3Urls": [
     "s3://asf-ngap2w-p-s1-slc-7b420b89/S1A_IW_SLC__1SDV_20210218T003533_20210218T003600_036637_044DFD_5A32.zip"
    ],
    "sceneName": "S1A_IW_SLC__1SDV_20210218T003533_20210218T003600_036637_044DFD_5A32",
    "sensor": "C-SAR",
    "startTime": "2021-02-18T00:35:33Z",
    "stopTime": "2021-02-18T00:36:00Z",
    "url": "https://datapool.asf.alaska.edu/SLC/SA/S1A_IW_SLC__1SDV_20210218T003533_20210218T003600_036637_044DFD_5A32.zip"
   },
   "type": "Feature"
  },
  {
   "geometry": {
    "coordinates": [
     [
      [
       81.951645,
       28.604469
      ],
      [
       82.209976,
       30.124418
      ],
      [
       79.613045,
       30.529516
      ],
      [
       79.392258,
       29.013948
      ],
      [
       81.951645,
       28.604469
      ]
     ]
    ],
    "type": "Polygon"
   },
   "properties": {
    "beamModeType": "IW",
    "browse": [
     "https://datapool.asf.alaska.edu/BROWSE/SA/S1A_IW_GRDH_1SDV_20210218T003534_20210218T003559_036637_044DFD_04A7.jpg"
    ],
    "bytes": 971824860,
    "centerLat": 29.5742,
    "centerLon": 80.7946,
    "fileID": "S1A_IW_GRDH_1SDV_20210218T003534_20210218T003559_036637_044DFD_04A7-GRD_HD",
    "fileName": "S1A_IW_GRDH_1SDV_20210218T003534_20210218T003559_036637_044DFD_04A7.zip",
    "flightDirection": "DESCENDING",
    "frameNumber": 494,
    "granuleType": "SENTINEL_1A_FRAME",
    "groupID": "S1A_IWDV_0493_0499_036637_165",
    "md5sum": "cdc5614f858d3f8047e4e330037388c8",
    "orbit": 36637,
    "pathNumber": 165,
    "pgeVersion": "003.31",
    "platform": "Sentinel-1A",
    "polarization": "VV+VH",
    "processingDate": "2021-02-18T00:35:34Z",
    "processingLevel": "GRD_HD",
    "s3Urls": [
     "s3://asf-ngap2w-p-s1-grd-7d1b4348/S1A_IW_GRDH_1SDV_20210218T003534_20210218T003559_036637_044DFD_04A7.zip"
    ],
    "sceneName": "S1A_IW_GRDH_1SDV_20210218T003534_20210218T003559_036637_044DFD_04A7",
    "sensor": "C-SAR",
    "startTime": "2021-02-18T00:35:34Z",
    "stopTime": "2021-02-18T00:35:59Z",
    "url": "https://datapool.asf.alaska.edu/GRD_HD/SA/S1A_IW_GRDH_1SDV_20210218T003534_20210218T003559_036637_044DFD_04A7.zip"
   },
   "type": "Feature"
  },
  {
   "geometry": {
    "coordinates": [
     [
      [
       82.203781,
       30.035114
      ],
      [
       82.581573,
       31.715952
      ],
      [
       79.972214,
       32.114185
      ],
      [
       79.642113,
       30.435833
      ],
      [
       82.203781,
       30.035114
      ]
     ]
    ],
    "type": "Polygon"
   },
   "properties": {
    "beamModeType": "IW",
    "browse": null,
    "bytes": 4549666366,
    "centerLat": 31.0818,
    "centerLon": 81.1023,
    "fileID": "S1A_IW_SLC__1SDV_20210218T003507_20210218T003535_036637_044DFD_DF4E-SLC",
    "fileName": "S1A_IW_SLC__1SDV_20210218T003507_20210218T003535_036637_044DFD_DF4E.zip",
    "flightDirection": "DESCENDING",
    "frameNumber": 488,
    "granuleType": "SENTINEL_1A_FRAME",
    "groupID": "S1A_IWDV_0488_0494_036637_165",
    "md5sum": "0630bfedfd5811d54d384aa619929dbe",
    "orbit": 36637,
    "pathNumber": 165,
    "pgeVersion": "003.31",
    "platform": "Sentinel-1A",
    "polarization": "VV+VH",
    "processingDate": "2021-02-18T00:35:07Z",
    "processingLevel": "SLC",
    "s3Urls": [
     "s3://asf-ngap2w-p-s1-slc-7b420b89/S1A_IW_SLC__1SDV_20210218T003507_20210218T003535_036637_044DFD_DF4E.zip"
    ],
    "sceneName": "S1A_IW_SLC__1SDV_20210218T003507_20210218T003535_036637_044DFD_DF4E",
    "sensor": "C-SAR",
    "startTime": "2021-02-18T00:35:07Z",
    "stopTime": "2021-02-18T00:35:35Z",
    "url": "https://datapool.asf.alaska.edu/SLC/SA/S1A_IW_SLC__1SDV_20210218T003507_20210218T003535_036637_044DFD_DF4E.zip"
   },
   "type": "Feature"
  },
  {
   "geometry": {
    "coordinates": [
     [
      [
       80.017334,
       29.256344
      ],
      [
       80.393188,
       30.937311
      ],
      [
       77.799774,
       31.338509
      ],
      [
       77.469948,
       29.66007
      ],
      [
       80.017334,
       29.256344
      ]
     ]
    ],
    "type": "Polygon"
   },
   "properties": {
    "beamModeType": "IW",
    "browse": null,
    "bytes": 4611024413,
    "centerLat": 30.3044,
    "centerLon": 78.9224,
    "fileID": "S1B_IW_SLC__1SDV_20210217T004252_20210217T004320_025639_030E56_1416-SLC",
    "fileName": "S1B_IW_SLC__1SDV_20210217T004252_20210217T004320_025639_030E56_1416.zip",
    "flightDirection": "DESCENDING",
    "frameNumber": 491,
    "granuleType": "SENTINEL_1B_FRAME",
    "groupID": "S1B_IWDV_0491_0497_025639_063",
    "md5sum": "b5950ac1d627f1b046c5d5a6cd5421a1",
    "orbit": 25639,
    "pathNumber": 63,
    "pgeVersion": "003.31",
    "platform": "Sentinel-1B",
    "polarization": "VV+VH",
    "processingDate": "2021-02-17T00:42:52Z",
    "processingLevel": "SLC",
    "s3Urls": [
     "s3://asf-ngap2w-p-s1-slc-7b420b89/S1B_IW_SLC__1SDV_20210217T004252_20210217T004320_025639_030E56_1416.zip"
    ],
    "sceneName": "S1B_IW_SLC__1SDV_20210217T004252_20210217T004320_025639_030E56_1416",
    "sensor": "C-SAR",
    "startTime": "2021-02-17T00:42:52Z",
    "stopTime": "2021-02-17T00:43:20Z",
    "url": "https://datapool.asf.alaska.edu/SLC/SB/S1B_IW_SLC__1SDV_20210217T004252_20210217T004320_025639_030E56_1416.zip"
   },
   "type": "Feature"
  },
  {
   "geometry": {
    "coordinates": [
     [
      [
       80.036407,
       29.343336
      ],
      [
       80.306656,
       30.861145
      ],
      [
       77.712677,
       31.261477
      ],
      [
       77.481216,
       29.747738
      ],
      [
       80.036407,
       29.343336
      ]
     ]
    ],
    "type": "Polygon"
   },
   "properties": {
    "beamModeType": "IW",
    "browse": [
     "https://datapool.asf.alaska.edu/BROWSE/SB/S1B_IW_GRDH_1SDV_20210217T004254_20210217T004319_025639_030E56_F386.jpg"
    ],
    "bytes": 975451776,
    "centerLat": 30.3096,
    "centerLon": 78.8871,
    "fileID": "S1B_IW_GRDH_1SDV_20210217T004254_20210217T004319_025639_030E56_F386-GRD_HD",
    "fileName": "S1B_IW_GRDH_1SDV_20210217T004254_20210217T004319_025639_030E56_F386.zip",
    "flightDirection": "DESCENDING",
    "frameNumber": 491,
    "granuleType": "SENTINEL_1B_FRAME",
    "groupID": "S1B_IWDV_0491_0497_025639_063",
    "md5sum": "8f8c73e68e50b75b79597427415d04e1",
    "orbit": 25639,
    "pathNumber": 63,
    "pgeVersion": "003.31",
    "platform": "Sentinel-1B",
    "polarization": "VV+VH",
    "processingDate": "2021-02-17T00:42:54Z",
    "processingLevel": "GRD_HD",
    "s3Urls": [
     "s3://asf-ngap2w-p-s1-grd-7d1b4348/S1B_IW_GRDH_1SDV_20210217T004254_20210217T004319_025639_030E56_F386.zip"
    ],
    "sceneName": "S1B_IW_GRDH_1SDV_20210217T004254_20210217T004319_025639_030E56_F386",
    "sensor": "C-SAR",
    "startTime": "2021-02-17T00:42:54Z",
    "stopTime": "2021-02-17T00:43:19Z",
    "url": "https://datapool.asf.alaska.edu/GRD_HD/SB/S1B_IW_GRDH_1SDV_20210217T004254_20210217T004319_025639_030E56_F386.zip"
   },
   "type": "Feature"
  },
  {
   "geometry": {
    "coordinates": [
     [
      [
       79.373032,
       31.072205
      ],
      [
       79.552483,
       30.271843
      ],
      [
       82.102226,
       30.669333
      ],
      [
       81.945099,
       31.468508
      ],
      [
       79.373032,
       31.072205
      ]
     ]
    ],
    "type": "Polygon"
   },
   "properties": {
    "beamModeType": "IW",
    "browse": null,
    "bytes": 1926738114,
    "centerLat": 30.8767,
    "centerLon": 80.7397,
    "fileID": "S1B_IW_SLC__1SDV_20210216T123852_20210216T123906_025632_030E0D_6340-SLC",
    "fileName": "S1B_IW_SLC__1SDV_20210216T123852_20210216T123906_025632_030E0D_6340.zip",
    "flightDirection": "ASCENDING",
    "frameNumber": 97,
    "granuleType": "SENTINEL_1B_FRAME",
    "groupID": "S1B_IWDV_0097_0100_025632_056",
    "md5sum": "414c5535c84ca8b46570079d6488f058",
    "orbit": 25632,
    "pathNumber": 56,
    "pgeVersion": "003.31",
    "platform": "Sentinel-1B",
    "polarization": "VV+VH",
    "processingDate": "2021-02-16T12:38:52Z",
    "processingLevel": "SLC",
    "s3Urls": [
     "s3://asf-ngap2w-p-s1-slc-7b420b89/S1B_IW_SLC__1SDV_20210216T123852_20210216T123906_025632_030E0D_6340.zip"
    ],
    "sceneName": "S1B_IW_SLC__1SDV_20210216T123852_20210216T123906_025632_030E0D_6340",
    "sensor": "C-SAR",
    "startTime": "2021-02-16T12:38:52Z",
    "stopTime": "2021-02-16T12:39:06Z",
    "url": "https://datapool.asf.alaska.edu/SLC/SB/S1B_IW_SLC__1SDV_20210216T123852_20210216T123906_025632_030E0D_6340.zip"
   },
   "type": "Feature"
  },
  {
   "geometry": {
    "coordinates": [
     [
      [
       79.374519,
       31.071766
      ],
      [
       79.529228,
       30.358646
      ],
      [
       82.10955,
       30.760176
      ],
      [
       81.974007,
       31.471975
      ],
      [
       79.374519,
       31.071766
      ]
     ]
    ],
    "type": "Polygon"
   },
   "properties": {
    "beamModeType": "IW",
    "browse": [
     "https://datapool.asf.alaska.edu/BROWSE/SB/S1B_IW_GRDH_1SDV_20210216T123854_20210216T123906_025632_030E0D_9E9A.jpg"
    ],
    "bytes": 406315153,
    "centerLat": 30.922,
    "centerLon": 80.7431,
    "fileID": "S1B_IW_GRDH_1SDV_20210216T123854_20210216T123906_025632_030E0D_9E9A-GRD_HD",
    "fileName": "S1B_IW_GRDH_1SDV_20210216T123854_20210216T123906_025632_030E0D_9E9A.zip",
    "flightDirection": "ASCENDING",
    "frameNumber": 98,
    "granuleType": "SENTINEL_1B_FRAME",
    "groupID": "S1B_IWDV_0097_0100_025632_056",
    "md5sum": "4b5a7f6b8c94e9d4c273eecb56e85493",
    "orbit": 25632,
    "pathNumber": 56,
    "pgeVersion": "003.31",
    "platform": "Sentinel-1B",
    "polarization": "VV+VH",
    "processingDate": "2021-02-16T12:38:54Z",
    "processingLevel": "GRD_HD",
    "s3Urls": [
     "s3://asf-ngap2w-p-s1-grd-7d1b4348/S1B_IW_GRDH_1SDV_20210216T123854_20210216T123906_025632_030E0D_9E9A.zip"
    ],
    "sceneName": "S1B_IW_GRDH_1SDV_20210216T123854_20210216T123906_025632_030E0D_9E9A",
    "sensor": "C-SAR",
    "startTime": "2021-02-16T12:38:54Z",
    "stopTime": "2021-02-16T12:39:06Z",
    "url": "https://datapool.asf.alaska.edu/GRD_HD/SB/S1B_IW_GRDH_1SDV_20210216T123854_20210216T123906_025632_030E0D_9E9A.zip"
   },
   "type": "Feature"
  },
  {
   "geometry": {
    "coordinates": [
     [
      [
       79.522263,
       30.406746
      ],
      [
       79.921066,
       28.608965
      ],
      [
       82.4272,
       29.009073
      ],
      [
       82.075729,
       30.804037
      ],
      [
       79.522263,
       30.406746
      ]
     ]
    ],
    "type": "Polygon"
   },
   "properties": {
    "beamModeType": "IW",
    "browse": null,
    "bytes": 4947891532,
    "centerLat": 29.7134,
    "centerLon": 80.9845,
    "fileID": "S1B_IW_SLC__1SDV_20210216T123825_20210216T123855_025632_030E0D_B4DE-SLC",
    "fileName": "S1B_IW_SLC__1SDV_20210216T123825_20210216T123855_025632_030E0D_B4DE.zip",
    "flightDirection": "ASCENDING",
    "frameNumber": 92,
    "granuleType": "SENTINEL_1B_FRAME",
    "groupID": "S1B_IWDV_0092_0098_025632_056",
    "md5sum": "feebb46a3abf341ecbba3a78f5830819",
    "orbit": 25632,
    "pathNumber": 56,
    "pgeVersion": "003.31",
    "platform": "Sentinel-1B",
    "polarization": "VV+VH",
    "processingDate": "2021-02-16T12:38:25Z",
    "processingLevel": "SLC",
    "s3Urls": [
     "s3://asf-ngap2w-p-s1-slc-7b420b89/S1B_IW_SLC__1SDV_20210216T123825_20210216T123855_025632_030E0D_B4DE.zip"
    ],
    "sceneName": "S1B_IW_SLC__1SDV_20210216T123825_20210216T123855_025632_030E0D_B4DE",
    "sensor": "C-SAR",
    "startTime": "2021-02-16T12:38:25Z",
    "stopTime": "2021-02-16T12:38:55Z",
    "url": "https://datapool.asf.alaska.edu/SLC/SB/S1B_IW_SLC__1SDV_20210216T123825_20210216T123855_025632_030E0D_B4DE.zip"
   },
   "type": "Feature"
  },
  {
   "geometry": {
    "coordinates": [
     [
      [
       79.529243,
       30.358557
      ],
      [
       79.847046,
       28.597126
      ],
      [
       82.383728,
       29.003279
      ],
      [
       82.109566,
       30.760084
      ],
      [
       79.529243,
       30.358557
      ]
     ]
    ],
    "type": "Polygon"
   },
   "properties": {
    "beamModeType": "IW",
    "browse": [
     "https://datapool.asf.alaska.edu/BROWSE/SB/S1B_IW_GRDH_1SDV_20210216T123825_20210216T123854_025632_030E0D_1190.jpg"
    ],
    "bytes": 1107842313,
    "centerLat": 29.6858,
    "centerLon": 80.9649,
    "fileID": "S1B_IW_GRDH_1SDV_20210216T123825_20210216T123854_025632_030E0D_1190-GRD_HD",
    "fileName": "S1B_IW_GRDH_1SDV_20210216T123825_20210216T123854_025632_030E0D_1190.zip",
    "flightDirection": "ASCENDING",
    "frameNumber": 92,
    "granuleType": "SENTINEL_1B_FRAME",
    "groupID": "S1B_IWDV_0092_0098_025632_056",
    "md5sum": "9c29649af1bca877bf5f84bb0c3bd964",
    "orbit": 25632,
    "pathNumber": 56,
    "pgeVersion": "003.31",
    "platform": "Sentinel-1B",
    "polarization": "VV+VH",
    "processingDate": "2021-02-16T12:38:25Z",
    "processingLevel": "GRD_HD",
    "s3Urls": [
     "s3://asf-ngap2w-p-s1-grd-7d1b4348/S1B_IW_GRDH_1SDV_20210216T123825_20210216T123854_025632_030E0D_1190.zip"
    ],
    "sceneName": "S1B_IW_GRDH_1SDV_20210216T123825_20210216T123854_025632_030E0D_1190",
    "sensor": "C-SAR",
    "startTime": "2021-02-16T12:38:25Z",
    "stopTime": "2021-02-16T12:38:54Z",
    "url": "https://datapool.asf.alaska.edu/GRD_HD/SB/S1B_IW_GRDH_1SDV_20210216T123825_20210216T123854_025632_030E0D_1190.zip"
   },
   "type": "Feature"
  },
  {
   "geometry": {
    "coordinates": [
     [
      [
       77.427795,
       30.325691
      ],
      [
       77.789154,
       28.701012
      ],
      [
       80.347038,
       29.109356
      ],
      [
       80.029343,
       30.731482
      ],
      [
       77.427795,
       30.325691
      ]
     ]
    ],
    "type": "Polygon"
   },
   "properties": {
    "beamModeType": "IW",
    "browse": null,
    "bytes": 4507656635,
    "centerLat": 29.7232,
    "centerLon": 78.8958,
    "fileID": "S1A_IW_SLC__1SDV_20210215T124722_20210215T124749_036601_044CC9_26C2-SLC",
    "fileName": "S1A_IW_SLC__1SDV_20210215T124722_20210215T124749_036601_044CC9_26C2.zip",
    "flightDirection": "ASCENDING",
    "frameNumber": 92,
    "granuleType": "SENTINEL_1A_FRAME",
    "groupID": "S1A_IWDV_0092_0098_036601_129",
    "md5sum": "20111865332680b3916fc8944a37558d",
    "orbit": 36601,
    "pathNumber": 129,
    "pgeVersion": "003.31",
    "platform": "Sentinel-1A",
    "polarization": "VV+VH",
    "processingDate": "2021-02-15T12:47:22Z",
    "processingLevel": "SLC",
    "s3Urls": [
     "s3://asf-ngap2w-p-s1-slc-7b420b89/S1A_IW_SLC__1SDV_20210215T124722_20210215T124749_036601_044CC9_26C2.zip"
    ],
    "sceneName": "S1A_IW_SLC__1SDV_20210215T124722_20210215T124749_036601_044CC9_26C2",
    "sensor": "C-SAR",
    "startTime": "2021-02-15T12:47:22Z",
    "stopTime": "2021-02-15T12:47:49Z",
    "url": "https://datapool.asf.alaska.edu/SLC/SA/S1A_IW_SLC__1SDV_20210215T124722_20210215T124749_036601_044CC9_26C2.zip"
   },
   "type": "Feature"
  },
  {
   "geometry": {
    "coordinates": [
     [
      [
       77.428062,
       30.246563
      ],
      [
       77.754242,
       28.737951
      ],
      [
       80.346596,
       29.151743
      ],
      [
       80.059822,
       30.657536
      ],
      [
       77.428062,
       30.246563
      ]
     ]
    ],
    "type": "Polygon"
   },
   "properties": {
    "beamModeType": "IW",
    "browse": [
     "https://datapool.asf.alaska.edu/BROWSE/SA/S1A_IW_GRDH_1SDV_20210215T124723_20210215T124748_036601_044CC9_5E10.jpg"
    ],
    "bytes": 979230724,
    "centerLat": 29.7048,
    "centerLon": 78.8944,
    "fileID": "S1A_IW_GRDH_1SDV_20210215T124723_20210215T124748_036601_044CC9_5E10-GRD_HD",
    "fileName": "S1A_IW_GRDH_1SDV_20210215T124723_20210215T124748_036601_044CC9_5E10.zip",
    "flightDirection": "ASCENDING",
    "frameNumber": 92,
    "granuleType": "SENTINEL_1A_FRAME",
    "groupID": "S1A_IWDV_0092_0098_036601_129",
    "md5sum": "aa6462d9bf8f396f05299c23b6f7e72b",
    "orbit": 36601,
    "pathNumber": 129,
    "pgeVersion": "003.31",
    "platform": "Sentinel-1A",
    "polarization": "VV+VH",
    "processingDate": "2021-02-15T12:47:23Z",
    "processingLevel": "GRD_HD",
    "s3Urls": [
     "s3://asf-ngap2w-p-s1-grd-7d1b4348/S1A_IW_GRDH_1SDV_20210215T124723_20210215T124748_036601_044CC9_5E10.zip"
    ],
    "sceneName": "S1A_IW_GRDH_1SDV_20210215T124723_20210215T124748_036601_044CC9_5E10",
    "sensor": "C-SAR",
    "startTime": "2021-02-15T12:47:23Z",
    "stopTime": "2021-02-15T12:47:48Z",
    "url": "https://datapool.asf.alaska.edu/GRD_HD/SA/S1A_IW_GRDH_1SDV_20210215T124723_20210215T124748_036601_044CC9_5E10.zip"
   },
   "type": "Feature"
  },
  {
   "geometry": {
    "coordinates": [
     [
      [
       79.971291,
       28.91927
      ],
      [
       80.333847,
       30.544163
      ],
      [
       77.727409,
       30.949963
      ],
      [
       77.408966,
       29.327557
      ],
      [
       79.971291,
       28.91927
      ]
     ]
    ],
    "type": "Polygon"
   },
   "properties": {
    "beamModeType": "IW",
    "browse": null,
    "bytes": 4475318882,
    "centerLat": 29.9416,
    "centerLon": 78.8629,
    "fileID": "S1A_IW_SLC__1SDV_20210211T004341_20210211T004408_036535_044A5F_DDDC-SLC",
    "fileName": "S1A_IW_SLC__1SDV_20210211T004341_20210211T004408_036535_044A5F_DDDC.zip",
    "flightDirection": "DESCENDING",
    "frameNumber": 492,
    "granuleType": "SENTINEL_1A_FRAME",
    "groupID": "S1A_IWDV_0492_0498_036535_063",
    "md5sum": "8ea70f309eb48469d5cacd5e4402dd9a",
    "orbit": 36535,
    "pathNumber": 63,
    "pgeVersion": "003.31",
    "platform": "Sentinel-1A",
    "polarization": "VV+VH",
    "processingDate": "2021-02-11T00:43:41Z",
    "processingLevel": "SLC",
    "s3Urls": [
     "s3://asf-ngap2w-p-s1-slc-7b420b89/S1A_IW_SLC__1SDV_20210211T004341_20210211T004408_036535_044A5F_DDDC.zip"
    ],
    "sceneName": "S1A_IW_SLC__1SDV_20210211T004341_20210211T004408_036535_044A5F_DDDC",
    "sensor": "C-SAR",
    "startTime": "2021-02-11T00:43:41Z",
    "stopTime": "2021-02-11T00:44:08Z",
    "url": "https://datapool.asf.alaska.edu/SLC/SA/S1A_IW_SLC__1SDV_20210211T004341_20210211T004408_036535_044A5F_DDDC.zip"
   },
   "type": "Feature"
  },
  {
   "geometry": {
    "coordinates": [
     [
      [
       79.990669,
       28.994831
      ],
      [
       80.256622,
       30.513453
      ],
      [
       77.648491,
       30.918283
      ],
      [
       77.420799,
       29.403879
      ],
      [
       79.990669,
       28.994831
      ]
     ]
    ],
    "type": "Polygon"
   },
   "properties": {
    "beamModeType": "IW",
    "browse": [
     "https://datapool.asf.alaska.edu/BROWSE/SA/S1A_IW_GRDH_1SDV_20210211T004342_20210211T004407_036535_044A5F_206A.jpg"
    ],
    "bytes": 966033736,
    "centerLat": 29.9638,
    "centerLon": 78.8321,
    "fileID": "S1A_IW_GRDH_1SDV_20210211T004342_20210211T004407_036535_044A5F_206A-GRD_HD",
    "fileName": "S1A_IW_GRDH_1SDV_20210211T004342_20210211T004407_036535_044A5F_206A.zip",
    "flightDirection": "DESCENDING",
    "frameNumber": 492,
    "granuleType": "SENTINEL_1A_FRAME",
    "groupID": "S1A_IWDV_0492_0498_036535_063",
    "md5sum": "4210405b479994162328ca0db7428f27",
    "orbit": 36535,
    "pathNumber": 63,
    "pgeVersion": "003.31",
    "platform": "Sentinel-1A",
    "polarization": "VV+VH",
    "processingDate": "2021-02-11T00:43:42Z",
    "processingLevel": "GRD_HD",
    "s3Urls": [
     "s3://asf-ngap2w-p-s1-grd-7d1b4348/S1A_IW_GRDH_1SDV_20210211T004342_20210211T004407_036535_044A5F_206A.zip"
    ],
    "sceneName": "S1A_IW_GRDH_1SDV_20210211T004342_20210211T004407_036535_044A5F_206A",
    "sensor": "C-SAR",
    "startTime": "2021-02-11T00:43:42Z",
    "stopTime": "2021-02-11T00:44:07Z",
    "url": "https://datapool.asf.alaska.edu/GRD_HD/SA/S1A_IW_GRDH_1SDV_20210211T004342_20210211T004407_036535_044A5F_206A.zip"
   },
   "type": "Feature"
  },
  {
   "geometry": {
    "coordinates": [
     [
      [
       79.4748,
       30.622583
      ],
      [
       79.836121,
       28.997923
      ],
      [
       82.383064,
       29.401937
      ],
      [
       82.065697,
       31.024035
      ],
      [
       79.4748,
       30.622583
      ]
     ]
    ],
    "type": "Polygon"
   },
   "properties": {
    "beamModeType": "IW",
    "browse": null,
    "bytes": 4472904013,
    "centerLat": 30.0179,
    "centerLon": 80.9375,
    "fileID": "S1A_IW_SLC__1SDV_20210210T123913_20210210T123940_036528_044A1E_ECE8-SLC",
    "fileName": "S1A_IW_SLC__1SDV_20210210T123913_20210210T123940_036528_044A1E_ECE8.zip",
    "flightDirection": "ASCENDING",
    "frameNumber": 93,
    "granuleType": "SENTINEL_1A_FRAME",
    "groupID": "S1A_IWDV_0093_0099_036528_056",
    "md5sum": "3aa0e6c60c30fffab6807daf02888142",
    "orbit": 36528,
    "pathNumber": 56,
    "pgeVersion": "003.31",
    "platform": "Sentinel-1A",
    "polarization": "VV+VH",
    "processingDate": "2021-02-10T12:39:13Z",
    "processingLevel": "SLC",
    "s3Urls": [
     "s3://asf-ngap2w-p-s1-slc-7b420b89/S1A_IW_SLC__1SDV_20210210T123913_20210210T123940_036528_044A1E_ECE8.zip"
    ],
    "sceneName": "S1A_IW_SLC__1SDV_20210210T123913_20210210T123940_036528_044A1E_ECE8",
    "sensor": "C-SAR",
    "startTime": "2021-02-10T12:39:13Z",
    "stopTime": "2021-02-10T12:39:40Z",
    "url": "https://datapool.asf.alaska.edu/SLC/SA/S1A_IW_SLC__1SDV_20210210T123913_20210210T123940_036528_044A1E_ECE8.zip"
   },
   "type": "Feature"
  },
  {
   "geometry": {
    "coordinates": [
     [
      [
       79.478157,
       30.555099
      ],
      [
       79.756538,
       29.038639
      ],
      [
       82.362297,
       29.452494
      ],
      [
       82.123024,
       30.964949
      ],
      [
       79.478157,
       30.555099
      ]
     ]
    ],
    "type": "Polygon"
   },
   "properties": {
    "beamModeType": "IW",
    "browse": [
     "https://datapool.asf.alaska.edu/BROWSE/SA/S1A_IW_GRDH_1SDV_20210210T123914_20210210T123939_036528_044A1E_E044.jpg"
    ],
    "bytes": 982124031,
    "centerLat": 30.0092,
    "centerLon": 80.927,
    "fileID": "S1A_IW_GRDH_1SDV_20210210T123914_20210210T123939_036528_044A1E_E044-GRD_HD",
    "fileName": "S1A_IW_GRDH_1SDV_20210210T123914_20210210T123939_036528_044A1E_E044.zip",
    "flightDirection": "ASCENDING",
    "frameNumber": 93,
    "granuleType": "SENTINEL_1A_FRAME",
    "groupID": "S1A_IWDV_0093_0099_036528_056",
    "md5sum": "9978b950b5bc78314b9b27dd0ad5c73f",
    "orbit": 36528,
    "pathNumber": 56,
    "pgeVersion": "003.31",
    "platform": "Sentinel-1A",
    "polarization": "VV+VH",
    "processingDate": "2021-02-10T12:39:14Z",
    "processingLevel": "GRD_HD",
    "s3Urls": [
     "s3://asf-ngap2w-p-s1-grd-7d1b4348/S1A_IW_GRDH_1SDV_20210210T123914_20210210T123939_036528_044A1E_E044.zip"
    ],
    "sceneName": "S1A_IW_GRDH_1SDV_20210210T123914_20210210T123939_036528_044A1E_E044",
    "sensor": "C-SAR",
    "startTime": "2021-02-10T12:39:14Z",
    "stopTime": "2021-02-10T12:39:39Z",
    "url": "https://datapool.asf.alaska.edu/GRD_HD/SA/S1A_IW_GRDH_1SDV_20210210T123914_20210210T123939_036528_044A1E_E044.zip"
   },
   "type": "Feature"
  },
  {
   "geometry": {
    "coordinates": [
     [
      [
       81.924377,
       28.529778
      ],
      [
       82.28537,
       30.15472
      ],
      [
       79.697914,
       30.559597
      ],
      [
       79.380028,
       28.937202
      ],
      [
       81.924377,
       28.529778
      ]
     ]
    ],
    "type": "Polygon"
   },
   "properties": {
    "beamModeType": "IW",
    "browse": null,
    "bytes": 4455739452,
    "centerLat": 29.5516,
    "centerLon": 80.8244,
    "fileID": "S1A_IW_SLC__1SDV_20210206T003534_20210206T003601_036462_0447DA_0F6E-SLC",
    "fileName": "S1A_IW_SLC__1SDV_20210206T003534_20210206T003601_036462_0447DA_0F6E.zip",
    "flightDirection": "DESCENDING",
    "frameNumber": 494,
    "granuleType": "SENTINEL_1A_FRAME",
    "groupID": "S1A_IWDV_0493_0499_036462_165",
    "md5sum": "20f4da0fb92a8349b4b8a9b7b9c6bdc1",
    "orbit": 36462,
    "pathNumber": 165,
    "pgeVersion": "003.31",
    "platform": "Sentinel-1A",
    "polarization": "VV+VH",
    "processingDate": "2021-02-06T00:35:34Z",
    "processingLevel": "SLC",
    "s3Urls": [
     "s3://asf-ngap2w-p-s1-slc-7b420b89/S1A_IW_SLC__1SDV_20210206T003534_20210206T003601_036462_0447DA_0F6E.zip"
    ],
    "sceneName": "S1A_IW_SLC__1SDV_20210206T003534_20210206T003601_036462_0447DA_0F6E",
    "sensor": "C-SAR",
    "startTime": "2021-02-06T00:35:34Z",
    "stopTime": "2021-02-06T00:36:01Z",
    "url": "https://datapool.asf.alaska.edu/SLC/SA/S1A_IW_SLC__1SDV_20210206T003534_20210206T003601_036462_0447DA_0F6E.zip"
   },
   "type": "Feature"
  },
  {
   "geometry": {
    "coordinates": [
     [
      [
       81.951332,
       28.604519
      ],
      [
       82.209618,
       30.12438
      ],
      [
       79.612587,
       30.52948
      ],
      [
       79.391838,
       29.014002
      ],
      [
       81.951332,
       28.604519
      ]
     ]
    ],
    "type": "Polygon"
   },
   "properties": {
    "beamModeType": "IW",
    "browse": [
     "https://datapool.asf.alaska.edu/BROWSE/SA/S1A_IW_GRDH_1SDV_20210206T003534_20210206T003559_036462_0447DA_DDEA.jpg"
    ],
    "bytes": 973845894,
    "centerLat": 29.5742,
    "centerLon": 80.7943,
    "fileID": "S1A_IW_GRDH_1SDV_20210206T003534_20210206T003559_036462_0447DA_DDEA-GRD_HD",
    "fileName": "S1A_IW_GRDH_1SDV_20210206T003534_20210206T003559_036462_0447DA_DDEA.zip",
    "flightDirection": "DESCENDING",
    "frameNumber": 494,
    "granuleType": "SENTINEL_1A_FRAME",
    "groupID": "S1A_IWDV_0493_0499_036462_165",
    "md5sum": "906ae03520e8dec09a22919074061420",
    "orbit": 36462,
    "pathNumber": 165,
    "pgeVersion": "003.31",
    "platform": "Sentinel-1A",
    "polarization": "VV+VH",
    "processingDate": "2021-02-06T00:35:34Z",
    "processingLevel": "GRD_HD",
    "s3Urls": [
     "s3://asf-ngap2w-p-s1-grd-7d1b4348/S1A_IW_GRDH_1SDV_20210206T003534_20210206T003559_036462_0447DA_DDEA.zip"
    ],
    "sceneName": "S1A_IW_GRDH_1SDV_20210206T003534_20210206T003559_036462_0447DA_DDEA",
    "sensor": "C-SAR",
    "startTime": "2021-02-06T00:35:34Z",
    "stopTime": "2021-02-06T00:35:59Z",
    "url": "https://datapool.asf.alaska.edu/GRD_HD/SA/S1A_IW_GRDH_1SDV_20210206T003534_20210206T003559_036462_0447DA_DDEA.zip"
   },
   "type": "Feature"
  },
  {
   "geometry": {
    "coordinates": [
     [
      [
       82.203499,
       30.035458
      ],
      [
       82.581261,
       31.716166
      ],
      [
       79.971809,
       32.114399
      ],
      [
       79.641747,
       30.436176
      ],
      [
       82.203499,
       30.035458
      ]
     ]
    ],
    "type": "Polygon"
   },
   "properties": {
    "beamModeType": "IW",
    "browse": null,
    "bytes": 4535103395,
    "centerLat": 31.0821,
    "centerLon": 81.102,
    "fileID": "S1A_IW_SLC__1SDV_20210206T003508_20210206T003536_036462_0447DA_0DC5-SLC",
    "fileName": "S1A_IW_SLC__1SDV_20210206T003508_20210206T003536_036462_0447DA_0DC5.zip",
    "flightDirection": "DESCENDING",
    "frameNumber": 488,
    "granuleType": "SENTINEL_1A_FRAME",
    "groupID": "S1A_IWDV_0488_0494_036462_165",
    "md5sum": "8fcc531639ec0ab109916009c72e329a",
    "orbit": 36462,
    "pathNumber": 165,
    "pgeVersion": "003.31",
    "platform": "Sentinel-1A",
    "polarization": "VV+VH",
    "processingDate": "2021-02-06T00:35:08Z",
    "processingLevel": "SLC",
    "s3Urls": [
     "s3://asf-ngap2w-p-s1-slc-7b420b89/S1A_IW_SLC__1SDV_20210206T003508_20210206T003536_036462_0447DA_0DC5.zip"
    ],
    "sceneName": "S1A_IW_SLC__1SDV_20210206T003508_20210206T003536_036462_0447DA_0DC5",
    "sensor": "C-SAR",
    "startTime": "2021-02-06T00:35:08Z",
    "stopTime": "2021-02-06T00:35:36Z",
    "url": "https://datapool.asf.alaska.edu/SLC/SA/S1A_IW_SLC__1SDV_20210206T003508_20210206T003536_036462_0447DA_0DC5.zip"
   },
   "type": "Feature"
  },
  {
   "geometry": {
    "coordinates": [
     [
      [
       77.42762,
       30.325811
      ],
      [
       77.78904,
       28.701015
      ],
      [
       80.346939,
       29.109398
      ],
      [
       80.029182,
       30.731644
      ],
      [
       77.42762,
       30.325811
      ]
     ]
    ],
    "type": "Polygon"
   },
   "properties": {
    "beamModeType": "IW",
    "browse": null,
    "bytes": 4516729360,
    "centerLat": 29.7233,
    "centerLon": 78.8957,
    "fileID": "S1A_IW_SLC__1SDV_20210203T124722_20210203T124749_036426_0446AB_FD12-SLC",
    "fileName": "S1A_IW_SLC__1SDV_20210203T124722_20210203T124749_036426_0446AB_FD12.zip",
    "flightDirection": "ASCENDING",
    "frameNumber": 92,
    "granuleType": "SENTINEL_1A_FRAME",
    "groupID": "S1A_IWDV_0092_0098_036426_129",
    "md5sum": "e5c4f54fb2e3aed5e560407b2d606fd9",
    "orbit": 36426,
    "pathNumber": 129,
    "pgeVersion": "003.31",
    "platform": "Sentinel-1A",
    "polarization": "VV+VH",
    "processingDate": "2021-02-03T12:47:22Z",
    "processingLevel": "SLC",
    "s3Urls": [
     "s3://asf-ngap2w-p-s1-slc-7b420b89/S1A_IW_SLC__1SDV_20210203T124722_20210203T124749_036426_0446AB_FD12.zip"
    ],
    "sceneName": "S1A_IW_SLC__1SDV_20210203T124722_20210203T124749_036426_0446AB_FD12",
    "sensor": "C-SAR",
    "startTime": "2021-02-03T12:47:22Z",
    "stopTime": "2021-02-03T12:47:49Z",
    "url": "https://datapool.asf.alaska.edu/SLC/SA/S1A_IW_SLC__1SDV_20210203T124722_20210203T124749_036426_0446AB_FD12.zip"
   },
   "type": "Feature"
  },
  {
   "geometry": {
    "coordinates": [
     [
      [
       77.427933,
       30.246477
      ],
      [
       77.754128,
       28.737959
      ],
      [
       80.346481,
       29.151787
      ],
      [
       80.059685,
       30.657486
      ],
      [
       77.427933,
       30.246477
      ]
     ]
    ],
    "type": "Polygon"
   },
   "properties": {
    "beamModeType": "IW",
    "browse": [
     "https://datapool.asf.alaska.edu/BROWSE/SA/S1A_IW_GRDH_1SDV_20210203T124723_20210203T124748_036426_0446AB_4876.jpg"
    ],
    "bytes": 982106173,
    "centerLat": 29.7048,
    "centerLon": 78.8943,
    "fileID": "S1A_IW_GRDH_1SDV_20210203T124723_20210203T124748_036426_0446AB_4876-GRD_HD",
    "fileName": "S1A_IW_GRDH_1SDV_20210203T124723_20210203T124748_036426_0446AB_4876.zip",
    "flightDirection": "ASCENDING",
    "frameNumber": 92,
    "granuleType": "SENTINEL_1A_FRAME",
    "groupID": "S1A_IWDV_0092_0098_036426_129",
    "md5sum": "00ce8c0d9c8bf8d76cf7927c2385c1e9",
    "orbit": 36426,
    "pathNumber": 129,
    "pgeVersion": "003.31",
    "platform": "Sentinel-1A",
    "polarization": "VV+VH",
    "processingDate": "2021-02-03T12:47:23Z",
    "processingLevel": "GRD_HD",
    "s3Urls": [
     "s3://asf-ngap2w-p-s1-grd-7d1b4348/S1A_IW_GRDH_1SDV_20210203T124723_20210203T124748_036426_0446AB_4876.zip"
    ],
    "sceneName": "S1A_IW_GRDH_1SDV_20210203T124723_20210203T124748_036426_0446AB_4876",
    "sensor": "C-SAR",
    "startTime": "2021-02-03T12:47:23Z",
    "stopTime": "2021-02-03T12:47:48Z",
    "url": "https://datapool.asf.alaska.edu/GRD_HD/SA/S1A_IW_GRDH_1SDV_20210203T124723_20210203T124748_036426_0446AB_4876.zip"
   },
   "type": "Feature"
  },
  {
   "geometry": {
    "coordinates": [
     [
      [
       79.971375,
       28.919086
      ],
      [
       80.333908,
       30.543854
      ],
      [
       77.727455,
       30.949669
      ],
      [
       77.409027,
       29.327391
      ],
      [
       79.971375,
       28.919086
      ]
     ]
    ],
    "type": "Polygon"
   },
   "properties": {
    "beamModeType": "IW",
    "browse": null,
    "bytes": 4454536825,
    "centerLat": 29.9414,
    "centerLon": 78.8629,
    "fileID": "S1A_IW_SLC__1SDV_20210130T004341_20210130T004408_036360_04444D_13C0-SLC",
    "fileName": "S1A_IW_SLC__1SDV_20210130T004341_20210130T004408_036360_04444D_13C0.zip",
    "flightDirection": "DESCENDING",
    "frameNumber": 492,
    "granuleType": "SENTINEL_1A_FRAME",
    "groupID": "S1A_IWDV_0492_0498_036360_063",
    "md5sum": "f52faf1413de96861179846882323db9",
    "orbit": 36360,
    "pathNumber": 63,
    "pgeVersion": "003.31",
    "platform": "Sentinel-1A",
    "polarization": "VV+VH",
    "processingDate": "2021-01-30T00:43:41Z",
    "processingLevel": "SLC",
    "s3Urls": [
     "s3://asf-ngap2w-p-s1-slc-7b420b89/S1A_IW_SLC__1SDV_20210130T004341_20210130T004408_036360_04444D_13C0.zip"
    ],
    "sceneName": "S1A_IW_SLC__1SDV_20210130T004341_20210130T004408_036360_04444D_13C0",
    "sensor": "C-SAR",
    "startTime": "2021-01-30T00:43:41Z",
    "stopTime": "2021-01-30T00:44:08Z",
    "url": "https://datapool.asf.alaska.edu/SLC/SA/S1A_IW_SLC__1SDV_20210130T004341_20210130T004408_036360_04444D_13C0.zip"
   },
   "type": "Feature"
  },
  {
   "geometry": {
    "coordinates": [
     [
      [
       79.990791,
       28.994862
      ],
      [
       80.256752,
       30.513479
      ],
      [
       77.648621,
       30.91832
      ],
      [
       77.420921,
       29.403919
      ],
      [
       79.990791,
       28.994862
      ]
     ]
    ],
    "type": "Polygon"
   },
   "properties": {
    "beamModeType": "IW",
    "browse": [
     "https://datapool.asf.alaska.edu/BROWSE/SA/S1A_IW_GRDH_1SDV_20210130T004342_20210130T004407_036360_04444D_0846.jpg"
    ],
    "bytes": 962449454,
    "centerLat": 29.9638,
    "centerLon": 78.8322,
    "fileID": "S1A_IW_GRDH_1SDV_20210130T004342_20210130T004407_036360_04444D_0846-GRD_HD",
    "fileName": "S1A_IW_GRDH_1SDV_20210130T004342_20210130T004407_036360_04444D_0846.zip",
    "flightDirection": "DESCENDING",
    "frameNumber": 492,
    "granuleType": "SENTINEL_1A_FRAME",
    "groupID": "S1A_IWDV_0492_0498_036360_063",
    "md5sum": "b0271f5fa89c895f888be89d8bbd345b",
    "orbit": 36360,
    "pathNumber": 63,
    "pgeVersion": "003.31",
    "platform": "Sentinel-1A",
    "polarization": "VV+VH",
    "processingDate": "2021-01-30T00:43:42Z",
    "processingLevel": "GRD_HD",
    "s3Urls": [
     "s3://asf-ngap2w-p-s1-grd-7d1b4348/S1A_IW_GRDH_1SDV_20210130T004342_20210130T004407_036360_04444D_0846.zip"
    ],
    "sceneName": "S1A_IW_GRDH_1SDV_20210130T004342_20210130T004407_036360_04444D_0846",
    "sensor": "C-SAR",
    "startTime": "2021-01-30T00:43:42Z",
    "stopTime": "2021-01-30T00:44:07Z",
    "url": "https://datapool.asf.alaska.edu/GRD_HD/SA/S1A_IW_GRDH_1SDV_20210130T004342_20210130T004407_036360_04444D_0846.zip"
   },
   "type": "Feature"
  },
  {
   "geometry": {
    "coordinates": [
     [
      [
       79.474693,
       30.622635
      ],
      [
       79.836021,
       28.997974
      ],
      [
       82.382957,
       29.401991
      ],
      [
       82.06559,
       31.024088
      ],
      [
       79.474693,
       30.622635
      ]
     ]
    ],
    "type": "Polygon"
   },
   "properties": {
    "beamModeType": "IW",
    "browse": null,
    "bytes": 4484488156,
    "centerLat": 30.018,
    "centerLon": 80.9374,
    "fileID": "S1A_IW_SLC__1SDV_20210129T123914_20210129T123941_036353_044409_9D33-SLC",
    "fileName": "S1A_IW_SLC__1SDV_20210129T123914_20210129T123941_036353_044409_9D33.zip",
    "flightDirection": "ASCENDING",
    "frameNumber": 93,
    "granuleType": "SENTINEL_1A_FRAME",
    "groupID": "S1A_IWDV_0093_0099_036353_056",
    "md5sum": "7d8cb16b287884c3812283f7ff8e2ea7",
    "orbit": 36353,
    "pathNumber": 56,
    "pgeVersion": "003.31",
    "platform": "Sentinel-1A",
    "polarization": "VV+VH",
    "processingDate": "2021-01-29T12:39:14Z",
    "processingLevel": "SLC",
    "s3Urls": [
     "s3://asf-ngap2w-p-s1-slc-7b420b89/S1A_IW_SLC__1SDV_20210129T123914_20210129T123941_036353_044409_9D33.zip"
    ],
    "sceneName": "S1A_IW_SLC__1SDV_20210129T123914_20210129T123941_036353_044409_9D33",
    "sensor": "C-SAR",
    "startTime": "2021-01-29T12:39:14Z",
    "stopTime": "2021-01-29T12:39:41Z",
    "url": "https://datapool.asf.alaska.edu/SLC/SA/S1A_IW_SLC__1SDV_20210129T123914_20210129T123941_036353_044409_9D33.zip"
   },
   "type": "Feature"
  },
  {
   "geometry": {
    "coordinates": [
     [
      [
       79.478035,
       30.555149
      ],
      [
       79.756416,
       29.038689
      ],
      [
       82.362175,
       29.452545
      ],
      [
       82.122902,
       30.965002
      ],
      [
       79.478035,
       30.555149
      ]
     ]
    ],
    "type": "Polygon"
   },
   "properties": {
    "beamModeType": "IW",
    "browse": [
     "https://datapool.asf.alaska.edu/BROWSE/SA/S1A_IW_GRDH_1SDV_20210129T123914_20210129T123939_036353_044409_9902.jpg"
    ],
    "bytes": 985195310,
    "centerLat": 30.0092,
    "centerLon": 80.9269,
    "fileID": "S1A_IW_GRDH_1SDV_20210129T123914_20210129T123939_036353_044409_9902-GRD_HD",
    "fileName": "S1A_IW_GRDH_1SDV_20210129T123914_20210129T123939_036353_044409_9902.zip",
    "flightDirection": "ASCENDING",
    "frameNumber": 93,
    "granuleType": "SENTINEL_1A_FRAME",
    "groupID": "S1A_IWDV_0093_0099_036353_056",
    "md5sum": "c89f0a1d865cbbe477a5374309bc9d9d",
    "orbit": 36353,
    "pathNumber": 56,
    "pgeVersion": "003.31",
    "platform": "Sentinel-1A",
    "polarization": "VV+VH",
    "processingDate": "2021-01-29T12:39:14Z",
    "processingLevel": "GRD_HD",
    "s3Urls": [
     "s3://asf-ngap2w-p-s1-grd-7d1b4348/S1A_IW_GRDH_1SDV_20210129T123914_20210129T123939_036353_044409_9902.zip"
    ],
    "sceneName": "S1A_IW_GRDH_1SDV_20210129T123914_20210129T123939_036353_044409_9902",
    "sensor": "C-SAR",
    "startTime": "2021-01-29T12:39:14Z",
    "stopTime": "2021-01-29T12:39:39Z",
    "url": "https://datapool.asf.alaska.edu/GRD_HD/SA/S1A_IW_GRDH_1SDV_20210129T123914_20210129T123939_036353_044409_9902.zip"
   },
   "type": "Feature"
  },
  {
   "geometry": {
    "coordinates": [
     [
      [
       81.924362,
       28.529776
      ],
      [
       82.285339,
       30.154716
      ],
      [
       79.697823,
       30.559574
      ],
      [
       79.379959,
       28.937181
      ],
      [
       81.924362,
       28.529776
      ]
     ]
    ],
    "type": "Polygon"
   },
   "properties": {
    "beamModeType": "IW",
    "browse": null,
    "bytes": 4465239778,
    "centerLat": 29.5516,
    "centerLon": 80.8243,
    "fileID": "S1A_IW_SLC__1SDV_20210125T003534_20210125T003601_036287_0441CB_444C-SLC",
    "fileName": "S1A_IW_SLC__1SDV_20210125T003534_20210125T003601_036287_0441CB_444C.zip",
    "flightDirection": "DESCENDING",
    "frameNumber": 494,
    "granuleType": "SENTINEL_1A_FRAME",
    "groupID": "S1A_IWDV_0493_0499_036287_165",
    "md5sum": "909e6b158130495d44c0e31d08967f58",
    "orbit": 36287,
    "pathNumber": 165,
    "pgeVersion": "003.31",
    "platform": "Sentinel-1A",
    "polarization": "VV+VH",
    "processingDate": "2021-01-25T00:35:34Z",
    "processingLevel": "SLC",
    "s3Urls": [
     "s3://asf-ngap2w-p-s1-slc-7b420b89/S1A_IW_SLC__1SDV_20210125T003534_20210125T003601_036287_0441CB_444C.zip"
    ],
    "sceneName": "S1A_IW_SLC__1SDV_20210125T003534_20210125T003601_036287_0441CB_444C",
    "sensor": "C-SAR",
    "startTime": "2021-01-25T00:35:34Z",
    "stopTime": "2021-01-25T00:36:01Z",
    "url": "https://datapool.asf.alaska.edu/SLC/SA/S1A_IW_SLC__1SDV_20210125T003534_20210125T003601_036287_0441CB_444C.zip"
   },
   "type": "Feature"
  },
  {
   "geometry": {
    "coordinates": [
     [
      [
       81.951317,
       28.604507
      ],
      [
       82.209755,
       30.12434
      ],
      [
       79.612602,
       30.529434
      ],
      [
       79.391708,
       29.013977
      ],
      [
       81.951317,
       28.604507
      ]
     ]
    ],
    "type": "Polygon"
   },
   "properties": {
    "beamModeType": "IW",
    "browse": [
     "https://datapool.asf.alaska.edu/BROWSE/SA/S1A_IW_GRDH_1SDV_20210125T003535_20210125T003600_036287_0441CB_8A07.jpg"
    ],
    "bytes": 975554416,
    "centerLat": 29.5742,
    "centerLon": 80.7943,
    "fileID": "S1A_IW_GRDH_1SDV_20210125T003535_20210125T003600_036287_0441CB_8A07-GRD_HD",
    "fileName": "S1A_IW_GRDH_1SDV_20210125T003535_20210125T003600_036287_0441CB_8A07.zip",
    "flightDirection": "DESCENDING",
    "frameNumber": 494,
    "granuleType": "SENTINEL_1A_FRAME",
    "groupID": "S1A_IWDV_0493_0499_036287_165",
    "md5sum": "d0cdee178f6c22a15d6f67117ee58425",
    "orbit": 36287,
    "pathNumber": 165,
    "pgeVersion": "003.31",
    "platform": "Sentinel-1A",
    "polarization": "VV+VH",
    "processingDate": "2021-01-25T00:35:35Z",
    "processingLevel": "GRD_HD",
    "s3Urls": [
     "s3://asf-ngap2w-p-s1-grd-7d1b4348/S1A_IW_GRDH_1SDV_20210125T003535_20210125T003600_036287_0441CB_8A07.zip"
    ],
    "sceneName": "S1A_IW_GRDH_1SDV_20210125T003535_20210125T003600_036287_0441CB_8A07",
    "sensor": "C-SAR",
    "startTime": "2021-01-25T00:35:35Z",
    "stopTime": "2021-01-25T00:36:00Z",
    "url": "https://datapool.asf.alaska.edu/GRD_HD/SA/S1A_IW_GRDH_1SDV_20210125T003535_20210125T003600_036287_0441CB_8A07.zip"
   },
   "type": "Feature"
  },
  {
   "geometry": {
    "coordinates": [
     [
      [
       82.203461,
       30.035454
      ],
      [
       82.581245,
       31.71641
      ],
      [
       79.971733,
       32.114624
      ],
      [
       79.641647,
       30.436153
      ],
      [
       82.203461,
       30.035454
      ]
     ]
    ],
    "type": "Polygon"
   },
   "properties": {
    "beamModeType": "IW",
    "browse": null,
    "bytes": 4576562267,
    "centerLat": 31.0822,
    "centerLon": 81.1019,
    "fileID": "S1A_IW_SLC__1SDV_20210125T003508_20210125T003536_036287_0441CB_F64D-SLC",
    "fileName": "S1A_IW_SLC__1SDV_20210125T003508_20210125T003536_036287_0441CB_F64D.zip",
    "flightDirection": "DESCENDING",
    "frameNumber": 488,
    "granuleType": "SENTINEL_1A_FRAME",
    "groupID": "S1A_IWDV_0488_0494_036287_165",
    "md5sum": "2c9cd0a833400d20c0d8f17e6c4b1775",
    "orbit": 36287,
    "pathNumber": 165,
    "pgeVersion": "003.31",
    "platform": "Sentinel-1A",
    "polarization": "VV+VH",
    "processingDate": "2021-01-25T00:35:08Z",
    "processingLevel": "SLC",
    "s3Urls": [
     "s3://asf-ngap2w-p-s1-slc-7b420b89/S1A_IW_SLC__1SDV_20210125T003508_20210125T003536_036287_0441CB_F64D.zip"
    ],
    "sceneName": "S1A_IW_SLC__1SDV_20210125T003508_20210125T003536_036287_0441CB_F64D",
    "sensor": "C-SAR",
    "startTime": "2021-01-25T00:35:08Z",
    "stopTime": "2021-01-25T00:35:36Z",
    "url": "https://datapool.asf.alaska.edu/SLC/SA/S1A_IW_SLC__1SDV_20210125T003508_20210125T003536_036287_0441CB_F64D.zip"
   },
   "type": "Feature"
  },
  {
   "geometry": {
    "coordinates": [
     [
      [
       77.428703,
       30.326229
      ],
      [
       77.790161,
       28.701181
      ],
      [
       80.348015,
       29.109528
      ],
      [
       80.030228,
       30.732025
      ],
      [
       77.428703,
       30.326229
      ]
     ]
    ],
    "type": "Polygon"
   },
   "properties": {
    "beamModeType": "IW",
    "browse": null,
    "bytes": 4510569216,
    "centerLat": 29.7236,
    "centerLon": 78.8968,
    "fileID": "S1A_IW_SLC__1SDV_20210122T124723_20210122T124750_036251_04409C_E11A-SLC",
    "fileName": "S1A_IW_SLC__1SDV_20210122T124723_20210122T124750_036251_04409C_E11A.zip",
    "flightDirection": "ASCENDING",
    "frameNumber": 92,
    "granuleType": "SENTINEL_1A_FRAME",
    "groupID": "S1A_IWDV_0092_0098_036251_129",
    "md5sum": "c23622497102d189134cd5c3e4ca9e44",
    "orbit": 36251,
    "pathNumber": 129,
    "pgeVersion": "003.31",
    "platform": "Sentinel-1A",
    "polarization": "VV+VH",
    "processingDate": "2021-01-22T12:47:23Z",
    "processingLevel": "SLC",
    "s3Urls": [
     "s3://asf-ngap2w-p-s1-slc-7b420b89/S1A_IW_SLC__1SDV_20210122T124723_20210122T124750_036251_04409C_E11A.zip"
    ],
    "sceneName": "S1A_IW_SLC__1SDV_20210122T124723_20210122T124750_036251_04409C_E11A",
    "sensor": "C-SAR",
    "startTime": "2021-01-22T12:47:23Z",
    "stopTime": "2021-01-22T12:47:50Z",
    "url": "https://datapool.asf.alaska.edu/SLC/SA/S1A_IW_SLC__1SDV_20210122T124723_20210122T124750_036251_04409C_E11A.zip"
   },
   "type": "Feature"
  },
  {
   "geometry": {
    "coordinates": [
     [
      [
       77.429016,
       30.246595
      ],
      [
       77.755203,
       28.737984
      ],
      [
       80.347565,
       29.151787
      ],
      [
       80.060783,
       30.657579
      ],
      [
       77.429016,
       30.246595
      ]
     ]
    ],
    "type": "Polygon"
   },
   "properties": {
    "beamModeType": "IW",
    "browse": [
     "https://datapool.asf.alaska.edu/BROWSE/SA/S1A_IW_GRDH_1SDV_20210122T124723_20210122T124748_036251_04409C_1BF8.jpg"
    ],
    "bytes": 979700511,
    "centerLat": 29.7049,
    "centerLon": 78.8954,
    "fileID": "S1A_IW_GRDH_1SDV_20210122T124723_20210122T124748_036251_04409C_1BF8-GRD_HD",
    "fileName": "S1A_IW_GRDH_1SDV_20210122T124723_20210122T124748_036251_04409C_1BF8.zip",
    "flightDirection": "ASCENDING",
    "frameNumber": 92,
    "granuleType": "SENTINEL_1A_FRAME",
    "groupID": "S1A_IWDV_0092_0098_036251_129",
    "md5sum": "7f22a5cf736b30e0843f132416219745",
    "orbit": 36251,
    "pathNumber": 129,
    "pgeVersion": "003.31",
    "platform": "Sentinel-1A",
    "polarization": "VV+VH",
    "processingDate": "2021-01-22T12:47:23Z",
    "processingLevel": "GRD_HD",
    "s3Urls": [
     "s3://asf-ngap2w-p-s1-grd-7d1b4348/S1A_IW_GRDH_1SDV_20210122T124723_20210122T124748_036251_04409C_1BF8.zip"
    ],
    "sceneName": "S1A_IW_GRDH_1SDV_20210122T124723_20210122T124748_036251_04409C_1BF8",
    "sensor": "C-SAR",
    "startTime": "2021-01-22T12:47:23Z",
    "stopTime": "2021-01-22T12:47:48Z",
    "url": "https://datapool.asf.alaska.edu/GRD_HD/SA/S1A_IW_GRDH_1SDV_20210122T124723_20210122T124748_036251_04409C_1BF8.zip"
   },
   "type": "Feature"
  },
  {
   "geometry": {
    "coordinates": [
     [
      [
       79.972626,
       28.918423
      ],
      [
       80.335205,
       30.543184
      ],
      [
       77.72876,
       30.949059
      ],
      [
       77.410286,
       29.326784
      ],
      [
       79.972626,
       28.918423
      ]
     ]
    ],
    "type": "Polygon"
   },
   "properties": {
    "beamModeType": "IW",
    "browse": null,
    "bytes": 4486856572,
    "centerLat": 29.9407,
    "centerLon": 78.8642,
    "fileID": "S1A_IW_SLC__1SDV_20210118T004342_20210118T004408_036185_043E36_31C5-SLC",
    "fileName": "S1A_IW_SLC__1SDV_20210118T004342_20210118T004408_036185_043E36_31C5.zip",
    "flightDirection": "DESCENDING",
    "frameNumber": 492,
    "granuleType": "SENTINEL_1A_FRAME",
    "groupID": "S1A_IWDV_0492_0497_036185_063",
    "md5sum": "40a6afcd10fcb5cd4d8a877af27bee5b",
    "orbit": 36185,
    "pathNumber": 63,
    "pgeVersion": "003.31",
    "platform": "Sentinel-1A",
    "polarization": "VV+VH",
    "processingDate": "2021-01-18T00:43:42Z",
    "processingLevel": "SLC",
    "s3Urls": [
     "s3://asf-ngap2w-p-s1-slc-7b420b89/S1A_IW_SLC__1SDV_20210118T004342_20210118T004408_036185_043E36_31C5.zip"
    ],
    "sceneName": "S1A_IW_SLC__1SDV_20210118T004342_20210118T004408_036185_043E36_31C5",
    "sensor": "C-SAR",
    "startTime": "2021-01-18T00:43:42Z",
    "stopTime": "2021-01-18T00:44:08Z",
    "url": "https://datapool.asf.alaska.edu/SLC/SA/S1A_IW_SLC__1SDV_20210118T004342_20210118T004408_036185_043E36_31C5.zip"
   },
   "type": "Feature"
  },
  {
   "geometry": {
    "coordinates": [
     [
      [
       79.992157,
       28.994818
      ],
      [
       80.257561,
       30.513533
      ],
      [
       77.649399,
       30.918423
      ],
      [
       77.422302,
       29.403929
      ],
      [
       79.992157,
       28.994818
      ]
     ]
    ],
    "type": "Polygon"
   },
   "properties": {
    "beamModeType": "IW",
    "browse": [
     "https://datapool.asf.alaska.edu/BROWSE/SA/S1A_IW_GRDH_1SDV_20210118T004342_20210118T004407_036185_043E36_B33D.jpg"
    ],
    "bytes": 969689756,
    "centerLat": 29.9639,
    "centerLon": 78.8333,
    "fileID": "S1A_IW_GRDH_1SDV_20210118T004342_20210118T004407_036185_043E36_B33D-GRD_HD",
    "fileName": "S1A_IW_GRDH_1SDV_20210118T004342_20210118T004407_036185_043E36_B33D.zip",
    "flightDirection": "DESCENDING",
    "frameNumber": 492,
    "granuleType": "SENTINEL_1A_FRAME",
    "groupID": "S1A_IWDV_0492_0497_036185_063",
    "md5sum": "8429e1b239b144b35dc185595d6f6317",
    "orbit": 36185,
    "pathNumber": 63,
    "pgeVersion": "003.31",
    "platform": "Sentinel-1A",
    "polarization": "VV+VH",
    "processingDate": "2021-01-18T00:43:42Z",
    "processingLevel": "GRD_HD",
    "s3Urls": [
     "s3://asf-ngap2w-p-s1-grd-7d1b4348/S1A_IW_GRDH_1SDV_20210118T004342_20210118T004407_036185_043E36_B33D.zip"
    ],
    "sceneName": "S1A_IW_GRDH_1SDV_20210118T004342_20210118T004407_036185_043E36_B33D",
    "sensor": "C-SAR",
    "startTime": "2021-01-18T00:43:42Z",
    "stopTime": "2021-01-18T00:44:07Z",
    "url": "https://datapool.asf.alaska.edu/GRD_HD/SA/S1A_IW_GRDH_1SDV_20210118T004342_20210118T004407_036185_043E36_B33D.zip"
   },
   "type": "Feature"
  },
  {
   "geometry": {
    "coordinates": [
     [
      [
       79.474564,
       30.622778
      ],
      [
       79.835907,
       28.998247
      ],
      [
       82.38282,
       29.402309
      ],
      [
       82.06543,
       31.024277
      ],
      [
       79.474564,
       30.622778
      ]
     ]
    ],
    "type": "Polygon"
   },
   "properties": {
    "beamModeType": "IW",
    "browse": null,
    "bytes": 4472617916,
    "centerLat": 30.0182,
    "centerLon": 80.9372,
    "fileID": "S1A_IW_SLC__1SDV_20210117T123914_20210117T123941_036178_043DEE_9B5B-SLC",
    "fileName": "S1A_IW_SLC__1SDV_20210117T123914_20210117T123941_036178_043DEE_9B5B.zip",
    "flightDirection": "ASCENDING",
    "frameNumber": 93,
    "granuleType": "SENTINEL_1A_FRAME",
    "groupID": "S1A_IWDV_0093_0099_036178_056",
    "md5sum": "5d985e1f78793f6e222e2ce86b7a5bd8",
    "orbit": 36178,
    "pathNumber": 56,
    "pgeVersion": "003.31",
    "platform": "Sentinel-1A",
    "polarization": "VV+VH",
    "processingDate": "2021-01-17T12:39:14Z",
    "processingLevel": "SLC",
    "s3Urls": [
     "s3://asf-ngap2w-p-s1-slc-7b420b89/S1A_IW_SLC__1SDV_20210117T123914_20210117T123941_036178_043DEE_9B5B.zip"
    ],
    "sceneName": "S1A_IW_SLC__1SDV_20210117T123914_20210117T123941_036178_043DEE_9B5B",
    "sensor": "C-SAR",
    "startTime": "2021-01-17T12:39:14Z",
    "stopTime": "2021-01-17T12:39:41Z",
    "url": "https://datapool.asf.alaska.edu/SLC/SA/S1A_IW_SLC__1SDV_20210117T123914_20210117T123941_036178_043DEE_9B5B.zip"
   },
   "type": "Feature"
  },
  {
   "geometry": {
    "coordinates": [
     [
      [
       79.477913,
       30.555166
      ],
      [
       79.756348,
       29.038712
      ],
      [
       82.362099,
       29.45262
      ],
      [
       82.122772,
       30.965069
      ],
      [
       79.477913,
       30.555166
      ]
     ]
    ],
    "type": "Polygon"
   },
   "properties": {
    "beamModeType": "IW",
    "browse": [
     "https://datapool.asf.alaska.edu/BROWSE/SA/S1A_IW_GRDH_1SDV_20210117T123915_20210117T123940_036178_043DEE_2C01.jpg"
    ],
    "bytes": 981647465,
    "centerLat": 30.0093,
    "centerLon": 80.9268,
    "fileID": "S1A_IW_GRDH_1SDV_20210117T123915_20210117T123940_036178_043DEE_2C01-GRD_HD",
    "fileName": "S1A_IW_GRDH_1SDV_20210117T123915_20210117T123940_036178_043DEE_2C01.zip",
    "flightDirection": "ASCENDING",
    "frameNumber": 93,
    "granuleType": "SENTINEL_1A_FRAME",
    "groupID": "S1A_IWDV_0093_0099_036178_056",
    "md5sum": "73404a03e6b057a4c62dab147cc0af60",
    "orbit": 36178,
    "pathNumber": 56,
    "pgeVersion": "003.31",
    "platform": "Sentinel-1A",
    "polarization": "VV+VH",
    "processingDate": "2021-01-17T12:39:15Z",
    "processingLevel": "GRD_HD",
    "s3Urls": [
     "s3://asf-ngap2w-p-s1-grd-7d1b4348/S1A_IW_GRDH_1SDV_20210117T123915_20210117T123940_036178_043DEE_2C01.zip"
    ],
    "sceneName": "S1A_IW_GRDH_1SDV_20210117T123915_20210117T123940_036178_043DEE_2C01",
    "sensor": "C-SAR",
    "startTime": "2021-01-17T12:39:15Z",
    "stopTime": "2021-01-17T12:39:40Z",
    "url": "https://datapool.asf.alaska.edu/GRD_HD/SA/S1A_IW_GRDH_1SDV_20210117T123915_20210117T123940_036178_043DEE_2C01.zip"
   },
   "type": "Feature"
  },
  {
   "geometry": {
    "coordinates": [
     [
      [
       81.923576,
       28.529388
      ],
      [
       82.2845,
       30.154209
      ],
      [
       79.697021,
       30.559038
      ],
      [
       79.379204,
       28.936764
      ],
      [
       81.923576,
       28.529388
      ]
     ]
    ],
    "type": "Polygon"
   },
   "properties": {
    "beamModeType": "IW",
    "browse": null,
    "bytes": 4452720662,
    "centerLat": 29.5511,
    "centerLon": 80.8235,
    "fileID": "S1A_IW_SLC__1SDV_20210113T003535_20210113T003602_036112_043BBE_C195-SLC",
    "fileName": "S1A_IW_SLC__1SDV_20210113T003535_20210113T003602_036112_043BBE_C195.zip",
    "flightDirection": "DESCENDING",
    "frameNumber": 494,
    "granuleType": "SENTINEL_1A_FRAME",
    "groupID": "S1A_IWDV_0493_0499_036112_165",
    "md5sum": "8387e21521e1050de028581dad6df15a",
    "orbit": 36112,
    "pathNumber": 165,
    "pgeVersion": "003.31",
    "platform": "Sentinel-1A",
    "polarization": "VV+VH",
    "processingDate": "2021-01-13T00:35:35Z",
    "processingLevel": "SLC",
    "s3Urls": [
     "s3://asf-ngap2w-p-s1-slc-7b420b89/S1A_IW_SLC__1SDV_20210113T003535_20210113T003602_036112_043BBE_C195.zip"
    ],
    "sceneName": "S1A_IW_SLC__1SDV_20210113T003535_20210113T003602_036112_043BBE_C195",
    "sensor": "C-SAR",
    "startTime": "2021-01-13T00:35:35Z",
    "stopTime": "2021-01-13T00:36:02Z",
    "url": "https://datapool.asf.alaska.edu/SLC/SA/S1A_IW_SLC__1SDV_20210113T003535_20210113T003602_036112_043BBE_C195.zip"
   },
   "type": "Feature"
  },
  {
   "geometry": {
    "coordinates": [
     [
      [
       81.950592,
       28.604504
      ],
      [
       82.209015,
       30.124336
      ],
      [
       79.611961,
       30.529388
      ],
      [
       79.391083,
       29.013933
      ],
      [
       81.950592,
       28.604504
      ]
     ]
    ],
    "type": "Polygon"
   },
   "properties": {
    "beamModeType": "IW",
    "browse": [
     "https://datapool.asf.alaska.edu/BROWSE/SA/S1A_IW_GRDH_1SDV_20210113T003535_20210113T003600_036112_043BBE_D49C.jpg"
    ],
    "bytes": 971658919,
    "centerLat": 29.5741,
    "centerLon": 80.7936,
    "fileID": "S1A_IW_GRDH_1SDV_20210113T003535_20210113T003600_036112_043BBE_D49C-GRD_HD",
    "fileName": "S1A_IW_GRDH_1SDV_20210113T003535_20210113T003600_036112_043BBE_D49C.zip",
    "flightDirection": "DESCENDING",
    "frameNumber": 494,
    "granuleType": "SENTINEL_1A_FRAME",
    "groupID": "S1A_IWDV_0493_0499_036112_165",
    "md5sum": "1c967a781007a8b6f9d96e0027430d69",
    "orbit": 36112,
    "pathNumber": 165,
    "pgeVersion": "003.31",
    "platform": "Sentinel-1A",
    "polarization": "VV+VH",
    "processingDate": "2021-01-13T00:35:35Z",
    "processingLevel": "GRD_HD",
    "s3Urls": [
     "s3://asf-ngap2w-p-s1-grd-7d1b4348/S1A_IW_GRDH_1SDV_20210113T003535_20210113T003600_036112_043BBE_D49C.zip"
    ],
    "sceneName": "S1A_IW_GRDH_1SDV_20210113T003535_20210113T003600_036112_043BBE_D49C",
    "sensor": "C-SAR",
    "startTime": "2021-01-13T00:35:35Z",
    "stopTime": "2021-01-13T00:36:00Z",
    "url": "https://datapool.asf.alaska.edu/GRD_HD/SA/S1A_IW_GRDH_1SDV_20210113T003535_20210113T003600_036112_043BBE_D49C.zip"
   },
   "type": "Feature"
  },
  {
   "geometry": {
    "coordinates": [
     [
      [
       82.202652,
       30.03507
      ],
      [
       82.580391,
       31.715906
      ],
      [
       79.970917,
       32.11409
      ],
      [
       79.640877,
       30.43574
      ],
      [
       82.202652,
       30.03507
      ]
     ]
    ],
    "type": "Polygon"
   },
   "properties": {
    "beamModeType": "IW",
    "browse": null,
    "bytes": 4526281724,
    "centerLat": 31.0818,
    "centerLon": 81.1011,
    "fileID": "S1A_IW_SLC__1SDV_20210113T003509_20210113T003537_036112_043BBE_BB76-SLC",
    "fileName": "S1A_IW_SLC__1SDV_20210113T003509_20210113T003537_036112_043BBE_BB76.zip",
    "flightDirection": "DESCENDING",
    "frameNumber": 488,
    "granuleType": "SENTINEL_1A_FRAME",
    "groupID": "S1A_IWDV_0488_0494_036112_165",
    "md5sum": "94cdca91d44e475fdb57e929f2703d1b",
    "orbit": 36112,
    "pathNumber": 165,
    "pgeVersion": "003.31",
    "platform": "Sentinel-1A",
    "polarization": "VV+VH",
    "processingDate": "2021-01-13T00:35:09Z",
    "processingLevel": "SLC",
    "s3Urls": [
     "s3://asf-ngap2w-p-s1-slc-7b420b89/S1A_IW_SLC__1SDV_20210113T003509_20210113T003537_036112_043BBE_BB76.zip"
    ],
    "sceneName": "S1A_IW_SLC__1SDV_20210113T003509_20210113T003537_036112_043BBE_BB76",
    "sensor": "C-SAR",
    "startTime": "2021-01-13T00:35:09Z",
    "stopTime": "2021-01-13T00:35:37Z",
    "url": "https://datapool.asf.alaska.edu/SLC/SA/S1A_IW_SLC__1SDV_20210113T003509_20210113T003537_036112_043BBE_BB76.zip"
   },
   "type": "Feature"
  },
  {
   "geometry": {
    "coordinates": [
     [
      [
       77.42881,
       30.325981
      ],
      [
       77.790215,
       28.701057
      ],
      [
       80.348129,
       29.109385
      ],
      [
       80.030396,
       30.731758
      ],
      [
       77.42881,
       30.325981
      ]
     ]
    ],
    "type": "Polygon"
   },
   "properties": {
    "beamModeType": "IW",
    "browse": null,
    "bytes": 4537307351,
    "centerLat": 29.7234,
    "centerLon": 78.8969,
    "fileID": "S1A_IW_SLC__1SDV_20210110T124723_20210110T124750_036076_043A81_B7C6-SLC",
    "fileName": "S1A_IW_SLC__1SDV_20210110T124723_20210110T124750_036076_043A81_B7C6.zip",
    "flightDirection": "ASCENDING",
    "frameNumber": 92,
    "granuleType": "SENTINEL_1A_FRAME",
    "groupID": "S1A_IWDV_0092_0098_036076_129",
    "md5sum": "ca09b60effea2541f8993c00b153e0f7",
    "orbit": 36076,
    "pathNumber": 129,
    "pgeVersion": "003.31",
    "platform": "Sentinel-1A",
    "polarization": "VV+VH",
    "processingDate": "2021-01-10T12:47:23Z",
    "processingLevel": "SLC",
    "s3Urls": [
     "s3://asf-ngap2w-p-s1-slc-7b420b89/S1A_IW_SLC__1SDV_20210110T124723_20210110T124750_036076_043A81_B7C6.zip"
    ],
    "sceneName": "S1A_IW_SLC__1SDV_20210110T124723_20210110T124750_036076_043A81_B7C6",
    "sensor": "C-SAR",
    "startTime": "2021-01-10T12:47:23Z",
    "stopTime": "2021-01-10T12:47:50Z",
    "url": "https://datapool.asf.alaska.edu/SLC/SA/S1A_IW_SLC__1SDV_20210110T124723_20210110T124750_036076_043A81_B7C6.zip"
   },
   "type": "Feature"
  },
  {
   "geometry": {
    "coordinates": [
     [
      [
       77.429115,
       30.246517
      ],
      [
       77.755264,
       28.737995
      ],
      [
       80.347626,
       29.15177
      ],
      [
       80.060875,
       30.657473
      ],
      [
       77.429115,
       30.246517
      ]
     ]
    ],
    "type": "Polygon"
   },
   "properties": {
    "beamModeType": "IW",
    "browse": [
     "https://datapool.asf.alaska.edu/BROWSE/SA/S1A_IW_GRDH_1SDV_20210110T124724_20210110T124749_036076_043A81_5117.jpg"
    ],
    "bytes": 988316897,
    "centerLat": 29.7048,
    "centerLon": 78.8954,
    "fileID": "S1A_IW_GRDH_1SDV_20210110T124724_20210110T124749_036076_043A81_5117-GRD_HD",
    "fileName": "S1A_IW_GRDH_1SDV_20210110T124724_20210110T124749_036076_043A81_5117.zip",
    "flightDirection": "ASCENDING",
    "frameNumber": 92,
    "granuleType": "SENTINEL_1A_FRAME",
    "groupID": "S1A_IWDV_0092_0098_036076_129",
    "md5sum": "5e1653a42abddf6fe63742091ef860c1",
    "orbit": 36076,
    "pathNumber": 129,
    "pgeVersion": "003.31",
    "platform": "Sentinel-1A",
    "polarization": "VV+VH",
    "processingDate": "2021-01-10T12:47:24Z",
    "processingLevel": "GRD_HD",
    "s3Urls": [
     "s3://asf-ngap2w-p-s1-grd-7d1b4348/S1A_IW_GRDH_1SDV_20210110T124724_20210110T124749_036076_043A81_5117.zip"
    ],
    "sceneName": "S1A_IW_GRDH_1SDV_20210110T124724_20210110T124749_036076_043A81_5117",
    "sensor": "C-SAR",
    "startTime": "2021-01-10T12:47:24Z",
    "stopTime": "2021-01-10T12:47:49Z",
    "url": "https://datapool.asf.alaska.edu/GRD_HD/SA/S1A_IW_GRDH_1SDV_20210110T124724_20210110T124749_036076_043A81_5117.zip"
   },
   "type": "Feature"
  },
  {
   "geometry": {
    "coordinates": [
     [
      [
       79.973259,
       28.918797
      ],
      [
       80.335793,
       30.543308
      ],
      [
       77.72937,
       30.949192
      ],
      [
       77.410927,
       29.327166
      ],
      [
       79.973259,
       28.918797
      ]
     ]
    ],
    "type": "Polygon"
   },
   "properties": {
    "beamModeType": "IW",
    "browse": null,
    "bytes": 4588389301,
    "centerLat": 29.941,
    "centerLon": 78.8648,
    "fileID": "S1A_IW_SLC__1SDV_20210106T004342_20210106T004409_036010_043816_98BF-SLC",
    "fileName": "S1A_IW_SLC__1SDV_20210106T004342_20210106T004409_036010_043816_98BF.zip",
    "flightDirection": "DESCENDING",
    "frameNumber": 492,
    "granuleType": "SENTINEL_1A_FRAME",
    "groupID": "S1A_IWDV_0492_0498_036010_063",
    "md5sum": "1e452608111e17623b46b3a2c89e746f",
    "orbit": 36010,
    "pathNumber": 63,
    "pgeVersion": "003.31",
    "platform": "Sentinel-1A",
    "polarization": "VV+VH",
    "processingDate": "2021-01-06T00:43:42Z",
    "processingLevel": "SLC",
    "s3Urls": [
     "s3://asf-ngap2w-p-s1-slc-7b420b89/S1A_IW_SLC__1SDV_20210106T004342_20210106T004409_036010_043816_98BF.zip"
    ],
    "sceneName": "S1A_IW_SLC__1SDV_20210106T004342_20210106T004409_036010_043816_98BF",
    "sensor": "C-SAR",
    "startTime": "2021-01-06T00:43:42Z",
    "stopTime": "2021-01-06T00:44:09Z",
    "url": "https://datapool.asf.alaska.edu/SLC/SA/S1A_IW_SLC__1SDV_20210106T004342_20210106T004409_036010_043816_98BF.zip"
   },
   "type": "Feature"
  },
  {
   "geometry": {
    "coordinates": [
     [
      [
       79.992722,
       28.99482
      ],
      [
       80.258125,
       30.513535
      ],
      [
       77.649963,
       30.918436
      ],
      [
       77.422867,
       29.403942
      ],
      [
       79.992722,
       28.99482
      ]
     ]
    ],
    "type": "Polygon"
   },
   "properties": {
    "beamModeType": "IW",
    "browse": [
     "https://datapool.asf.alaska.edu/BROWSE/SA/S1A_IW_GRDH_1SDV_20210106T004343_20210106T004408_036010_043816_C2B0.jpg"
    ],
    "bytes": 997836903,
    "centerLat": 29.9639,
    "centerLon": 78.8339,
    "fileID": "S1A_IW_GRDH_1SDV_20210106T004343_20210106T004408_036010_043816_C2B0-GRD_HD",
    "fileName": "S1A_IW_GRDH_1SDV_20210106T004343_20210106T004408_036010_043816_C2B0.zip",
    "flightDirection": "DESCENDING",
    "frameNumber": 492,
    "granuleType": "SENTINEL_1A_FRAME",
    "groupID": "S1A_IWDV_0492_0498_036010_063",
    "md5sum": "49ecc0c126f2b5fcb5007722bd040169",
    "orbit": 36010,
    "pathNumber": 63,
    "pgeVersion": "003.31",
    "platform": "Sentinel-1A",
    "polarization": "VV+VH",
    "processingDate": "2021-01-06T00:43:43Z",
    "processingLevel": "GRD_HD",
    "s3Urls": [
     "s3://asf-ngap2w-p-s1-grd-7d1b4348/S1A_IW_GRDH_1SDV_20210106T004343_20210106T004408_036010_043816_C2B0.zip"
    ],
    "sceneName": "S1A_IW_GRDH_1SDV_20210106T004343_20210106T004408_036010_043816_C2B0",
    "sensor": "C-SAR",
    "startTime": "2021-01-06T00:43:43Z",
    "stopTime": "2021-01-06T00:44:08Z",
    "url": "https://datapool.asf.alaska.edu/GRD_HD/SA/S1A_IW_GRDH_1SDV_20210106T004343_20210106T004408_036010_043816_C2B0.zip"
   },
   "type": "Feature"
  },
  {
   "geometry": {
    "coordinates": [
     [
      [
       79.474571,
       30.623009
      ],
      [
       79.835983,
       28.998236
      ],
      [
       82.382935,
       29.402325
      ],
      [
       82.065483,
       31.024534
      ],
      [
       79.474571,
       30.623009
      ]
     ]
    ],
    "type": "Polygon"
   },
   "properties": {
    "beamModeType": "IW",
    "browse": null,
    "bytes": 4469206020,
    "centerLat": 30.0183,
    "centerLon": 80.9373,
    "fileID": "S1A_IW_SLC__1SDV_20210105T123914_20210105T123941_036003_0437CD_3B5B-SLC",
    "fileName": "S1A_IW_SLC__1SDV_20210105T123914_20210105T123941_036003_0437CD_3B5B.zip",
    "flightDirection": "ASCENDING",
    "frameNumber": 93,
    "granuleType": "SENTINEL_1A_FRAME",
    "groupID": "S1A_IWDV_0093_0099_036003_056",
    "md5sum": "6086c1a913298636524d091ecf7ef9dd",
    "orbit": 36003,
    "pathNumber": 56,
    "pgeVersion": "003.31",
    "platform": "Sentinel-1A",
    "polarization": "VV+VH",
    "processingDate": "2021-01-05T12:39:14Z",
    "processingLevel": "SLC",
    "s3Urls": [
     "s3://asf-ngap2w-p-s1-slc-7b420b89/S1A_IW_SLC__1SDV_20210105T123914_20210105T123941_036003_0437CD_3B5B.zip"
    ],
    "sceneName": "S1A_IW_SLC__1SDV_20210105T123914_20210105T123941_036003_0437CD_3B5B",
    "sensor": "C-SAR",
    "startTime": "2021-01-05T12:39:14Z",
    "stopTime": "2021-01-05T12:39:41Z",
    "url": "https://datapool.asf.alaska.edu/SLC/SA/S1A_IW_SLC__1SDV_20210105T123914_20210105T123941_036003_0437CD_3B5B.zip"
   },
   "type": "Feature"
  },
  {
   "geometry": {
    "coordinates": [
     [
      [
       79.477959,
       30.555162
      ],
      [
       79.756424,
       29.03871
      ],
      [
       82.362167,
       29.452639
      ],
      [
       82.122818,
       30.965088
      ],
      [
       79.477959,
       30.555162
      ]
     ]
    ],
    "type": "Polygon"
   },
   "properties": {
    "beamModeType": "IW",
    "browse": [
     "https://datapool.asf.alaska.edu/BROWSE/SA/S1A_IW_GRDH_1SDV_20210105T123915_20210105T123940_036003_0437CD_9959.jpg"
    ],
    "bytes": 982724516,
    "centerLat": 30.0093,
    "centerLon": 80.9268,
    "fileID": "S1A_IW_GRDH_1SDV_20210105T123915_20210105T123940_036003_0437CD_9959-GRD_HD",
    "fileName": "S1A_IW_GRDH_1SDV_20210105T123915_20210105T123940_036003_0437CD_9959.zip",
    "flightDirection": "ASCENDING",
    "frameNumber": 93,
    "granuleType": "SENTINEL_1A_FRAME",
    "groupID": "S1A_IWDV_0093_0099_036003_056",
    "md5sum": "b6e8a24bfd99cb9b0c94c4e325588c36",
    "orbit": 36003,
    "pathNumber": 56,
    "pgeVersion": "003.31",
    "platform": "Sentinel-1A",
    "polarization": "VV+VH",
    "processingDate": "2021-01-05T12:39:15Z",
    "processingLevel": "GRD_HD",
    "s3Urls": [
     "s3://asf-ngap2w-p-s1-grd-7d1b4348/S1A_IW_GRDH_1SDV_20210105T123915_20210105T123940_036003_0437CD_9959.zip"
    ],
    "sceneName": "S1A_IW_GRDH_1SDV_20210105T123915_20210105T123940_036003_0437CD_9959",
    "sensor": "C-SAR",
    "startTime": "2021-01-05T12:39:15Z",
    "stopTime": "2021-01-05T12:39:40Z",
    "url": "https://datapool.asf.alaska.edu/GRD_HD/SA/S1A_IW_GRDH_1SDV_20210105T123915_20210105T123940_036003_0437CD_9959.zip"
   },
   "type": "Feature"
  },
  {
   "geometry": {
    "coordinates": [
     [
      [
       81.923355,
       28.529873
      ],
      [
       82.284317,
       30.154818
      ],
      [
       79.696838,
       30.55965
      ],
      [
       79.378983,
       28.937254
      ],
      [
       81.923355,
       28.529873
      ]
     ]
    ],
    "type": "Polygon"
   },
   "properties": {
    "beamModeType": "IW",
    "browse": null,
    "bytes": 4473704580,
    "centerLat": 29.5516,
    "centerLon": 80.8233,
    "fileID": "S1A_IW_SLC__1SDV_20210101T003535_20210101T003602_035937_043594_F1F7-SLC",
    "fileName": "S1A_IW_SLC__1SDV_20210101T003535_20210101T003602_035937_043594_F1F7.zip",
    "flightDirection": "DESCENDING",
    "frameNumber": 494,
    "granuleType": "SENTINEL_1A_FRAME",
    "groupID": "S1A_IWDV_0493_0499_035937_165",
    "md5sum": "30b3e103c9e7f7ff06db4a1132350cdf",
    "orbit": 35937,
    "pathNumber": 165,
    "pgeVersion": "003.31",
    "platform": "Sentinel-1A",
    "polarization": "VV+VH",
    "processingDate": "2021-01-01T00:35:35Z",
    "processingLevel": "SLC",
    "s3Urls": [
     "s3://asf-ngap2w-p-s1-slc-7b420b89/S1A_IW_SLC__1SDV_20210101T003535_20210101T003602_035937_043594_F1F7.zip"
    ],
    "sceneName": "S1A_IW_SLC__1SDV_20210101T003535_20210101T003602_035937_043594_F1F7",
    "sensor": "C-SAR",
    "startTime": "2021-01-01T00:35:35Z",
    "stopTime": "2021-01-01T00:36:02Z",
    "url": "https://datapool.asf.alaska.edu/SLC/SA/S1A_IW_SLC__1SDV_20210101T003535_20210101T003602_035937_043594_F1F7.zip"
   },
   "type": "Feature"
  },
  {
   "geometry": {
    "coordinates": [
     [
      [
       81.950279,
       28.60449
      ],
      [
       82.20871,
       30.124323
      ],
      [
       79.611656,
       30.529383
      ],
      [
       79.39077,
       29.013927
      ],
      [
       81.950279,
       28.60449
      ]
     ]
    ],
    "type": "Polygon"
   },
   "properties": {
    "beamModeType": "IW",
    "browse": [
     "https://datapool.asf.alaska.edu/BROWSE/SA/S1A_IW_GRDH_1SDV_20210101T003536_20210101T003601_035937_043594_6D23.jpg"
    ],
    "bytes": 979259030,
    "centerLat": 29.5741,
    "centerLon": 80.7933,
    "fileID": "S1A_IW_GRDH_1SDV_20210101T003536_20210101T003601_035937_043594_6D23-GRD_HD",
    "fileName": "S1A_IW_GRDH_1SDV_20210101T003536_20210101T003601_035937_043594_6D23.zip",
    "flightDirection": "DESCENDING",
    "frameNumber": 494,
    "granuleType": "SENTINEL_1A_FRAME",
    "groupID": "S1A_IWDV_0493_0499_035937_165",
    "md5sum": "c60f9aa39b4d4b2c4c3733b59519f067",
    "orbit": 35937,
    "pathNumber": 165,
    "pgeVersion": "003.31",
    "platform": "Sentinel-1A",
    "polarization": "VV+VH",
    "processingDate": "2021-01-01T00:35:36Z",
    "processingLevel": "GRD_HD",
    "s3Urls": [
     "s3://asf-ngap2w-p-s1-grd-7d1b4348/S1A_IW_GRDH_1SDV_20210101T003536_20210101T003601_035937_043594_6D23.zip"
    ],
    "sceneName": "S1A_IW_GRDH_1SDV_20210101T003536_20210101T003601_035937_043594_6D23",
    "sensor": "C-SAR",
    "startTime": "2021-01-01T00:35:36Z",
    "stopTime": "2021-01-01T00:36:01Z",
    "url": "https://datapool.asf.alaska.edu/GRD_HD/SA/S1A_IW_GRDH_1SDV_20210101T003536_20210101T003601_035937_043594_6D23.zip"
   },
   "type": "Feature"
  },
  {
   "geometry": {
    "coordinates": [
     [
      [
       82.202438,
       30.035555
      ],
      [
       82.580185,
       31.716391
      ],
      [
       79.970718,
       32.114578
      ],
      [
       79.640671,
       30.436228
      ],
      [
       82.202438,
       30.035555
      ]
     ]
    ],
    "type": "Polygon"
   },
   "properties": {
    "beamModeType": "IW",
    "browse": null,
    "bytes": 4576019420,
    "centerLat": 31.0822,
    "centerLon": 81.1009,
    "fileID": "S1A_IW_SLC__1SDV_20210101T003509_20210101T003537_035937_043594_0D4F-SLC",
    "fileName": "S1A_IW_SLC__1SDV_20210101T003509_20210101T003537_035937_043594_0D4F.zip",
    "flightDirection": "DESCENDING",
    "frameNumber": 488,
    "granuleType": "SENTINEL_1A_FRAME",
    "groupID": "S1A_IWDV_0488_0494_035937_165",
    "md5sum": "a399b41e0f788e90bfc93552dca3a0d4",
    "orbit": 35937,
    "pathNumber": 165,
    "pgeVersion": "003.31",
    "platform": "Sentinel-1A",
    "polarization": "VV+VH",
    "processingDate": "2021-01-01T00:35:09Z",
    "processingLevel": "SLC",
    "s3Urls": [
     "s3://asf-ngap2w-p-s1-slc-7b420b89/S1A_IW_SLC__1SDV_20210101T003509_20210101T003537_035937_043594_0D4F.zip"
    ],
    "sceneName": "S1A_IW_SLC__1SDV_20210101T003509_20210101T003537_035937_043594_0D4F",
    "sensor": "C-SAR",
    "startTime": "2021-01-01T00:35:09Z",
    "stopTime": "2021-01-01T00:35:37Z",
    "url": "https://datapool.asf.alaska.edu/SLC/SA/S1A_IW_SLC__1SDV_20210101T003509_20210101T003537_035937_043594_0D4F.zip"
   },
   "type": "Feature"
  }
 ],
 "type": "FeatureCollection"
}
