{"type": "FeatureCollection", "features": [{"type": "Feature", "geometry": {"type": "Polygon", "coordinates": [[[7.724503, 46.3196873], [7.7245116, 46.3191995], [7.7245899, 46.3183254], [7.7245616, 46.317737], [7.7245576, 46.3169277], [7.7245796, 46.3163547], [7.7248355, 46.3145041], [7.7249958, 46.313835], [7.7250438, 46.3136345], [7.7253251, 46.3127239], [7.7253117, 46.3123864], [7.7253482, 46.3120419], [7.7250377, 46.3116042], [7.724367, 46.3103638], [7.7238749, 46.3090838], [7.7235662, 46.3077765], [7.7234439, 46.3064546], [7.7235092, 46.3051307], [7.7237614, 46.3038176], [7.7241981, 46.302528], [7.724815, 46.3012743], [7.7256063, 46.3000685], [7.7265642, 46.2989222], [7.7276795, 46.2978465], [7.7289416, 46.2968518], [7.7303382, 46.2959476], [7.7318559, 46.2951426], [7.73348, 46.2944446], [7.735195, 46.2938603], [7.7369844, 46.2933953], [7.7388308, 46.293054], [7.7407166, 46.2928398], [7.7426236, 46.2927548], [7.7445335, 46.2927997], [7.7464278, 46.2929741], [7.7482883, 46.2932764], [7.7500972, 46.2937036], [7.751837, 46.2942516], [7.7534909, 46.2949152], [7.7550431, 46.2956879], [7.7564786, 46.2965623], [7.7577836, 46.29753], [7.7589455, 46.2985818], [7.7597306, 46.2994587], [7.7600227, 46.2997229], [7.7611883, 46.3009015], [7.7621676, 46.3021588], [7.7624118, 46.3025163], [7.7632231, 46.3038965], [7.7638099, 46.3053303], [7.7638777, 46.3055395], [7.7641898, 46.3067611], [7.7643387, 46.3079974], [7.7643246, 46.3091181], [7.764344, 46.3092262], [7.7643925, 46.3095228], [7.7644768, 46.3100948], [7.7645766, 46.311325], [7.764514, 46.3125565], [7.7644632, 46.3129913], [7.764381, 46.3133615], [7.7644166, 46.3139467], [7.7644201, 46.3143547], [7.764336, 46.3156886], [7.7640622, 46.3170102], [7.7639891, 46.3172707], [7.7636547, 46.3182543], [7.7636657, 46.3184657], [7.7637273, 46.3185608], [7.7638084, 46.3187285], [7.7643022, 46.3192045], [7.7652099, 46.320275], [7.7655501, 46.3207768], [7.7657122, 46.3209239], [7.7666554, 46.3219635], [7.766922, 46.3222895], [7.7677358, 46.3234008], [7.7680741, 46.3239926], [7.7684435, 46.3244198], [7.76924, 46.3255785], [7.7698742, 46.3267843], [7.7703402, 46.3280263], [7.7705723, 46.3287928], [7.7708598, 46.3300227], [7.7709825, 46.3312657], [7.7709391, 46.3325113], [7.7709157, 46.3326499], [7.7709808, 46.3328669], [7.7711846, 46.334284], [7.7712406, 46.3351172], [7.7712439, 46.3357281], [7.7715052, 46.336476], [7.771577, 46.336822], [7.7717941, 46.337487], [7.7718974, 46.3380426], [7.7720712, 46.3384727], [7.7721205, 46.3386207], [7.7721876, 46.3386975], [7.7729321, 46.339744], [7.7732691, 46.3403434], [7.7735831, 46.3407566], [7.7742718, 46.341911], [7.7748036, 46.3431046], [7.7751737, 46.344327], [7.7753792, 46.345568], [7.7754181, 46.3468168], [7.775361, 46.3473726], [7.775523, 46.3476775], [7.7759801, 46.3488572], [7.7761537, 46.3495509], [7.7765072, 46.3506068], [7.7767079, 46.351647], [7.7767427, 46.351744], [7.7770297, 46.352339], [7.7774509, 46.3536081], [7.7776936, 46.3548994], [7.7777708, 46.355557], [7.777833, 46.3568435], [7.7777179, 46.3581283], [7.7774265, 46.3593996], [7.7769615, 46.3606459], [7.7765216, 46.361485], [7.7764489, 46.3618818], [7.7763812, 46.3620826], [7.7765236, 46.3632192], [7.7765203, 46.364413], [7.7763647, 46.3656019], [7.7762792, 46.3660386], [7.7762479, 46.3661919], [7.7761735, 46.3665418], [7.7758849, 46.3676031], [7.7756618, 46.3681695], [7.7755646, 46.3685628], [7.7755333, 46.3686621], [7.775513, 46.3687263], [7.7749192, 46.3702002], [7.7747139, 46.3706171], [7.7745847, 46.3708664], [7.7745349, 46.3710777], [7.7745926, 46.371982], [7.7745912, 46.3723285], [7.7746091, 46.3725236], [7.7745861, 46.3744583], [7.774564, 46.3746495], [7.7742962, 46.3760203], [7.7742405, 46.3768653], [7.7747427, 46.3780411], [7.7748423, 46.3783976], [7.774974, 46.3786642], [7.7752652, 46.3794892], [7.7754793, 46.3799249], [7.7759217, 46.3812507], [7.776169, 46.3826006], [7.7761839, 46.3830075], [7.7765052, 46.3832116], [7.7766799, 46.3832943], [7.7767374, 46.3833176], [7.7778136, 46.383803], [7.7778187, 46.3838043], [7.7792754, 46.3842083], [7.7806805, 46.3846922], [7.781143, 46.3848678], [7.7831546, 46.3857462], [7.7838366, 46.3861317], [7.7846192, 46.3864929], [7.7860277, 46.3872829], [7.7865127, 46.387611], [7.7865621, 46.3876315], [7.7868681, 46.3876912], [7.7886339, 46.3880995], [7.7890111, 46.3882008], [7.7909979, 46.3888249], [7.7928717, 46.3895986], [7.7934015, 46.3898462], [7.7934555, 46.3898715], [7.7944422, 46.3903359], [7.7951264, 46.3906731], [7.7959168, 46.3910806], [7.7974995, 46.3919902], [7.7978848, 46.3922639], [7.7980399, 46.3923391], [7.7983233, 46.3924491], [7.7984801, 46.3925128], [7.7997333, 46.393067], [7.8009219, 46.3936856], [7.8011334, 46.3938047], [7.8025778, 46.3947043], [7.802795, 46.3948538], [7.8034884, 46.3953832], [7.8048897, 46.3957477], [7.8056365, 46.395969], [7.8073339, 46.3965408], [7.8089434, 46.3972233], [7.8104501, 46.3980103], [7.8116496, 46.3987733], [7.8118454, 46.3987981], [7.8121397, 46.3988454], [7.8140037, 46.3992141], [7.8158057, 46.3997088], [7.8175279, 46.4003248], [7.8191532, 46.401056], [7.8206657, 46.4018952], [7.8220504, 46.4028341], [7.8232936, 46.4038633], [7.8235591, 46.4041068], [7.8237282, 46.4042793], [7.8244302, 46.4047466], [7.8256748, 46.4057556], [7.8267703, 46.4068443], [7.8269801, 46.4071039], [7.8280809, 46.4075077], [7.8288061, 46.4078055], [7.8297697, 46.4082279], [7.8301496, 46.4084054], [7.8303011, 46.4084534], [7.8319556, 46.4091204], [7.8335077, 46.4098964], [7.8349424, 46.4107738], [7.8362459, 46.4117443], [7.8374056, 46.4127984], [7.8384105, 46.4139261], [7.8392507, 46.4151165], [7.8399182, 46.4163581], [7.8404065, 46.417639], [7.840711, 46.4189468], [7.8408287, 46.4202689], [7.8407584, 46.4215927], [7.8405009, 46.4229053], [7.8400585, 46.4241941], [7.8394355, 46.4254468], [7.8386379, 46.4266512], [7.8376735, 46.4277957], [7.8365514, 46.4288693], [7.8352824, 46.4298617], [7.8338789, 46.4307633], [7.8323542, 46.4315654], [7.8307232, 46.4322603], [7.8290014, 46.4328413], [7.8272056, 46.4333027], [7.8253529, 46.4336403], [7.8234613, 46.4338506], [7.821549, 46.4339316], [7.8196345, 46.4338827], [7.817736, 46.4337042], [7.8158721, 46.4333979], [7.8153796, 46.4332991], [7.8134636, 46.4328388], [7.8130799, 46.4327144], [7.8113903, 46.4324481], [7.8095325, 46.4320159], [7.8077467, 46.431457], [7.806051, 46.4307771], [7.8044625, 46.429983], [7.8037734, 46.4296006], [7.8021327, 46.4285796], [7.8019531, 46.4284394], [7.8018273, 46.4283942], [7.8001877, 46.4276515], [7.7986641, 46.4267989], [7.7972718, 46.4258449], [7.796025, 46.4247991], [7.7949362, 46.4236722], [7.7946623, 46.4233159], [7.794379, 46.4230421], [7.7929047, 46.4225167], [7.7923932, 46.4223277], [7.789267, 46.421131], [7.7885423, 46.4208152], [7.7876881, 46.4206543], [7.7868743, 46.4204639], [7.7850737, 46.4199724], [7.7833524, 46.4193599], [7.7817273, 46.4186325], [7.7802144, 46.4177973], [7.7799672, 46.4176464], [7.7798921, 46.4176039], [7.7796721, 46.4174795], [7.7796766, 46.4174757], [7.7786604, 46.4169129], [7.7771123, 46.4158372], [7.7758658, 46.4147503], [7.7757434, 46.4146717], [7.7756241, 46.414611], [7.7751108, 46.4143185], [7.7750263, 46.4142849], [7.7733114, 46.4134198], [7.7731346, 46.41332], [7.7726481, 46.4130211], [7.7713615, 46.4126661], [7.7707282, 46.4124419], [7.7698977, 46.4122368], [7.7683012, 46.4117262], [7.7667777, 46.4111182], [7.7665194, 46.4110041], [7.7660432, 46.4107687], [7.7653097, 46.4105087], [7.7646137, 46.4102338], [7.7632599, 46.409647], [7.7620386, 46.4090159], [7.7619889, 46.4090056], [7.7601111, 46.4085433], [7.7583113, 46.4079508], [7.7566083, 46.4072344], [7.7550199, 46.4064015], [7.754057, 46.4057799], [7.7524794, 46.4052634], [7.7519956, 46.4050842], [7.7504606, 46.4044516], [7.7490156, 46.4037244], [7.7476729, 46.4029089], [7.7464438, 46.4020117], [7.7453385, 46.4010406], [7.7453054, 46.4010054], [7.7449802, 46.4007495], [7.7439891, 46.3998207], [7.7432824, 46.3990954], [7.7422893, 46.3979593], [7.7419625, 46.3975402], [7.7410992, 46.3962814], [7.7408224, 46.3957396], [7.7406295, 46.3955251], [7.7396476, 46.3940744], [7.7382714, 46.3916802], [7.7376509, 46.3904241], [7.7372118, 46.3891318], [7.7369306, 46.3880729], [7.7366647, 46.3866498], [7.7366187, 46.3852153], [7.7366747, 46.3847557], [7.7365518, 46.3844402], [7.7363541, 46.3841355], [7.7357877, 46.3830032], [7.7353686, 46.3818407], [7.7352774, 46.3815294], [7.7349753, 46.3801198], [7.7349183, 46.3791739], [7.7348873, 46.3790468], [7.7347524, 46.3778098], [7.7347822, 46.3765694], [7.734886, 46.3759104], [7.7348401, 46.3752721], [7.7348756, 46.3747439], [7.7348678, 46.374648], [7.7349309, 46.3734104], [7.7349391, 46.3733404], [7.7350017, 46.3730366], [7.7349357, 46.372799], [7.7347644, 46.3713246], [7.7347614, 46.371241], [7.7347906, 46.3700836], [7.7349629, 46.3689322], [7.734982, 46.3688427], [7.7354069, 46.3673977], [7.7356218, 46.3669332], [7.7358758, 46.3661357], [7.7359451, 46.3659616], [7.7365665, 46.3647544], [7.7366718, 46.3644715], [7.7368109, 46.3639558], [7.7368357, 46.3638777], [7.7371706, 46.3630633], [7.7371682, 46.3624351], [7.7370575, 46.3617825], [7.7370144, 46.3605261], [7.7371403, 46.3592724], [7.737434, 46.3580322], [7.7376138, 46.3574455], [7.737636, 46.3573867], [7.7376504, 46.3570599], [7.7377303, 46.3566395], [7.7376227, 46.3565059], [7.7369168, 46.3554099], [7.7363542, 46.3542749], [7.7359395, 46.3531097], [7.7356759, 46.3519237], [7.7356558, 46.3517958], [7.7355688, 46.3515191], [7.7353454, 46.3500175], [7.735278, 46.3490175], [7.7352791, 46.3477423], [7.7352916, 46.347651], [7.7347297, 46.3466201], [7.7342127, 46.3452532], [7.7341895, 46.3451477], [7.7340552, 46.3449128], [7.7334987, 46.343519], [7.7334235, 46.3432016], [7.7334118, 46.3431748], [7.7331104, 46.342746], [7.732461, 46.3415434], [7.7319795, 46.3403035], [7.7316704, 46.3390375], [7.7315363, 46.3377569], [7.7315081, 46.3369695], [7.7315606, 46.3355954], [7.7314592, 46.3349785], [7.7314067, 46.3344659], [7.7314059, 46.334436], [7.7311532, 46.3341382], [7.7307224, 46.3334912], [7.7305556, 46.3333273], [7.7301689, 46.3329066], [7.7291267, 46.3316231], [7.7282926, 46.3302687], [7.7279534, 46.3294926], [7.7278083, 46.3292519], [7.7276628, 46.3289725], [7.7272152, 46.3283713], [7.7269756, 46.3279486], [7.7269598, 46.3279294], [7.7260235, 46.3266355], [7.7252927, 46.3252796], [7.7247756, 46.3238772], [7.7244783, 46.3224446], [7.7244603, 46.3223055], [7.7243829, 46.3211198], [7.7244562, 46.319934], [7.724503, 46.3196873]]]}, "properties": {"feature_type": "corridor", "source_refs": ["osm-overpass-blatten-lotschental"], "geometry_quality": "osm_centreline", "positional_accuracy_m": 30.0, "aoi_id": "blatten-lotschental", "buffer_m": 1500.0, "buffer_epsg": 32632}}]}
