{"type": "FeatureCollection", "features": [{"type": "Feature", "geometry": {"type": "Point", "coordinates": [7.8192935, 46.4205806]}, "properties": {"id": "blatten", "aoi_id": "blatten-lotschental", "name": "Blatten (Lötschen)", "asset_type": "settlement", "status": "destroyed", "population": {"low": 300.0, "high": 300.0, "best": 300.0, "unit": "persons", "source_refs": ["vs-ch-2025-05-28-blatten", "swissinfo-2025-05-19-blatten"], "disputed": false, "estimates": [], "notes": "Residents evacuated on 19 May 2025: 300 per the Canton (28.05.2025) and Keystone-SDA (300 residents, about 100 buildings); an evacuation count, not a census figure."}, "transect_id": "blatten", "geometry_quality": "osm_node", "source_refs": ["vs-ch-2025-05-28-blatten", "vs-ch-polizeiklausel-loetschental", "swissinfo-2025-05-19-blatten", "osm-overpass-blatten-lotschental"], "notes": "Location: OSM node 240114017; 0.1 km from the centreline. Status per the Canton of Valais (28.05.2025): a very large part of the village was destroyed after the complete evacuation ordered on 19 May 2025.", "feature_type": "exposed_asset", "positional_accuracy_m": 300.0}}]}
