{"type": "FeatureCollection", "features": [{"type": "Feature", "geometry": {"type": "LineString", "coordinates": [[7.821312, 46.4204345], [7.8208196, 46.4203357], [7.8188444, 46.4194127], [7.8181191, 46.4191149], [7.8166778, 46.4194546], [7.8159887, 46.4190723], [7.8156059, 46.4186456], [7.8150584, 46.4184036], [7.814447, 46.4179976], [7.8142242, 46.4179144], [7.8134973, 46.4173458], [7.8130281, 46.4171599], [7.8125104, 46.4167679], [7.8122522, 46.4167481], [7.8121189, 46.4168468], [7.8116881, 46.4167452], [7.8113443, 46.4160689], [7.8111026, 46.4157665], [7.8106322, 46.4155818], [7.8105851, 46.4152284], [7.8104045, 46.4148777], [7.8104213, 46.4143605], [7.8102244, 46.414001], [7.8096332, 46.4138173], [7.8086975, 46.4133636], [7.808582, 46.4129593], [7.8080336, 46.4128834], [7.8078107, 46.412671], [7.8079805, 46.4122355], [7.807715, 46.411992], [7.8074207, 46.4119446], [7.8067303, 46.4121732], [7.8062661, 46.4118981], [7.8047041, 46.4115369], [7.8018438, 46.4105177], [7.798718, 46.4093212], [7.7982787, 46.4090481], [7.7981259, 46.408557], [7.797953, 46.4083765], [7.797206, 46.4081551], [7.7968058, 46.408168], [7.7964648, 46.4081579], [7.7960317, 46.4081481], [7.7957966, 46.4081351], [7.7955603, 46.4081221], [7.7949716, 46.4080034], [7.7942605, 46.4078869], [7.793943, 46.4078683], [7.7931294, 46.4076779], [7.7926051, 46.4073578], [7.7922443, 46.4071538], [7.7920243, 46.4070294], [7.7916944, 46.4068669], [7.7903151, 46.4055147], [7.7896399, 46.4052027], [7.7892562, 46.4046567], [7.7890348, 46.4044232], [7.7888176, 46.4042737], [7.7886061, 46.4041546], [7.7884492, 46.4040909], [7.7882002, 46.4039986], [7.7880059, 46.403953], [7.7873745, 46.4038332], [7.7871878, 46.4037382], [7.7869367, 46.4035389], [7.7866867, 46.4032982], [7.7860987, 46.4030413], [7.7856493, 46.4029622], [7.7854725, 46.4028624], [7.7842592, 46.401904], [7.7834687, 46.4014964], [7.7824819, 46.4010319], [7.7819521, 46.4007843], [7.7815749, 46.400683], [7.7811463, 46.4005994], [7.779745, 46.4004513], [7.77943, 46.400376], [7.7786404, 46.3999915], [7.7782891, 46.399889], [7.7772796, 46.3997419], [7.7770213, 46.3996278], [7.776469, 46.3991641], [7.7759865, 46.3989853], [7.7755612, 46.3988872], [7.7749831, 46.3987861], [7.7742872, 46.3985113], [7.7738521, 46.3982227], [7.7733496, 46.3976291], [7.7730518, 46.397362], [7.7723038, 46.3970505], [7.7717568, 46.3967007], [7.7712942, 46.396525], [7.7706769, 46.3963734], [7.7699338, 46.396324], [7.7690452, 46.3963224], [7.7687288, 46.3962762], [7.7681503, 46.3961917], [7.7675838, 46.3960744], [7.7674379, 46.3959701], [7.7672223, 46.3954185], [7.7670083, 46.3950789], [7.7668839, 46.394967], [7.7667007, 46.3948928], [7.7660539, 46.394631], [7.7654013, 46.3943033], [7.7642224, 46.3937782], [7.764015, 46.3936728], [7.7636697, 46.393427], [7.7633575, 46.3931616], [7.7630885, 46.3930596], [7.7627494, 46.3931115], [7.7621449, 46.3933619], [7.7616859, 46.3933626], [7.7612022, 46.3931835], [7.7609899, 46.39287], [7.760165, 46.3922748], [7.7594582, 46.3915496], [7.7591313, 46.3911305], [7.7590404, 46.3907946], [7.7589665, 46.3903457], [7.7585229, 46.3898167], [7.7577733, 46.3890844], [7.7563964, 46.3866904], [7.7561148, 46.3856315], [7.7565182, 46.3848662], [7.7566902, 46.3844313], [7.75672, 46.3836197], [7.7565952, 46.3834022], [7.7563998, 46.3829653], [7.7562532, 46.3824504], [7.7560009, 46.3821676], [7.7558475, 46.3819662], [7.7557886, 46.3818277], [7.7558375, 46.3814465], [7.7557943, 46.3812384], [7.7552897, 46.3807537], [7.7550806, 46.3800808], [7.7547988, 46.3795905], [7.7544827, 46.3791563], [7.7543914, 46.3788451], [7.7545232, 46.378066], [7.7543135, 46.3776256], [7.7542466, 46.377412], [7.7543622, 46.3768975], [7.75458, 46.3763283], [7.754796, 46.3759004], [7.7548125, 46.3757796], [7.7547529, 46.3756428], [7.754369, 46.3753115], [7.7543419, 46.3752487], [7.754374, 46.3751935], [7.7545521, 46.3750062], [7.7545729, 46.3749514], [7.7545692, 46.3748695], [7.7543981, 46.374608], [7.7543682, 46.3745029], [7.7543764, 46.3744329], [7.7544168, 46.3742963], [7.7544815, 46.3741925], [7.7547875, 46.3739821], [7.755125, 46.3735698], [7.7551472, 46.3733786], [7.7550884, 46.3727361], [7.755092, 46.3719413], [7.7547831, 46.3716633], [7.75453, 46.3714096], [7.7542922, 46.3710735], [7.7542584, 46.3709799], [7.7542553, 46.3708963], [7.7542743, 46.3708068], [7.7544455, 46.3705757], [7.7545474, 46.370413], [7.7545979, 46.3702803], [7.7546203, 46.3701236], [7.7546314, 46.3698996], [7.7546738, 46.3697228], [7.7547431, 46.3695487], [7.7553165, 46.3686485], [7.7553731, 46.3685463], [7.7554199, 46.3684423], [7.755511, 46.367898], [7.7557825, 46.367285], [7.755803, 46.3672319], [7.7558235, 46.3671591], [7.7558322, 46.3670872], [7.7558339, 46.3669984], [7.7558407, 46.3669199], [7.7558576, 46.3668442], [7.7558823, 46.3667661], [7.755922, 46.3666881], [7.7559709, 46.3666157], [7.7560523, 46.3665182], [7.7561355, 46.3664263], [7.7561886, 46.3663689], [7.7562281, 46.3663152], [7.756259, 46.3662584], [7.7564645, 46.3658416], [7.7564848, 46.3657774], [7.7565144, 46.3656836], [7.7565396, 46.3655439], [7.7565603, 46.3653477], [7.756591, 46.3652328], [7.7566256, 46.3651388], [7.7568832, 46.3645751], [7.7569577, 46.3642252], [7.7570433, 46.3637885], [7.756941, 46.3634703], [7.7567142, 46.3631685], [7.7566817, 46.3631095], [7.7566399, 46.3629334], [7.7566488, 46.3628113], [7.7566936, 46.3626219], [7.7567748, 46.3619518], [7.7567393, 46.3612749], [7.756506, 46.3608324], [7.7566856, 46.3602457], [7.7572596, 46.3594942], [7.7572381, 46.3589574], [7.7571366, 46.3584559], [7.7570826, 46.3581466], [7.757265, 46.3578319], [7.7575546, 46.3576431], [7.7575187, 46.3574832], [7.7574462, 46.3574021], [7.7574627, 46.3571742], [7.7578851, 46.3568658], [7.7583397, 46.3566494], [7.7582627, 46.3559918], [7.7580428, 46.3557956], [7.7579838, 46.3553809], [7.7575117, 46.3547589], [7.7574474, 46.3545664], [7.7572757, 46.3543701], [7.7572484, 46.354156], [7.7572757, 46.3538888], [7.7572113, 46.3534297], [7.7573293, 46.3530261], [7.7570182, 46.3524707], [7.7570075, 46.3521116], [7.7569431, 46.3517598], [7.7566427, 46.3514414], [7.7563991, 46.3512591], [7.7559775, 46.351023], [7.7553552, 46.3508008], [7.7550548, 46.3504639], [7.7549295, 46.3496672], [7.7548168, 46.349386], [7.754749, 46.3483861], [7.7549163, 46.3480491], [7.7550623, 46.3474892], [7.7557999, 46.3469119], [7.7559324, 46.3464816], [7.7554764, 46.3459432], [7.7552915, 46.3455855], [7.7550923, 46.34518], [7.7542737, 46.3443283], [7.7539722, 46.3435813], [7.7532995, 46.3425196], [7.7533027, 46.34211], [7.7528494, 46.3409875], [7.7525345, 46.340622], [7.7525335, 46.340284], [7.7526032, 46.3398383], [7.7521741, 46.3395692], [7.7521419, 46.3394174], [7.7523673, 46.3390248], [7.752115, 46.3387514], [7.751945, 46.3380688], [7.7516296, 46.3376906], [7.7512508, 46.3376147], [7.7510186, 46.3374203], [7.7509901, 46.3366329], [7.7516548, 46.3364007], [7.7517739, 46.3357432], [7.7517182, 46.33491], [7.751053, 46.3343397], [7.7508974, 46.3340211], [7.7508447, 46.3335086], [7.7511387, 46.3327071], [7.7512042, 46.3321294], [7.7515009, 46.331562], [7.7512691, 46.3307955], [7.7504891, 46.3302462], [7.7499403, 46.3294813], [7.7499703, 46.3289442], [7.7497037, 46.3286182], [7.74842, 46.3278822], [7.7482355, 46.3274432], [7.7482071, 46.3270891], [7.747974, 46.3265688], [7.7469915, 46.3260769], [7.7466047, 46.3256562], [7.7465623, 46.3254325], [7.7463985, 46.3248685], [7.7461356, 46.3246692], [7.7458207, 46.324065], [7.7455806, 46.323473], [7.7453763, 46.3231949], [7.7449637, 46.3228022], [7.7449088, 46.3224859], [7.7438834, 46.3212409], [7.7438654, 46.3211018], [7.7440261, 46.3204701], [7.7439813, 46.3199816], [7.743992, 46.3193629], [7.7442093, 46.3188942], [7.7442173, 46.3186682], [7.7440805, 46.3182366], [7.7440645, 46.3179569], [7.7440319, 46.3172851], [7.7440537, 46.3167121], [7.7442131, 46.3160455], [7.7442611, 46.315845], [7.7446897, 46.3150298], [7.744867, 46.3146925], [7.7449402, 46.314432], [7.7449369, 46.314024], [7.7449161, 46.31384], [7.7447861, 46.3126928], [7.7450475, 46.3118994], [7.7450985, 46.3114646], [7.7450144, 46.3108926], [7.7447855, 46.3096163], [7.7448741, 46.308499], [7.7448063, 46.3082898], [7.7445622, 46.3079322], [7.7442064, 46.3076103], [7.7436477, 46.3071339], [7.7432842, 46.3067082], [7.742919, 46.3062515]]}, "properties": {"feature_type": "river_centreline", "source_refs": ["osm-overpass-blatten-lotschental"], "geometry_quality": "osm_centreline", "positional_accuracy_m": 30.0, "aoi_id": "blatten-lotschental", "epsg_for_chainage": 32632, "chainage_km": {"start": 0.0, "end": 16.528}, "osm_way_ids": [1505088934, 1505088933, 865639247, 477155049, 477155048], "osm_timestamp": "2026-09-03T10:04:30Z", "attribution": "© OpenStreetMap contributors", "licence": "ODbL-1.0"}}]}
