{"type": "FeatureCollection", "features": [{"type": "Feature", "geometry": {"type": "Polygon", "coordinates": [[[7.87, 46.39], [7.87, 46.45], [7.78, 46.45], [7.78, 46.39], [7.87, 46.39]]]}, "properties": {"feature_type": "source_zone", "source_refs": ["osm-overpass-blatten-lotschental", "vs-ch-2025-05-28-blatten", "wsl-2025-06-02-birchgletscher", "srf-2025-05-18-blatten"], "geometry_quality": "hand_digitised_approximate", "positional_accuracy_m": 1000.0, "aoi_id": "blatten-lotschental", "bbox_4326": [7.78, 46.39, 7.87, 46.45], "notes": "Design rectangle (see aoi.json notes); not a mapped scar or deposit."}}]}
