{"type": "FeatureCollection", "features": [{"type": "Feature", "geometry": {"type": "Point", "coordinates": [7.8199361, 46.4199229]}, "properties": {"id": "blatten", "aoi_id": "blatten-lotschental", "name": "Blatten (Lötschen)", "chainage_km": 0.121, "geometry_quality": "snapped_to_osm_centreline", "positional_accuracy_m": 88.2, "source_refs": ["osm-overpass-blatten-lotschental"], "notes": "Snapped from OSM node 240114017 to the OSM centreline; the feature lies 88 m from the snapped point.", "feature_type": "transect"}}, {"type": "Feature", "geometry": {"type": "Point", "coordinates": [7.7854725, 46.4028624]}, "properties": {"id": "wiler", "aoi_id": "blatten-lotschental", "name": "Wiler (Lötschen)", "chainage_km": 3.704, "geometry_quality": "snapped_to_osm_centreline", "positional_accuracy_m": 190.6, "source_refs": ["osm-overpass-blatten-lotschental"], "notes": "Snapped from OSM node 240061085 to the OSM centreline; the feature lies 191 m from the snapped point.", "feature_type": "transect"}}, {"type": "Feature", "geometry": {"type": "Point", "coordinates": [7.744343, 46.3156892]}, "properties": {"id": "gampel", "aoi_id": "blatten-lotschental", "name": "Gampel", "chainage_km": 15.423, "geometry_quality": "snapped_to_osm_centreline", "positional_accuracy_m": 109.9, "source_refs": ["osm-overpass-blatten-lotschental"], "notes": "Snapped from OSM node 60031830 to the OSM centreline; the feature lies 110 m from the snapped point.", "feature_type": "transect"}}]}
